"address_id","house_number","house_name","street","city","county","post_code","Address_ID"
6544263885,563,"Kelham Island","Parsons Green Lane","Brighton","Herefordshire","LE1 1AA","AD00001"
1464102031,368,"The Leverton","Wilton Road","Sheffield","Dorset","YO1 1AA","AD00002"
6590069980,831,"The Drapery","Gillespie Road","Doncaster","Cumbria","BN1 2AA","AD00003"
8080898804,427,"The Forbury","Bloomsbury Square","Plymouth","Berkshire","CV1 3AA","AD00004"
9065369813,711,"Jericho Road","Bloomsbury Square","Luton","Norfolk","PE1 1AA","AD00005"
7362173172,1108,"Sovereign Square","Elgin Avenue","Dudley","Worcestershire","NN1 1AA","AD00006"
2953601880,340,"Sovereign Square","Gillespie Road","Bolton","Oxfordshire","EX1 2AA","AD00007"
1997061171,778,"Cathedral Quarter","Askew Road","Brighton","Surrey","WD1 1AA","AD00008"
265017912,317,"The Triangle","Church Street","Blackpool","Leicestershire","RG1 1AA","AD00009"
4747428704,1156,"The Lanes Apartments","Barons Court Road","Norwich","Cambridgeshire","MK1 2AA","AD00010"
7625363082,867,"The Marina","Margravine Road","Southampton","Northumberland","BH1 3AA","AD00011"
690509146,254,"The Hoe Apartment Hotel","Fitzroy Square","Leeds","Staffordshire","LE1 3AA","AD00012"
4571167148,842,"The Broadway","Chipping Norton Street","Crawley","Bristol","FY1 2AA","AD00013"
8858082133,1270,"The Lace House","Kensington Palace Gardens","Reading","Warwickshire","DY1 1AA","AD00014"
2682380557,1146,"The Rufus Centre","Askew Road","Doncaster","Buckinghamshire","DY1 3AA","AD00015"
3008065392,181,"The Quay","The Crescent","Wolverhampton","Greater Manchester","GL1 3AA","AD00016"
365713767,1298,"Deansgate Quays","Parsons Green Lane","Leeds","East Sussex","YO1 3AA","AD00017"
6118607494,597,"The Lexington","Bloomsbury Square","Peterborough","Norfolk","GL1 1AA","AD00018"
4328235230,344,"XYZ Apartments","Barnsbury Road","Manchester","West Sussex","OL1 2AA","AD00019"
7843428607,842,"The Interchange","Kensington Palace Gardens","Liverpool","Worcestershire","CR1 1AA","AD00020"
1830808907,1085,"St Paul's Place","Lyttelton Road","Sheffield","Oxfordshire","BN1 1AA","AD00021"
5916191723,1140,"Castlegate","The Boltons","Salisbury","Merseyside","EX1 2AA","AD00022"
6642066561,227,"Smithfield","The Boltons","Cambridge","Nottinghamshire","YO1 1AA","AD00023"
6458468679,683,"Trinity Walk","Canonbury Grove","Salisbury","Wiltshire","B1 3AA","AD00024"
5266260572,400,"St Paul's Place","Bloomsbury Square","Bristol","Hertfordshire","BL1 3AA","AD00025"
6076879548,1408,"Bede House","Park Avenue Road","Carlisle","Lincolnshire","SO1 2AA","AD00026"
8550167215,268,"Southgate","Park Avenue Road","Manchester","East Sussex","HU1 1AA","AD00027"
5408341801,685,"Wapping Wharf","Sutherland Avenue","Sunderland","North Yorkshire","TS1 2AA","AD00028"
3926858273,377,"Moda Living","Randolph Crescent","Luton","Cheshire","CA1 3AA","AD00029"
253723965,1271,"The Unity Building","Barnsbury Road","Sunderland","Essex","DN1 3AA","AD00030"
6432963656,245,"Humber Street","Thornhill Road","Liverpool","Lincolnshire","DY1 2AA","AD00031"
1657825868,1218,"The Randolph","Elgin Avenue","Kingston upon Hull","Cheshire","HU1 1AA","AD00032"
6650908940,673,"One Park Lane","Wilton Road","Carlisle","Berkshire","HU1 2AA","AD00033"
5259750527,305,"The Regency","Notting Hill Gate","Ipswich","Lincolnshire","EX1 2AA","AD00034"
6477531755,1487,"Jericho Road","Wilton Road","Lincoln","Hampshire","WD1 3AA","AD00035"
4970190046,1498,"The Interchange","Margravine Road","Lincoln","Norfolk","B1 1AA","AD00036"
7132549766,1492,"The Quadrant","Alverstone Street","Birmingham","Shropshire","TS1 1AA","AD00037"
6803925013,1394,"The Curve","Alverstone Street","Milton Keynes","Buckinghamshire","WD1 1AA","AD00038"
2069833984,317,"City Walls","Addison Road","Portsmouth","Bristol","SP1 3AA","AD00039"
8092596204,732,"The Avenue","Askew Road","Plymouth","Suffolk","ST1 2AA","AD00040"
8281533390,414,"The Rufus Centre","Notting Hill Gate","Leeds","Nottinghamshire","GL1 2AA","AD00041"
2443656276,931,"St Paul's Place","Askew Road","Stoke-on-Trent","Oxfordshire","WV1 3AA","AD00042"
3279168732,1243,"Princes Dock","Highbury Fields","Chester","Cumbria","NR1 3AA","AD00043"
2815775611,708,"The Maltings","Highbury Fields","Bradford","Devon","LN1 1AA","AD00044"
5298271111,189,"Arena Central","Parsons Green Lane","Carlisle","Bristol","MK1 2AA","AD00045"
5307772904,494,"The Wave","Highbury Fields","York","South Yorkshire","FY1 2AA","AD00046"
2546994468,271,"Victoria Gate","Chipping Norton Street","Blackburn","Durham","LE1 3AA","AD00047"
9074609589,52,"Castlegate","Elgin Avenue","Sheffield","Merseyside","NR1 3AA","AD00048"
4160671926,682,"Victoria Gate","Elgin Avenue","Newcastle upon Tyne","Nottinghamshire","RG1 1AA","AD00049"
2051089531,1334,"The Brunel Centre","Askew Road","Reading","Somerset","B1 2AA","AD00050"
1294122231,1268,"Kampus","Gillespie Road","Norwich","Staffordshire","PL1 2AA","AD00051"
5397094137,175,"Market Square","Sutherland Avenue","Milton Keynes","East Sussex","CB1 1AA","AD00052"
6733297957,1144,"Ropewalks","Church Street","Stoke-on-Trent","Devon","OX1 2AA","AD00053"
2835138269,1371,"The Barbican","Lyttelton Road","Bristol","West Sussex","ST1 2AA","AD00054"
4161236344,190,"One Park Lane","Highbury Fields","Middlesbrough","Isle of Wight","BD1 1AA","AD00055"
2388338018,1088,"The Docks","Bloomsbury Square","Bolton","Northamptonshire","WV1 3AA","AD00056"
4847222970,835,"The Strand","Barnsbury Road","Reading","East Sussex","FY1 1AA","AD00057"
1774912449,412,"Humber Street","Fitzroy Square","Sheffield","Berkshire","HU1 2AA","AD00058"
7573076207,339,"The Waterfront","Randolph Crescent","Sheffield","Tyne and Wear","BH1 1AA","AD00059"
8990483581,200,"The Waterfront","The Crescent","Coventry","Worcestershire","CH1 1AA","AD00060"
7630136404,1377,"The Vines","Fitzroy Square","Plymouth","Warwickshire","HU1 3AA","AD00061"
8963712141,955,"Hampton","Askew Road","Lincoln","Derbyshire","LE1 1AA","AD00062"
2749684978,440,"The Big One Apartments","Notting Hill Gate","Kingston upon Hull","Greater Manchester","PL1 2AA","AD00063"
333988744,390,"The Bridges","Bramerton Street","Cambridge","City of London","YO1 2AA","AD00064"
6154626959,1258,"Waterfront","Alverstone Street","Carlisle","City of London","FY1 3AA","AD00065"
3031105850,406,"Bathurst Buildings","Park Avenue Road","Rochdale","Devon","HU1 2AA","AD00066"
2738032168,1132,"Waterdale","Elgin Avenue","Birmingham","Nottinghamshire","YO1 2AA","AD00067"
3137040515,371,"Rochdale Exchange","Lauderdale Road","Wolverhampton","Lincolnshire","FY1 1AA","AD00068"
6318137017,1041,"Hampton","Parsons Green Lane","Sheffield","Greater London","LS1 3AA","AD00069"
9104083458,147,"The Exchange","Marylebone High Street","Middlesbrough","Greater Manchester","TS1 2AA","AD00070"
1171261543,50,"Transporter Bridge Apartments","Weltjie Road","Salisbury","Cornwall","WF1 3AA","AD00071"
8441238464,253,"Capability Green","Notting Hill Gate","Bolton","Leicestershire","IP1 1AA","AD00072"
507955641,920,"The Grafton","The Boltons","Plymouth","Suffolk","IP1 3AA","AD00073"
377055085,1155,"Cathedral Quarter","Barnsbury Road","Sunderland","North Yorkshire","OX1 3AA","AD00074"
9687133783,1319,"The Grafton","Wimbledon Park Road","Peterborough","Cumbria","LS1 1AA","AD00075"
4600789261,1416,"Friar Street","Marylebone High Street","Sunderland","North Yorkshire","BS1 1AA","AD00076"
1348636521,548,"The Waterfront","Weltjie Road","Cambridge","Rutland","LU1 3AA","AD00077"
5500360906,944,"Cathedral Quarter","Margravine Road","Gloucester","Hampshire","GL1 3AA","AD00078"
6801029983,324,"The iQ Wolverhampton","Addison Road","Oxford","Cornwall","WF1 2AA","AD00079"
1718589611,754,"The Bottle Yard Studios","Bramerton Street","Coventry","Greater Manchester","ST1 2AA","AD00080"
4498436237,1483,"The Norwich Lanes","Addison Road","Carlisle","Derbyshire","CB1 3AA","AD00081"
5257869705,578,"The Waterfront","Wilton Road","Leicester","Cambridgeshire","BH1 1AA","AD00082"
7746897282,260,"Linthorpe Road","Thornhill Road","Swindon","Hertfordshire","BS1 3AA","AD00083"
2889764648,345,"The Buttermarket","Parsons Green Lane","Bradford","Warwickshire","S1 1AA","AD00084"
8167843629,789,"Castlegate","Sutherland Avenue","Wolverhampton","Shropshire","CR1 1AA","AD00085"
6056863689,1251,"Bede House","Fitzroy Square","Middlesbrough","Suffolk","EX1 1AA","AD00086"
2145873546,598,"The Randolph","Sutherland Avenue","Oxford","Norfolk","SR1 1AA","AD00087"
7116557792,747,"The Unity Building","Highbury Fields","Sunderland","East Sussex","HU1 3AA","AD00088"
6268159195,831,"Regent Street","Sutherland Avenue","Ipswich","Rutland","BS1 1AA","AD00089"
893779792,864,"Lakeside Village","Wimbledon Park Road","Birmingham","Worcestershire","NR1 1AA","AD00090"
3626331628,131,"The Quays","Thornhill Road","Doncaster","Suffolk","NE1 3AA","AD00091"
6684130357,747,"High Street","The Crescent","Southampton","Cornwall","BN1 3AA","AD00092"
3300418038,662,"The Sands","Church Street","Manchester","Norfolk","BN1 2AA","AD00093"
5404416629,267,"The Big One Apartments","Chipping Norton Street","Swindon","Wiltshire","SR1 3AA","AD00094"
6586917107,1387,"The Norwich Lanes","Lyttelton Road","Portsmouth","Cheshire","WD1 1AA","AD00095"
5338366185,82,"The Waterfront","Bloomsbury Square","Portsmouth","Herefordshire","FY1 3AA","AD00096"
584250657,24,"The Centre MK","Wimbledon Park Road","Bournemouth","Nottinghamshire","NR1 3AA","AD00097"
1252251327,1253,"The Harlequin","Askew Road","Watford","Bristol","CA1 1AA","AD00098"
1013842170,780,"Moda Living","Chipping Norton Street","Coventry","Nottinghamshire","BH1 3AA","AD00099"
7846380672,829,"The Close","Parsons Green Lane","Luton","Lancashire","IP1 3AA","AD00100"
1608877892,1255,"Spinningfields Tower","Gillespie Road","Sheffield","Warwickshire","CB1 2AA","AD00101"
7797725136,1177,"The Butts","Wilton Road","Salisbury","Cumbria","WD1 1AA","AD00102"
6661517190,918,"Humber Street","The Boltons","Blackburn","East Riding of Yorkshire","WF1 3AA","AD00103"
2133426183,792,"Southgate","Lauderdale Road","Nottingham","Bristol","PL1 1AA","AD00104"
6463901741,1114,"Xscape MK","Kensington Palace Gardens","Bradford","Cambridgeshire","FY1 1AA","AD00105"
7409408928,1488,"Cathedral Square","Notting Hill Gate","Wolverhampton","Nottinghamshire","EX1 2AA","AD00106"
8099196368,925,"Bathurst Buildings","Chipping Norton Street","Sunderland","Durham","SO1 1AA","AD00107"
3378775963,521,"The Lansdowne","Chipping Norton Street","Lincoln","Cornwall","NG1 1AA","AD00108"
8476327897,204,"Lace Market Wohnungen","Park Avenue Road","Birmingham","Worcestershire","LU1 2AA","AD00109"
4102897526,265,"High Street","Barnsbury Road","Leeds","Northamptonshire","S1 3AA","AD00110"
6399473276,415,"The Rufus Centre","Wimbledon Park Road","Newcastle upon Tyne","Somerset","BS1 1AA","AD00111"
2282257669,466,"Bathurst Buildings","Kensington Palace Gardens","Bradford","Surrey","NR1 2AA","AD00112"
9297773036,198,"The iQ Wolverhampton","Notting Hill Gate","Rochdale","West Sussex","OL1 2AA","AD00113"
3471963782,1020,"Brindleyplace","The Boltons","Bolton","Merseyside","MK1 1AA","AD00114"
9180371132,136,"The iQ Wolverhampton","Thornhill Road","Leicester","Durham","OX1 2AA","AD00115"
131527800,1367,"The Potteries Shopping Centre","Fitzroy Square","Southampton","Merseyside","SP1 3AA","AD00116"
1646031261,1208,"Christchurch Park Ipswich","Randolph Crescent","Manchester","Hampshire","PL1 2AA","AD00117"
8382514138,443,"Ropewalks","Church Street","Reading","Cumbria","SP1 2AA","AD00118"
8993607680,447,"City Park","Parsons Green Lane","Manchester","Bedfordshire","FY1 2AA","AD00119"
9794734004,823,"The Buttermarket","Bloomsbury Square","Exeter","West Sussex","HU1 3AA","AD00120"
47567759,960,"Bathurst Buildings","Chipping Norton Street","Bradford","Leicestershire","LE1 3AA","AD00121"
9145916063,220,"The Malago Estate","Canonbury Grove","Doncaster","Greater London","FY1 1AA","AD00122"
5855038920,661,"Regent Street","Thornhill Road","Bournemouth","Warwickshire","SR1 2AA","AD00123"
8788715353,1327,"The Lace House","Church Street","Blackpool","Worcestershire","NE1 3AA","AD00124"
4270640871,1133,"Brindleyplace","Gillespie Road","Stoke-on-Trent","Merseyside","SO1 3AA","AD00125"
1457684055,497,"The General Hospital Quarter","Church Street","Carlisle","Surrey","MK1 2AA","AD00126"
5083019507,515,"Church Wharf","Gillespie Road","Luton","Cornwall","SO1 3AA","AD00127"
6589377545,247,"Rochdale Exchange","Church Street","Derby","Suffolk","BL1 1AA","AD00128"
1798777665,1,"The Centre MK","Fitzroy Square","Sunderland","Berkshire","DY1 2AA","AD00129"
5162634735,601,"The Malago Estate","Lauderdale Road","Doncaster","Cheshire","BD1 2AA","AD00130"
3031537092,432,"The Landmark","Wilton Road","Chester","West Midlands","EX1 3AA","AD00131"
1033063460,603,"The Vines","Thornhill Road","Cambridge","Devon","EX1 1AA","AD00132"
3620283931,983,"The Promenade Apartments","Marylebone High Street","York","North Yorkshire","SN1 3AA","AD00133"
5836194823,242,"Gunwharf Quays","Wimbledon Park Road","Kingston upon Hull","Merseyside","BN1 2AA","AD00134"
7463304434,800,"Trinity Walk","Notting Hill Gate","Leicester","Cumbria","SO1 1AA","AD00135"
1510654763,975,"Watergate Street","Bloomsbury Square","Lincoln","Devon","WV1 2AA","AD00136"
5839161837,1218,"The Custard Factory","Marylebone High Street","Liverpool","Norfolk","CR1 3AA","AD00137"
7107101188,1346,"The Point","Barons Court Road","Coventry","Wiltshire","LS1 2AA","AD00138"
7077252256,1364,"Kirkgate","Alverstone Street","Birmingham","Buckinghamshire","OX1 1AA","AD00139"
4722520100,663,"The Broadway","The Crescent","York","Bedfordshire","HU1 3AA","AD00140"
3124132467,934,"Cathedral Quarter","Lauderdale Road","Plymouth","Devon","GL1 1AA","AD00141"
3392770922,429,"The BH1 Apartments","Marylebone High Street","Peterborough","Lincolnshire","EX1 2AA","AD00142"
9146255893,392,"The Lexington","Marylebone High Street","Exeter","Cumbria","B1 1AA","AD00143"
568178351,57,"Chapelfield Road","Chipping Norton Street","Ipswich","Norfolk","YO1 1AA","AD00144"
1398029653,1314,"The Broadway","Highbury Fields","Doncaster","Northumberland","WF1 2AA","AD00145"
3961611092,1445,"Waterfront","Addison Road","Northampton","Lancashire","TS1 3AA","AD00146"
811685195,383,"Lakeside Village","Kensington Palace Gardens","Kingston upon Hull","Dorset","TS1 3AA","AD00147"
2485299706,163,"The Elements","Barnsbury Road","Leeds","East Riding of Yorkshire","FY1 1AA","AD00148"
6552930984,972,"St Paul's Place","Highbury Fields","Reading","Herefordshire","WV1 1AA","AD00149"
1598038427,454,"The Silk Mill","Wilton Road","Lincoln","Cornwall","LE1 3AA","AD00150"
5680811235,1107,"Chapelfield Road","Weltjie Road","Manchester","Cheshire","SO1 1AA","AD00151"
1710499087,1313,"Waterfront","Parsons Green Lane","Liverpool","Hertfordshire","WV1 3AA","AD00152"
669397814,1466,"Linthorpe Road","Parsons Green Lane","Northampton","Cumbria","GL1 2AA","AD00153"
9553594603,576,"Southgate","Thornhill Road","Southampton","Cumbria","CA1 1AA","AD00154"
7059545212,1219,"Highcross Leicester","Barnsbury Road","Salisbury","Cornwall","FY1 2AA","AD00155"
7730306603,245,"City Walls","Gillespie Road","Rochdale","Cumbria","BN1 2AA","AD00156"
7489947162,939,"The Quays","Barnsbury Road","Birmingham","Norfolk","TS1 1AA","AD00157"
4599038598,1382,"Victoria Street","Parsons Green Lane","Liverpool","Northamptonshire","IP1 3AA","AD00158"
8397601740,1129,"Rivergate","Bloomsbury Square","Middlesbrough","South Yorkshire","EX1 3AA","AD00159"
5254431415,354,"The Strand","Bloomsbury Square","Chester","Essex","MK1 1AA","AD00160"
1940114950,67,"The Barbican","Sutherland Avenue","Southampton","Worcestershire","YO1 1AA","AD00161"
3235316701,1208,"Sutton Harbour","Lyttelton Road","Kingston upon Hull","Herefordshire","SO1 3AA","AD00162"
4327876836,529,"Highcross Leicester","The Boltons","Luton","City of London","MK1 3AA","AD00163"
1474506615,641,"The Docks","Bloomsbury Square","Luton","Greater London","LU1 2AA","AD00164"
5730407726,171,"Church Wharf","Chipping Norton Street","Peterborough","Cumbria","WF1 2AA","AD00165"
1936506793,1495,"The Randolph","Kensington Palace Gardens","Southampton","Lancashire","IP1 1AA","AD00166"
3469846820,1402,"Crusader Court","The Boltons","Dudley","Cambridgeshire","PL1 1AA","AD00167"
3886120708,1038,"The Rufus Centre","Bramerton Street","Nottingham","Hampshire","SP1 2AA","AD00168"
9546088706,334,"Minster Court","Bramerton Street","Exeter","Nottinghamshire","S1 1AA","AD00169"
2857700733,911,"The Rufus Centre","Bramerton Street","York","East Sussex","M1 1AA","AD00170"
2281915859,1012,"Trinity Leeds","Gillespie Road","Sunderland","East Riding of Yorkshire","CB1 3AA","AD00171"
5465303891,788,"Sutton Harbour","Highbury Fields","Blackpool","Nottinghamshire","B1 2AA","AD00172"
59185384,178,"The Broadway","The Crescent","Carlisle","Staffordshire","LU1 2AA","AD00173"
6394424005,1401,"Guildhall Square","Kensington Palace Gardens","Stoke-on-Trent","Berkshire","DE1 1AA","AD00174"
650297555,167,"Victoria Street","Marylebone High Street","Stoke-on-Trent","Worcestershire","DN1 3AA","AD00175"
5584374792,910,"The Bridges","Wilton Road","Peterborough","Worcestershire","LS1 3AA","AD00176"
1588961818,746,"The Brunel Centre","Fitzroy Square","Northampton","West Midlands","NG1 1AA","AD00177"
4537785667,480,"The Vines","Thornhill Road","Coventry","Rutland","S1 3AA","AD00178"
8762843095,172,"The Regency","Lyttelton Road","Gloucester","Devon","OX1 1AA","AD00179"
9117102316,1438,"Deansgate Quays","Elgin Avenue","Bournemouth","Leicestershire","GL1 2AA","AD00180"
7905409791,906,"The Triangle","Elgin Avenue","Dudley","Bedfordshire","CR1 2AA","AD00181"
1032582626,1476,"The Drapery","Chipping Norton Street","Leeds","West Sussex","BH1 1AA","AD00182"
6329642370,234,"The Avenue","Church Street","Brighton","Northamptonshire","DN1 2AA","AD00183"
7416589878,1225,"Southgate","Margravine Road","Blackburn","Greater Manchester","CB1 3AA","AD00184"
9136687995,46,"The Quadrant","Randolph Crescent","Birmingham","Lincolnshire","SO1 2AA","AD00185"
9233596761,1000,"Velocity Apartments","Alverstone Street","Sheffield","Oxfordshire","CB1 1AA","AD00186"
5150535230,1163,"The Pumphouse","Margravine Road","Luton","Lincolnshire","BD1 2AA","AD00187"
5103118963,1412,"Transporter Bridge Apartments","Lyttelton Road","Nottingham","Worcestershire","WV1 3AA","AD00188"
9725089383,449,"Bede House","Thornhill Road","Northampton","Merseyside","SN1 3AA","AD00189"
4187811702,1394,"The Butts","Bloomsbury Square","Exeter","Northumberland","BD1 3AA","AD00190"
4601559146,200,"Southgate Street","Wilton Road","Portsmouth","Somerset","LU1 1AA","AD00191"
6232987233,635,"Cathedral Green","Elgin Avenue","Ipswich","Cambridgeshire","TS1 3AA","AD00192"
7139287600,540,"The Broadway","Parsons Green Lane","Coventry","Warwickshire","RG1 3AA","AD00193"
9084298179,1172,"The Cube","Wilton Road","Brighton","Oxfordshire","DN1 2AA","AD00194"
7271711953,1191,"The Quadrant","Margravine Road","Rochdale","Isle of Wight","MK1 1AA","AD00195"
1493263358,823,"Midsummer Boulevard","Church Street","Bristol","East Sussex","FY1 2AA","AD00196"
45410119,600,"Kings Walk","Church Street","Brighton","East Riding of Yorkshire","LN1 2AA","AD00197"
2507671858,1064,"The Big One Apartments","The Boltons","Bradford","Cheshire","SP1 3AA","AD00198"
9787728533,1463,"The Broadway","Addison Road","Luton","Durham","LE1 3AA","AD00199"
8949756587,1082,"The Curve","Canonbury Grove","Reading","Greater London","TS1 2AA","AD00200"
1934777552,980,"The Lansdowne","Notting Hill Gate","Salisbury","Greater Manchester","BD1 3AA","AD00201"
1433394456,521,"The Barbican","Kensington Palace Gardens","Chester","Staffordshire","NG1 1AA","AD00202"
4416457529,1008,"Arena Central","Lyttelton Road","Norwich","Norfolk","BH1 2AA","AD00203"
6458646860,1335,"Frenchgate Shopping Centre","Highbury Fields","Blackburn","Worcestershire","TS1 1AA","AD00204"
3326670486,1499,"Bede House","Lauderdale Road","Middlesbrough","Isle of Wight","BN1 2AA","AD00205"
1010289918,27,"The Bridges","Parsons Green Lane","Chester","Berkshire","CH1 2AA","AD00206"
1659463440,325,"The Pumphouse","Alverstone Street","Bolton","East Sussex","EX1 3AA","AD00207"
548556415,656,"The Broadway","Barnsbury Road","Dudley","West Sussex","SP1 2AA","AD00208"
692092323,705,"Middlehaven","Weltjie Road","Brighton","Greater Manchester","BD1 2AA","AD00209"
867002042,1494,"The Distillery","Barons Court Road","Sunderland","Greater Manchester","SP1 3AA","AD00210"
2179093179,550,"Trinity Leeds","Gillespie Road","Sheffield","Shropshire","BS1 1AA","AD00211"
6684464700,456,"The iQ Wolverhampton","Addison Road","Chester","Devon","WD1 1AA","AD00212"
5627638974,624,"Gunwharf Quays","Church Street","Gloucester","Hertfordshire","WD1 1AA","AD00213"
1272640884,1328,"The Curve","Park Avenue Road","Stoke-on-Trent","Bristol","WD1 1AA","AD00214"
6150849791,679,"The General Hospital Quarter","The Crescent","Watford","Lancashire","MK1 2AA","AD00215"
3930214474,1474,"The Custard Factory","Gillespie Road","Bradford","South Yorkshire","FY1 1AA","AD00216"
1498521231,1030,"Sutton Harbour","Margravine Road","Derby","Northamptonshire","BS1 3AA","AD00217"
641314833,1028,"Victoria Street","Kensington Palace Gardens","Bradford","Nottinghamshire","LU1 3AA","AD00218"
1637385218,1293,"Wapping Wharf","Fitzroy Square","Luton","Northumberland","BN1 3AA","AD00219"
6421922074,469,"The Centre MK","The Boltons","Ipswich","Somerset","LU1 1AA","AD00220"
6502397832,758,"The Holbeck","Sutherland Avenue","Blackburn","Durham","BN1 1AA","AD00221"
4597443177,150,"St Paul's Place","Wimbledon Park Road","Birmingham","Derbyshire","LU1 1AA","AD00222"
1141176564,316,"Victoria Street","Alverstone Street","Coventry","South Yorkshire","HU1 3AA","AD00223"
8926883477,1378,"Kings Walk","Canonbury Grove","Manchester","Cumbria","WV1 2AA","AD00224"
5314664992,424,"Transporter Bridge Apartments","Marylebone High Street","Bristol","East Sussex","SO1 3AA","AD00225"
1763316602,918,"The Oracle Centre","Wilton Road","Bristol","Essex","CV1 1AA","AD00226"
3254319265,379,"Bournville Wharf","The Crescent","Norwich","East Riding of Yorkshire","BS1 1AA","AD00227"
8534372454,1210,"The Workstation","Addison Road","Doncaster","Northamptonshire","SO1 1AA","AD00228"
62808036,1143,"The Broadway","Margravine Road","Oxford","Cambridgeshire","DE1 3AA","AD00229"
1294946676,829,"The Maltings","Canonbury Grove","Wolverhampton","Nottinghamshire","BH1 2AA","AD00230"
2050372469,238,"City Park","Chipping Norton Street","Bolton","North Yorkshire","LN1 2AA","AD00231"
628613547,75,"The Centre MK","Highbury Fields","Swindon","Berkshire","BH1 3AA","AD00232"
7585597606,787,"The Bottle Yard Studios","Bramerton Street","Luton","Hampshire","NE1 3AA","AD00233"
5140180286,646,"Castlegate","Barons Court Road","Manchester","Greater Manchester","HU1 3AA","AD00234"
3496740256,1202,"The BH1 Apartments","Canonbury Grove","Rochdale","Oxfordshire","PL1 3AA","AD00235"
3177964092,661,"The Residence","Addison Road","Watford","Norfolk","CA1 2AA","AD00236"
2526514576,1006,"Transporter Bridge Apartments","Alverstone Street","Swindon","Buckinghamshire","EX1 2AA","AD00237"
7147438787,167,"Trinity Leeds","Alverstone Street","Milton Keynes","Merseyside","BL1 3AA","AD00238"
3981290763,1066,"The Randolph","Chipping Norton Street","Exeter","Herefordshire","SR1 2AA","AD00239"
3633802320,1410,"Southgate Street","Highbury Fields","Coventry","Cambridgeshire","BS1 2AA","AD00240"
796195439,1438,"Wapping Wharf","Lauderdale Road","Oxford","Surrey","B1 1AA","AD00241"
5962296877,1144,"Lace Market Wohnungen","Askew Road","Sheffield","Cambridgeshire","IP1 1AA","AD00242"
3814965264,747,"The Oracle Centre","Church Street","Southampton","Hampshire","BS1 3AA","AD00243"
8997672355,1376,"The Lexington","Canonbury Grove","Rochdale","Cambridgeshire","RG1 2AA","AD00244"
3264756463,972,"The Lace House","The Boltons","Sheffield","North Yorkshire","HU1 1AA","AD00245"
1884421784,628,"The General Hospital Quarter","Bloomsbury Square","Carlisle","Hampshire","FY1 2AA","AD00246"
9014703465,732,"The Silk Mill","Barnsbury Road","Plymouth","Cornwall","WF1 1AA","AD00247"
2479434346,239,"Watergate Street","Randolph Crescent","Kingston upon Hull","Hertfordshire","WV1 2AA","AD00248"
3858834238,1417,"Tombland","Margravine Road","Bolton","Derbyshire","DY1 2AA","AD00249"
2150640937,745,"The iQ Wolverhampton","Canonbury Grove","Luton","Hampshire","LS1 1AA","AD00250"
3674380250,55,"Blackburn Mall","Parsons Green Lane","Norwich","Northumberland","LN1 3AA","AD00251"
226444643,214,"Bede House","Chipping Norton Street","Rochdale","East Riding of Yorkshire","OX1 3AA","AD00252"
5210806944,205,"Christchurch Park Ipswich","Margravine Road","Chester","Isle of Wight","OX1 3AA","AD00253"
2039209700,376,"The Buttermarket","Fitzroy Square","Bristol","West Midlands","CH1 3AA","AD00254"
1085473767,871,"Bathurst Buildings","Sutherland Avenue","Swindon","Cornwall","DY1 2AA","AD00255"
9041757058,1011,"Sutton Harbour","Bloomsbury Square","Plymouth","East Sussex","PE1 2AA","AD00256"
27284670,970,"Leopold Square","Barnsbury Road","Rochdale","North Yorkshire","DE1 2AA","AD00257"
3170373269,605,"The Rows","Highbury Fields","Nottingham","Hertfordshire","LU1 1AA","AD00258"
3884887947,1143,"County Oak","Marylebone High Street","Leeds","West Midlands","B1 3AA","AD00259"
812350065,819,"Victoria Street","The Crescent","Lincoln","Rutland","WF1 1AA","AD00260"
8442405488,61,"Castle Quay Apartments","Church Street","Blackburn","Worcestershire","PL1 1AA","AD00261"
5833675111,1308,"The Exchange","Addison Road","Nottingham","Cambridgeshire","SN1 1AA","AD00262"
6258415822,885,"The Quay","Elgin Avenue","Milton Keynes","Devon","NR1 1AA","AD00263"
2551491991,537,"Manchester One","Gillespie Road","Blackpool","East Sussex","TS1 1AA","AD00264"
6541376581,1114,"County Oak","Elgin Avenue","Ipswich","Berkshire","WD1 2AA","AD00265"
6890883772,1064,"The Ruskin","Highbury Fields","Wakefield","Isle of Wight","CB1 3AA","AD00266"
3587266441,1265,"Grand Arcade","Lauderdale Road","Birmingham","Hertfordshire","CR1 2AA","AD00267"
2668635047,895,"The Promenade Apartments","Weltjie Road","Blackpool","Wiltshire","M1 2AA","AD00268"
9277289686,496,"Blackburn Mall","Kensington Palace Gardens","Birmingham","Wiltshire","IP1 2AA","AD00269"
9725674618,431,"The Custard Factory","Askew Road","Leeds","Essex","CB1 1AA","AD00270"
6326905036,630,"Steep Hill","Parsons Green Lane","Luton","Derbyshire","NR1 3AA","AD00271"
6667574870,304,"Lace Market Wohnungen","Notting Hill Gate","Sheffield","Surrey","TS1 3AA","AD00272"
6167127360,843,"Bathurst Buildings","Canonbury Grove","Gloucester","Greater Manchester","DN1 1AA","AD00273"
4682404725,499,"The Market Place","Barons Court Road","Plymouth","Worcestershire","EX1 2AA","AD00274"
2009818350,234,"The Hive","Chipping Norton Street","Leicester","Greater Manchester","MK1 3AA","AD00275"
70326142,630,"Porter Valley","Parsons Green Lane","Leeds","Lancashire","FY1 1AA","AD00276"
4069504796,567,"Bede House","Fitzroy Square","Cambridge","Greater Manchester","SP1 1AA","AD00277"
3911241054,714,"Bathurst Buildings","Church Street","Oxford","Kent","IP1 3AA","AD00278"
8075908805,644,"Bede House","Alverstone Street","Chester","Oxfordshire","WV1 3AA","AD00279"
456873686,166,"The Sands","Barnsbury Road","Milton Keynes","Derbyshire","BN1 3AA","AD00280"
9944755087,968,"Kings Walk","Marylebone High Street","Southampton","Herefordshire","CV1 2AA","AD00281"
9736221830,1233,"The Drapery","Elgin Avenue","Sunderland","East Sussex","LU1 1AA","AD00282"
2127056655,681,"The Hive","Notting Hill Gate","Kingston upon Hull","Tyne and Wear","CB1 1AA","AD00283"
2530864608,7,"The Lanes Apartments","Canonbury Grove","Coventry","East Sussex","WD1 3AA","AD00284"
349022445,646,"The Silk Mill","Kensington Palace Gardens","Ipswich","Cambridgeshire","PL1 1AA","AD00285"
198276869,1012,"The Lumen","Weltjie Road","Wakefield","Bedfordshire","SP1 1AA","AD00286"
3834173932,1028,"The Brewery Wharf","Chipping Norton Street","Birmingham","Lincolnshire","NR1 1AA","AD00287"
2655289420,311,"Trinity Leeds","Gillespie Road","Plymouth","Norfolk","DE1 1AA","AD00288"
5554464769,848,"The Quadrant","Wilton Road","Crawley","Leicestershire","HU1 3AA","AD00289"
9230946966,1005,"The Beacon","Margravine Road","Derby","Shropshire","BD1 1AA","AD00290"
5631403463,398,"The Wave","Bloomsbury Square","Coventry","Gloucestershire","FY1 3AA","AD00291"
2739910894,217,"The Quadrant","Gillespie Road","Dudley","Leicestershire","PE1 3AA","AD00292"
8594546890,130,"The Rows","Barnsbury Road","Cambridge","Norfolk","CR1 3AA","AD00293"
3139361017,1311,"Edgbaston Park","Gillespie Road","Sunderland","Warwickshire","NN1 2AA","AD00294"
5629220667,1085,"The Potteries Shopping Centre","Weltjie Road","Manchester","Cambridgeshire","NR1 1AA","AD00295"
2490467980,754,"The Grafton","Askew Road","Manchester","East Riding of Yorkshire","NG1 1AA","AD00296"
9978168338,1048,"City Walls","Weltjie Road","Derby","Tyne and Wear","BD1 1AA","AD00297"
4987318539,775,"The Drapery","Gillespie Road","Luton","West Sussex","FY1 1AA","AD00298"
873497678,1235,"The Norwich Lanes","The Boltons","Exeter","Bristol","BH1 3AA","AD00299"
1433915219,233,"Middlehaven","Lauderdale Road","Luton","Somerset","BN1 1AA","AD00300"
3100321669,275,"Transporter Bridge Apartments","Margravine Road","Liverpool","Merseyside","OX1 2AA","AD00301"
2950996159,1337,"Deansgate Quays","Park Avenue Road","Crawley","Hampshire","MK1 3AA","AD00302"
4301447083,1280,"Cathedral Square","Askew Road","Luton","Greater Manchester","CB1 3AA","AD00303"
8806494619,1283,"Cathedral Square","Barnsbury Road","Newcastle upon Tyne","Dorset","SR1 3AA","AD00304"
7229172381,1151,"The Waterfront","Fitzroy Square","Southampton","Merseyside","LE1 3AA","AD00305"
4650227852,806,"Midsummer Boulevard","Askew Road","Norwich","Northumberland","BH1 2AA","AD00306"
559255624,666,"Minster Court","Park Avenue Road","Wakefield","Herefordshire","WF1 3AA","AD00307"
5047305333,563,"Midsummer Boulevard","Alverstone Street","Luton","North Yorkshire","MK1 2AA","AD00308"
977484246,14,"Minster Court","Lauderdale Road","Southampton","Cornwall","B1 3AA","AD00309"
4780295270,136,"The Hive","Weltjie Road","Bolton","East Riding of Yorkshire","LE1 1AA","AD00310"
323593801,699,"Kirkgate","Addison Road","Rochdale","Gloucestershire","IP1 1AA","AD00311"
5973554597,825,"Southgate","Kensington Palace Gardens","Leeds","North Yorkshire","LS1 2AA","AD00312"
8258323636,233,"The Cube","Elgin Avenue","Southampton","Cambridgeshire","LN1 3AA","AD00313"
1345275048,544,"Fisherton Street","Church Street","Reading","Lancashire","BN1 1AA","AD00314"
5367602657,1490,"Market Square","Margravine Road","Manchester","Tyne and Wear","CA1 3AA","AD00315"
8901950227,116,"Blackburn Mall","Highbury Fields","Dudley","Rutland","BD1 1AA","AD00316"
5099158544,950,"The Drapery","Gillespie Road","Chester","Derbyshire","B1 3AA","AD00317"
735397430,803,"Rochdale Exchange","Park Avenue Road","Bolton","East Sussex","NE1 1AA","AD00318"
5517529046,1036,"Cathedral Green","Lyttelton Road","Luton","Warwickshire","BD1 1AA","AD00319"
3929219506,100,"Ropewalks","Elgin Avenue","Ipswich","Greater Manchester","WD1 2AA","AD00320"
6223558465,1345,"Abington Street","Gillespie Road","Exeter","Shropshire","LN1 1AA","AD00321"
5362952072,259,"The Forbury","Elgin Avenue","Nottingham","Bristol","PE1 1AA","AD00322"
2247226434,921,"Frenchgate Shopping Centre","Askew Road","Cambridge","Staffordshire","PE1 2AA","AD00323"
9288231471,1352,"The Broadway","Margravine Road","Brighton","South Yorkshire","BD1 1AA","AD00324"
7910531095,304,"The Broadway","Randolph Crescent","Newcastle upon Tyne","Staffordshire","OX1 2AA","AD00325"
8686500579,313,"The Bottle Yard Studios","The Boltons","Dudley","South Yorkshire","LN1 2AA","AD00326"
3704555371,1043,"The Mailbox","Bramerton Street","Rochdale","Merseyside","B1 3AA","AD00327"
5641692816,1152,"Hampton","Gillespie Road","Watford","Hampshire","CB1 2AA","AD00328"
652955029,57,"Rochdale Exchange","Gillespie Road","Chester","Gloucestershire","OX1 1AA","AD00329"
2612303014,127,"Castlefield Wharf","Wimbledon Park Road","Bournemouth","Northamptonshire","DN1 3AA","AD00330"
2904849602,292,"The Buttermarket","Sutherland Avenue","York","South Yorkshire","CA1 2AA","AD00331"
1374972312,999,"The Quays","Bramerton Street","Rochdale","East Riding of Yorkshire","LS1 2AA","AD00332"
9589997643,1435,"The Cube","Addison Road","Lincoln","Bedfordshire","HU1 1AA","AD00333"
8137747087,680,"Etruria Works","Gillespie Road","Wakefield","Essex","WD1 2AA","AD00334"
8857935213,298,"The Bottle Yard Studios","Fitzroy Square","Northampton","Hampshire","PL1 2AA","AD00335"
9910433796,5,"Crusader Court","Elgin Avenue","Cambridge","Gloucestershire","YO1 3AA","AD00336"
4765634035,895,"Crusader Court","Barnsbury Road","Crawley","South Yorkshire","CV1 1AA","AD00337"
3414097397,1179,"The Potteries Shopping Centre","The Boltons","Middlesbrough","East Sussex","ST1 3AA","AD00338"
556666011,1231,"The Grafton","Canonbury Grove","Coventry","Somerset","BD1 2AA","AD00339"
75112280,776,"The Marina","Fitzroy Square","Liverpool","Merseyside","CB1 1AA","AD00340"
6110278661,292,"Capability Green","Parsons Green Lane","Kingston upon Hull","Cornwall","BS1 1AA","AD00341"
6745668688,404,"Bradshawgate","Park Avenue Road","Oxford","Greater London","B1 3AA","AD00342"
9279502409,651,"High Street","Bramerton Street","Plymouth","West Sussex","LU1 1AA","AD00343"
6804839676,535,"The Custard Factory","Gillespie Road","Luton","Gloucestershire","OX1 2AA","AD00344"
9760662604,1425,"The Centre MK","Notting Hill Gate","Nottingham","Essex","EX1 1AA","AD00345"
8744749570,1021,"Porter Valley","Fitzroy Square","Carlisle","Bedfordshire","DE1 1AA","AD00346"
3695300264,1191,"The Waterfront","Barons Court Road","Stoke-on-Trent","Somerset","CB1 1AA","AD00347"
6855987303,581,"Sovereign Square","Askew Road","Liverpool","Hampshire","BD1 1AA","AD00348"
4598972688,210,"The Sands","Wimbledon Park Road","Bolton","Devon","B1 1AA","AD00349"
3172173135,1136,"The Drapery","Marylebone High Street","Watford","East Sussex","SR1 1AA","AD00350"
3175499708,30,"The Maltings","Barnsbury Road","Norwich","West Sussex","BS1 2AA","AD00351"
1223177998,1133,"The Light","Sutherland Avenue","Coventry","North Yorkshire","EX1 3AA","AD00352"
1298550831,131,"The Rows","Askew Road","Sunderland","Dorset","CR1 1AA","AD00353"
4438759870,1355,"The Mailbox","Gillespie Road","Cambridge","Cornwall","DY1 3AA","AD00354"
7689057985,185,"The Mander Centre","Elgin Avenue","Rochdale","Devon","PL1 1AA","AD00355"
898446899,1394,"The Ascent","Park Avenue Road","Leicester","Kent","CA1 2AA","AD00356"
3856011358,73,"Trinity Leeds","Elgin Avenue","Chester","Warwickshire","SR1 1AA","AD00357"
3716770663,640,"The Landmark","Thornhill Road","Salisbury","East Sussex","IP1 1AA","AD00358"
4772221425,1083,"Deansgate Quays","Notting Hill Gate","Swindon","East Sussex","LN1 1AA","AD00359"
961503246,826,"The Leverton","Canonbury Grove","Coventry","Nottinghamshire","B1 3AA","AD00360"
2000830382,506,"The Park","Marylebone High Street","Doncaster","Surrey","SO1 3AA","AD00361"
1765678048,1320,"Capability Green","Wimbledon Park Road","Nottingham","Hertfordshire","ST1 3AA","AD00362"
3612276352,192,"Castlefield Wharf","Wilton Road","Blackburn","North Yorkshire","WV1 1AA","AD00363"
3306591149,345,"The Lexington","Gillespie Road","Doncaster","Buckinghamshire","SP1 1AA","AD00364"
3351917147,1438,"Edgbaston Park","Highbury Fields","Watford","West Yorkshire","CV1 2AA","AD00365"
4594344372,722,"Sovereign Square","Park Avenue Road","Norwich","Dorset","TS1 1AA","AD00366"
5474699689,1357,"Sovereign Square","Wimbledon Park Road","Cambridge","Bedfordshire","BD1 1AA","AD00367"
5310753613,1407,"The Rufus Centre","Barnsbury Road","Rochdale","Leicestershire","B1 3AA","AD00368"
2360836781,568,"The Elements","Parsons Green Lane","Reading","Cambridgeshire","SP1 3AA","AD00369"
7531393859,894,"Waterfront","The Crescent","Wakefield","Greater Manchester","CR1 3AA","AD00370"
1865604968,241,"Brayford Pool","Thornhill Road","Bradford","Greater London","NR1 3AA","AD00371"
9833540333,244,"Christchurch Park Ipswich","Thornhill Road","Bradford","Devon","S1 1AA","AD00372"
9796670232,412,"Manchester One","Marylebone High Street","Milton Keynes","Rutland","CH1 3AA","AD00373"
8305108058,492,"The Market Place","Weltjie Road","Ipswich","North Yorkshire","LU1 2AA","AD00374"
6274247602,616,"Manchester One","Elgin Avenue","Norwich","Hertfordshire","HU1 3AA","AD00375"
6315101518,1019,"Mayfield","Marylebone High Street","Wakefield","Essex","EX1 3AA","AD00376"
7163983573,595,"Highcross Leicester","Bramerton Street","Rochdale","Hertfordshire","NE1 2AA","AD00377"
1203462840,646,"Market Square","Marylebone High Street","Ipswich","Kent","OX1 2AA","AD00378"
338390448,1383,"Fisherton Street","Chipping Norton Street","Gloucester","Isle of Wight","NE1 2AA","AD00379"
6029871498,1435,"Moda Living","Canonbury Grove","Kingston upon Hull","Derbyshire","MK1 2AA","AD00380"
2256574121,195,"Bathurst Buildings","Marylebone High Street","Nottingham","Nottinghamshire","CH1 1AA","AD00381"
7826853206,241,"Ocean Village","Barons Court Road","Rochdale","Gloucestershire","NG1 1AA","AD00382"
9469641582,1475,"Grand Arcade","Askew Road","Luton","Warwickshire","CB1 3AA","AD00383"
7767096548,496,"Hampton","The Crescent","Blackburn","Isle of Wight","DY1 2AA","AD00384"
3978257882,754,"Castlefield Wharf","The Boltons","Oxford","Greater Manchester","PE1 2AA","AD00385"
9695623166,887,"The Ruskin","Alverstone Street","Newcastle upon Tyne","Tyne and Wear","LE1 1AA","AD00386"
3196720462,308,"Castle Quay Apartments","Addison Road","Peterborough","Suffolk","NN1 2AA","AD00387"
5065361363,1486,"Victoria Gate","Fitzroy Square","Nottingham","Somerset","BH1 2AA","AD00388"
1374819697,803,"One Park Lane","Fitzroy Square","Birmingham","Oxfordshire","LS1 1AA","AD00389"
6567266015,1257,"Quayside Quays","Notting Hill Gate","Cambridge","Devon","WV1 1AA","AD00390"
5813766499,758,"St Paul's Place","Parsons Green Lane","Birmingham","Gloucestershire","IP1 2AA","AD00391"
9701658590,1122,"Spinningfields Tower","Lauderdale Road","Dudley","Rutland","GL1 1AA","AD00392"
7042281969,339,"The Barbican","The Boltons","Lincoln","Cornwall","CR1 2AA","AD00393"
7649530906,797,"The Landmark","The Boltons","Gloucester","Isle of Wight","NN1 3AA","AD00394"
9522717428,979,"Castle Quay Apartments","Notting Hill Gate","Sheffield","Bedfordshire","CR1 3AA","AD00395"
1896906702,472,"Brindleyplace","Wilton Road","Leeds","Buckinghamshire","LS1 3AA","AD00396"
9532608249,698,"One Park Lane","Kensington Palace Gardens","Northampton","Rutland","PE1 3AA","AD00397"
115433449,483,"The Waterfront","Highbury Fields","Manchester","Northamptonshire","SN1 2AA","AD00398"
9352363302,254,"Chapelfield Road","Alverstone Street","Newcastle upon Tyne","Tyne and Wear","MK1 3AA","AD00399"
1898215065,92,"The Custard Factory","Canonbury Grove","Birmingham","Greater London","MK1 2AA","AD00400"
3141253668,874,"Frenchgate Shopping Centre","Barnsbury Road","Sheffield","Gloucestershire","CA1 3AA","AD00401"
1561563684,1087,"The General Hospital Quarter","Chipping Norton Street","Coventry","Dorset","BH1 3AA","AD00402"
1663435766,677,"The Liver Building","Lyttelton Road","Lincoln","Nottinghamshire","EX1 2AA","AD00403"
6351660661,1231,"Lakeside Village","Parsons Green Lane","Milton Keynes","Rutland","SN1 1AA","AD00404"
3557889807,46,"Cathedral Quarter","Alverstone Street","Newcastle upon Tyne","South Yorkshire","HU1 1AA","AD00405"
7332609363,968,"Forster Square Apartments","Alverstone Street","Wolverhampton","East Sussex","BH1 1AA","AD00406"
194046907,50,"St. Annes Way","Lauderdale Road","Newcastle upon Tyne","Northumberland","BN1 3AA","AD00407"
406670528,615,"Waterfront","Highbury Fields","Luton","Surrey","FY1 1AA","AD00408"
2553636385,1350,"Rivergate","Gillespie Road","Derby","Kent","WD1 1AA","AD00409"
3533800741,1023,"Friar Street","The Boltons","Newcastle upon Tyne","Somerset","FY1 2AA","AD00410"
1839280735,1484,"Hadrian's Court","Bloomsbury Square","Nottingham","Essex","M1 2AA","AD00411"
2468401859,1450,"Wapping Wharf","Randolph Crescent","Sunderland","Durham","SR1 2AA","AD00412"
9030726938,1256,"Trinity Walk","Addison Road","Crawley","Bedfordshire","NE1 3AA","AD00413"
2919098942,20,"The Rufus Centre","Lyttelton Road","York","East Riding of Yorkshire","YO1 2AA","AD00414"
6762153488,1187,"The Close","Gillespie Road","Gloucester","Derbyshire","IP1 3AA","AD00415"
5460826047,1315,"The Ascent","Park Avenue Road","Cambridge","Shropshire","CR1 3AA","AD00416"
949753327,829,"Cathedral Quarter","Canonbury Grove","Dudley","Hertfordshire","IP1 1AA","AD00417"
144548569,817,"Arena Central","Addison Road","Exeter","Nottinghamshire","BL1 1AA","AD00418"
4524100849,1280,"Smithfield","Park Avenue Road","Bolton","Dorset","IP1 2AA","AD00419"
5025018382,204,"The Silk Mill","Fitzroy Square","Stoke-on-Trent","Greater London","CV1 1AA","AD00420"
7881218053,219,"Middlehaven","Marylebone High Street","Exeter","Herefordshire","NR1 3AA","AD00421"
1994381140,1475,"Kemp Town","Weltjie Road","Manchester","Nottinghamshire","BD1 2AA","AD00422"
5044507016,332,"The Brunel Centre","Addison Road","Middlesbrough","East Sussex","CA1 2AA","AD00423"
7344112647,1456,"Chapelfield Road","Bramerton Street","Reading","Cheshire","OL1 2AA","AD00424"
8460765067,1112,"Watergate Street","Alverstone Street","Birmingham","Isle of Wight","YO1 2AA","AD00425"
9081897276,918,"The Broadway","Lauderdale Road","Leeds","Leicestershire","SO1 2AA","AD00426"
8580785863,494,"The Brewery Wharf","Weltjie Road","Norwich","West Midlands","PE1 2AA","AD00427"
2294187938,702,"The Lanes Apartments","The Crescent","Norwich","Cumbria","NN1 2AA","AD00428"
1921772751,813,"The Harlequin","Addison Road","York","Somerset","DN1 3AA","AD00429"
403472962,476,"Brayford Pool","Barnsbury Road","Doncaster","Cornwall","LS1 3AA","AD00430"
5145353790,1190,"Quayside Quays","Bloomsbury Square","Rochdale","West Midlands","B1 3AA","AD00431"
9099368518,716,"The Brunel Centre","Askew Road","York","Greater Manchester","NR1 3AA","AD00432"
4783761981,309,"The Randolph","Lauderdale Road","Exeter","Oxfordshire","CA1 2AA","AD00433"
6000616597,1022,"The Docks","Notting Hill Gate","Leeds","Bristol","DN1 2AA","AD00434"
5161071419,81,"Victoria Street","Fitzroy Square","Middlesbrough","Merseyside","CA1 3AA","AD00435"
3486977016,929,"Castlefield Wharf","Gillespie Road","Northampton","Hampshire","MK1 3AA","AD00436"
1446937399,1369,"The Park","Weltjie Road","Doncaster","Lancashire","SP1 3AA","AD00437"
3544806444,1060,"The Wave","Bramerton Street","Sheffield","Bedfordshire","OL1 2AA","AD00438"
2620969115,790,"Gunwharf Quays","Alverstone Street","Chester","Bedfordshire","SR1 2AA","AD00439"
3098320559,558,"Ropewalks","The Crescent","Peterborough","Northumberland","TS1 1AA","AD00440"
1278689427,185,"St. Annes Way","Canonbury Grove","Southampton","Cumbria","SO1 2AA","AD00441"
4445685410,1469,"Southgate","Fitzroy Square","Peterborough","Cumbria","BD1 2AA","AD00442"
1199698504,773,"The Pumphouse","Church Street","Luton","North Yorkshire","B1 1AA","AD00443"
3687934950,1486,"Ocean Village","Kensington Palace Gardens","Blackburn","Cornwall","DN1 3AA","AD00444"
5060955192,1240,"Regent Street","Randolph Crescent","Bristol","Cheshire","B1 1AA","AD00445"
9931396709,1052,"The Elements","Barons Court Road","York","Essex","WF1 3AA","AD00446"
9036328446,1060,"The Mander Centre","Lauderdale Road","Southampton","Norfolk","NE1 1AA","AD00447"
6053947512,633,"The Cube","The Crescent","Peterborough","Greater Manchester","WD1 1AA","AD00448"
1769466533,331,"The Beacon","Church Street","Blackpool","South Yorkshire","LU1 2AA","AD00449"
4035855812,965,"The Light","Barons Court Road","Blackburn","Surrey","PL1 3AA","AD00450"
7745280311,543,"Hampton","Parsons Green Lane","Northampton","Isle of Wight","NN1 1AA","AD00451"
9330642845,167,"The Barbican","Sutherland Avenue","Lincoln","North Yorkshire","TS1 1AA","AD00452"
7113876684,1489,"High Street","Margravine Road","Reading","Herefordshire","SP1 2AA","AD00453"
911490825,379,"Middlehaven","The Crescent","Plymouth","Wiltshire","WD1 3AA","AD00454"
7424996665,180,"The Strand","Lauderdale Road","Luton","Devon","LN1 2AA","AD00455"
8442461302,365,"Tombland","Bramerton Street","Blackburn","Suffolk","B1 1AA","AD00456"
3175740448,1183,"Jericho Road","Lyttelton Road","Blackpool","Lincolnshire","WV1 2AA","AD00457"
5914559677,130,"The Moor","Canonbury Grove","Newcastle upon Tyne","Staffordshire","OL1 1AA","AD00458"
8785747726,1394,"Cathedral Quarter","Wimbledon Park Road","Salisbury","Hampshire","DE1 3AA","AD00459"
1038008085,948,"Castlegate","Fitzroy Square","Sunderland","Essex","CV1 2AA","AD00460"
1872954979,56,"Minster Court","Chipping Norton Street","Cambridge","Buckinghamshire","DY1 2AA","AD00461"
3362034039,739,"The Exchange","Parsons Green Lane","Birmingham","Lancashire","WD1 3AA","AD00462"
2847706860,14,"The Bottle Yard Studios","Canonbury Grove","Sheffield","South Yorkshire","BN1 1AA","AD00463"
8913970724,883,"Tombland","Kensington Palace Gardens","Gloucester","East Sussex","LU1 1AA","AD00464"
7897854531,1472,"St. Annes Way","Notting Hill Gate","Nottingham","Cumbria","BL1 1AA","AD00465"
579372952,468,"The Custard Factory","Barons Court Road","Blackpool","West Yorkshire","TS1 1AA","AD00466"
1924131226,8,"Highcross Leicester","Notting Hill Gate","Rochdale","East Sussex","M1 1AA","AD00467"
5168256120,1338,"Kemp Town","Highbury Fields","Exeter","Suffolk","BN1 2AA","AD00468"
8851286469,285,"The Cube","Barnsbury Road","Salisbury","Isle of Wight","BD1 3AA","AD00469"
8094192054,1281,"Rochdale Exchange","Highbury Fields","Dudley","Isle of Wight","NR1 2AA","AD00470"
4534577087,453,"Highcross Leicester","Barons Court Road","Manchester","Warwickshire","DN1 2AA","AD00471"
2726741312,1105,"The Bottle Yard Studios","Canonbury Grove","Rochdale","West Midlands","PL1 3AA","AD00472"
5628846562,1110,"The Point","Kensington Palace Gardens","Plymouth","Devon","WF1 2AA","AD00473"
4978092620,658,"Transporter Bridge Apartments","Kensington Palace Gardens","Leeds","Lancashire","WD1 1AA","AD00474"
3518484478,1139,"The Lansdowne","The Boltons","Reading","Hertfordshire","LN1 1AA","AD00475"
5254837039,1060,"The Cube","Barons Court Road","Nottingham","Derbyshire","DN1 3AA","AD00476"
2966422491,1412,"The Triangle","Kensington Palace Gardens","Bradford","South Yorkshire","SR1 1AA","AD00477"
9424141483,1437,"Deansgate Quays","Randolph Crescent","Gloucester","Hertfordshire","OX1 1AA","AD00478"
4301609628,1217,"Mayfield","Elgin Avenue","Sunderland","Northamptonshire","SP1 2AA","AD00479"
7719227174,58,"The Broadway","Wimbledon Park Road","Stoke-on-Trent","Merseyside","BN1 2AA","AD00480"
8487193714,1007,"The Workstation","Thornhill Road","Oxford","West Sussex","WV1 2AA","AD00481"
2606403371,372,"Spinningfields Tower","Barons Court Road","Rochdale","Cheshire","CB1 2AA","AD00482"
5371519769,822,"Blackburn Mall","Marylebone High Street","Newcastle upon Tyne","Suffolk","DY1 2AA","AD00483"
6645613547,17,"Cathedral Quarter","Weltjie Road","Carlisle","Greater London","M1 2AA","AD00484"
6996389887,164,"Kelham Island","Margravine Road","Northampton","Essex","LS1 2AA","AD00485"
7035108750,1245,"The Ruskin","Barnsbury Road","Luton","Lincolnshire","ST1 1AA","AD00486"
2203135638,1101,"Chapelfield Road","Barnsbury Road","Wolverhampton","Suffolk","HU1 1AA","AD00487"
8573649976,672,"The Curve","Kensington Palace Gardens","Lincoln","East Riding of Yorkshire","OL1 1AA","AD00488"
7311050448,918,"The Sands","Lauderdale Road","Middlesbrough","Derbyshire","BH1 3AA","AD00489"
4185201176,1288,"Velocity Apartments","Parsons Green Lane","Rochdale","West Sussex","DN1 3AA","AD00490"
3507439204,343,"The Big One Apartments","Highbury Fields","Blackpool","Gloucestershire","PL1 2AA","AD00491"
3085192050,1279,"The Barbican","Askew Road","Southampton","South Yorkshire","SR1 3AA","AD00492"
6700868017,1234,"Velocity Apartments","Gillespie Road","Norwich","Worcestershire","BS1 1AA","AD00493"
6050806268,526,"Tombland","Addison Road","Bournemouth","Cheshire","WD1 3AA","AD00494"
9046644154,357,"Mayfield","Chipping Norton Street","Lincoln","Greater Manchester","LN1 3AA","AD00495"
1875927840,914,"Xscape MK","Askew Road","Sunderland","East Sussex","MK1 3AA","AD00496"
8363247596,948,"The Leverton","Barnsbury Road","Southampton","East Sussex","CR1 2AA","AD00497"
4482646253,417,"Edgbaston Park","Parsons Green Lane","Chester","West Sussex","GL1 3AA","AD00498"
673681491,1188,"The Quays","Park Avenue Road","Gloucester","Greater Manchester","BL1 1AA","AD00499"
9916394938,568,"Cassiobury Park","Canonbury Grove","Nottingham","West Midlands","BD1 3AA","AD00500"
6254286750,887,"The Residence","Lauderdale Road","York","Hertfordshire","MK1 1AA","AD00501"
4533801463,315,"The Park","Gillespie Road","Lincoln","Northumberland","SO1 3AA","AD00502"
3829417675,1285,"The Barbican","The Crescent","Blackpool","Cheshire","SN1 2AA","AD00503"
9974916097,1486,"The Maltings","Park Avenue Road","Southampton","Greater Manchester","RG1 3AA","AD00504"
309116953,1201,"Northern Spire","The Crescent","Manchester","Merseyside","WF1 1AA","AD00505"
9035809335,613,"Brudenell Road","Parsons Green Lane","York","East Riding of Yorkshire","MK1 3AA","AD00506"
2207339807,438,"Etruria Works","Weltjie Road","Watford","Oxfordshire","SN1 3AA","AD00507"
7587805699,900,"The Brunel Centre","Bramerton Street","Bolton","Worcestershire","DN1 2AA","AD00508"
8573676140,131,"The Broadway","Lyttelton Road","Liverpool","West Midlands","NN1 2AA","AD00509"
5925378598,997,"Velocity Apartments","Alverstone Street","Brighton","Dorset","CR1 3AA","AD00510"
7096058079,127,"Linthorpe Road","Church Street","Portsmouth","Kent","PL1 1AA","AD00511"
3850827488,1466,"The Silk Mill","Bloomsbury Square","Leicester","Gloucestershire","PE1 3AA","AD00512"
2938079699,840,"Rochdale Exchange","Park Avenue Road","Blackburn","Bristol","M1 3AA","AD00513"
933427808,1316,"Edgbaston Park","Lyttelton Road","Northampton","Nottinghamshire","OL1 2AA","AD00514"
1001138236,1273,"Forster Square Apartments","Alverstone Street","Luton","Warwickshire","LS1 1AA","AD00515"
7246046194,27,"The Ascent","Barons Court Road","Milton Keynes","Bedfordshire","DE1 2AA","AD00516"
3729986295,652,"The Mander Centre","Park Avenue Road","Brighton","Staffordshire","EX1 3AA","AD00517"
4410017446,263,"The Silk Mill","Lauderdale Road","Manchester","Greater London","CB1 1AA","AD00518"
3063859397,1495,"The Sands","Marylebone High Street","Blackpool","East Sussex","NG1 2AA","AD00519"
6612926589,221,"The Lexington","Canonbury Grove","Watford","Hampshire","CH1 1AA","AD00520"
9114643111,485,"Bournville Wharf","Alverstone Street","Doncaster","Wiltshire","MK1 1AA","AD00521"
9018114618,649,"Broadgate","Kensington Palace Gardens","Watford","Gloucestershire","LE1 3AA","AD00522"
1845306333,765,"Regent Street","Barnsbury Road","Doncaster","East Riding of Yorkshire","CB1 2AA","AD00523"
9634702953,322,"Moda Living","Randolph Crescent","Leicester","Bedfordshire","SO1 2AA","AD00524"
497769719,1468,"The Rufus Centre","Alverstone Street","Dudley","Hertfordshire","CH1 3AA","AD00525"
756021707,171,"The Elements","Fitzroy Square","Exeter","South Yorkshire","CA1 1AA","AD00526"
4751642928,489,"Trinity Walk","Park Avenue Road","Manchester","Cheshire","GL1 1AA","AD00527"
4392523187,17,"Rivergate","Barnsbury Road","Oxford","East Riding of Yorkshire","DN1 1AA","AD00528"
6148746875,552,"The Unity Building","Randolph Crescent","Middlesbrough","Northumberland","NN1 2AA","AD00529"
2661278001,834,"Waterfront","Addison Road","Milton Keynes","Gloucestershire","PE1 1AA","AD00530"
3228163024,735,"The Close","Chipping Norton Street","Crawley","Kent","NR1 1AA","AD00531"
542367262,1359,"The Curve","Chipping Norton Street","Liverpool","Cambridgeshire","NN1 1AA","AD00532"
9390013739,302,"The Leverton","Highbury Fields","Wakefield","Gloucestershire","PE1 3AA","AD00533"
4012819747,171,"Linthorpe Road","Canonbury Grove","Kingston upon Hull","Devon","S1 3AA","AD00534"
5704228089,1252,"The Outlet Swindon","Elgin Avenue","Southampton","Essex","BD1 1AA","AD00535"
5266072717,52,"Friargate","Lyttelton Road","Newcastle upon Tyne","Greater London","OX1 3AA","AD00536"
4090568668,1164,"Church Wharf","Alverstone Street","Exeter","Derbyshire","NN1 2AA","AD00537"
6313082869,1140,"Bournville Wharf","Randolph Crescent","Bournemouth","Wiltshire","LE1 3AA","AD00538"
847907716,1419,"The Light","Park Avenue Road","Blackburn","Surrey","WV1 2AA","AD00539"
1846376343,1269,"The Forbury","Marylebone High Street","Sheffield","Isle of Wight","M1 2AA","AD00540"
9482151232,1235,"Rochdale Exchange","Randolph Crescent","Bournemouth","Hertfordshire","ST1 2AA","AD00541"
4640475586,1135,"Friar Street","Addison Road","Reading","Dorset","DE1 3AA","AD00542"
1992019053,1350,"The Rufus Centre","Highbury Fields","Newcastle upon Tyne","Cheshire","FY1 2AA","AD00543"
7495428708,617,"The Big One Apartments","Barnsbury Road","Derby","Northumberland","MK1 1AA","AD00544"
2310715433,1325,"Spinningfields Tower","Randolph Crescent","York","East Riding of Yorkshire","SR1 3AA","AD00545"
861652525,950,"The Market Place","Margravine Road","Wakefield","Leicestershire","LS1 2AA","AD00546"
8695807142,581,"Manchester One","Askew Road","Lincoln","Lancashire","NG1 2AA","AD00547"
6034676541,1140,"The Quadrant","Lyttelton Road","Leeds","Durham","OX1 3AA","AD00548"
7160060431,764,"The Waterfront","Gillespie Road","Oxford","Cumbria","YO1 1AA","AD00549"
2345614706,683,"The Strand","Park Avenue Road","Sheffield","East Riding of Yorkshire","BH1 1AA","AD00550"
4323784295,1106,"The Norwich Lanes","Weltjie Road","York","Cheshire","YO1 2AA","AD00551"
7618702624,513,"The Triangle","Randolph Crescent","Brighton","Rutland","DY1 1AA","AD00552"
2345194316,101,"Rivergate","Kensington Palace Gardens","Gloucester","Shropshire","LN1 1AA","AD00553"
589658123,923,"The Triangle","Weltjie Road","Luton","South Yorkshire","BS1 1AA","AD00554"
277161185,1039,"The Brewery Wharf","Gillespie Road","Rochdale","West Midlands","OX1 3AA","AD00555"
8358991916,631,"Mayfield","Wimbledon Park Road","Lincoln","Cheshire","FY1 3AA","AD00556"
3183690306,320,"The Barbican","Sutherland Avenue","Bristol","Lancashire","CA1 3AA","AD00557"
233333428,447,"The Oracle Centre","Gillespie Road","Southampton","Dorset","LS1 3AA","AD00558"
5587496082,234,"The Sands","Canonbury Grove","Kingston upon Hull","Buckinghamshire","DE1 3AA","AD00559"
1040233074,373,"Castlegate","Barnsbury Road","Dudley","Greater London","WF1 2AA","AD00560"
3829128185,484,"Crusader Court","Highbury Fields","Luton","Tyne and Wear","EX1 3AA","AD00561"
1180155777,729,"Cathedral Green","Chipping Norton Street","Kingston upon Hull","Bristol","LS1 1AA","AD00562"
7097111518,246,"Minster Court","Thornhill Road","Oxford","Kent","CA1 1AA","AD00563"
4610115492,81,"St. Annes Way","Askew Road","Leicester","Cambridgeshire","OL1 1AA","AD00564"
3926947705,1390,"Regent Street","Addison Road","Liverpool","Cheshire","ST1 2AA","AD00565"
3279604060,998,"Ropewalks","Margravine Road","Exeter","Hampshire","ST1 1AA","AD00566"
616577532,350,"Cassiobury Park","Bramerton Street","Newcastle upon Tyne","Northumberland","BH1 1AA","AD00567"
258686863,1215,"Highcross Leicester","The Crescent","Bolton","Tyne and Wear","OL1 3AA","AD00568"
8110711707,1014,"Cathedral Quarter","Barons Court Road","Plymouth","Staffordshire","PL1 1AA","AD00569"
6941237643,1078,"Cathedral Quarter","Margravine Road","Blackburn","Northumberland","ST1 1AA","AD00570"
7401831600,907,"The Assissi Apartments","Park Avenue Road","Chester","Rutland","LE1 1AA","AD00571"
3879983682,1389,"St Paul's Place","Park Avenue Road","Oxford","Oxfordshire","SR1 3AA","AD00572"
5823871163,1276,"The Lace House","Wilton Road","Salisbury","Herefordshire","CA1 3AA","AD00573"
2241227897,848,"Broadgate","Weltjie Road","Wolverhampton","Merseyside","CA1 2AA","AD00574"
131102613,124,"The Cube","Lyttelton Road","Norwich","Oxfordshire","OL1 2AA","AD00575"
5588928741,533,"Fossgate","Church Street","Wakefield","Nottinghamshire","BL1 1AA","AD00576"
6544935549,1299,"Trinity Walk","The Crescent","Crawley","Suffolk","MK1 1AA","AD00577"
9473150822,247,"Castle Quay Apartments","Alverstone Street","Brighton","Cornwall","NG1 2AA","AD00578"
9453401668,564,"Frenchgate Shopping Centre","Thornhill Road","Crawley","Lancashire","S1 3AA","AD00579"
4094544658,272,"The Ascent","Wilton Road","Peterborough","East Sussex","NR1 1AA","AD00580"
7379579827,1238,"The Harlequin","Notting Hill Gate","Exeter","Durham","BN1 3AA","AD00581"
7001536504,712,"Princesshay","Park Avenue Road","Manchester","Kent","WV1 2AA","AD00582"
6244942396,405,"The General Hospital Quarter","Church Street","Lincoln","Suffolk","WD1 3AA","AD00583"
5682413598,468,"The BH1 Apartments","Notting Hill Gate","Carlisle","Bristol","BH1 1AA","AD00584"
1746912782,983,"The Lumen","Wimbledon Park Road","Bristol","Cheshire","BN1 3AA","AD00585"
2448505594,1304,"Sovereign Square","Canonbury Grove","Norwich","West Sussex","CR1 1AA","AD00586"
4891156139,1333,"The Hive","Thornhill Road","Wakefield","Lancashire","FY1 2AA","AD00587"
3146725029,1100,"The Elements","Weltjie Road","Peterborough","West Yorkshire","EX1 2AA","AD00588"
3010144008,1145,"Guildhall Square","Barons Court Road","Bolton","Tyne and Wear","EX1 3AA","AD00589"
9354383238,82,"Rochdale Exchange","Church Street","Swindon","Merseyside","CA1 2AA","AD00590"
5833946123,1158,"Gunwharf Quays","Gillespie Road","Birmingham","Shropshire","RG1 2AA","AD00591"
6823971592,1393,"Brindleyplace","Church Street","Bradford","Tyne and Wear","SP1 2AA","AD00592"
9999453287,292,"Milkstone Road","Barons Court Road","Leicester","Wiltshire","FY1 1AA","AD00593"
3262425834,657,"The Custard Factory","Highbury Fields","Watford","Buckinghamshire","ST1 2AA","AD00594"
292825676,1274,"Cathedral Square","Margravine Road","Luton","West Midlands","LN1 3AA","AD00595"
5501356686,151,"Brayford Pool","Chipping Norton Street","Ipswich","Northumberland","OL1 1AA","AD00596"
5709606154,222,"Bournville Wharf","Barons Court Road","Doncaster","Gloucestershire","WV1 2AA","AD00597"
7642314132,1078,"Highcross Leicester","The Boltons","Carlisle","Hampshire","YO1 2AA","AD00598"
2856846114,1075,"City Walls","Marylebone High Street","Doncaster","Wiltshire","NG1 2AA","AD00599"
3592312472,10,"The Strand","Addison Road","Coventry","Warwickshire","LN1 1AA","AD00600"
9913203589,481,"The BH1 Apartments","Askew Road","Birmingham","Leicestershire","M1 3AA","AD00601"
9588802768,1011,"The Barbican","Sutherland Avenue","Reading","Greater London","TS1 3AA","AD00602"
2553249721,109,"Manchester One","Fitzroy Square","Doncaster","Gloucestershire","SO1 2AA","AD00603"
1272043363,751,"The Elements","Barnsbury Road","Lincoln","Essex","NN1 2AA","AD00604"
6644428746,1239,"St Paul's Place","Lyttelton Road","Oxford","City of London","YO1 1AA","AD00605"
2628033127,1006,"Quayside Quays","Thornhill Road","Middlesbrough","Staffordshire","BL1 2AA","AD00606"
2358618837,2,"The Beacon","Gillespie Road","Lincoln","West Yorkshire","LE1 1AA","AD00607"
7474143534,968,"The Lansdowne","Park Avenue Road","York","Lincolnshire","BH1 1AA","AD00608"
3285079568,806,"Abington Street","Wimbledon Park Road","Leeds","Cumbria","HU1 2AA","AD00609"
7988632590,669,"The Leverton","Wimbledon Park Road","Southampton","Berkshire","CA1 3AA","AD00610"
9917640541,853,"The Bridges","Canonbury Grove","Kingston upon Hull","Hertfordshire","WV1 3AA","AD00611"
8130820625,1458,"The Liver Building","Addison Road","Chester","Greater Manchester","B1 1AA","AD00612"
7132344811,36,"Princesshay","The Boltons","Sunderland","Hampshire","NN1 1AA","AD00613"
7668607137,1364,"Lakeside Village","Alverstone Street","Oxford","Warwickshire","YO1 2AA","AD00614"
4209294144,1139,"Rochdale Exchange","Fitzroy Square","Manchester","Isle of Wight","CH1 2AA","AD00615"
1704824788,1273,"The Maltings","Fitzroy Square","Salisbury","Berkshire","LN1 1AA","AD00616"
1798259400,436,"The Deep","The Crescent","Exeter","East Riding of Yorkshire","SP1 1AA","AD00617"
249250063,152,"Grand Arcade","Fitzroy Square","Dudley","Hampshire","HU1 1AA","AD00618"
5756828575,578,"City Park","Kensington Palace Gardens","Liverpool","Staffordshire","CV1 3AA","AD00619"
8217636613,1419,"Rivergate","Parsons Green Lane","Dudley","Greater Manchester","NN1 2AA","AD00620"
3905101394,809,"Fisherton Street","Randolph Crescent","Chester","West Sussex","NN1 1AA","AD00621"
1692190792,399,"The Cube","Marylebone High Street","Dudley","East Sussex","GL1 1AA","AD00622"
865982554,1220,"The Deep","Kensington Palace Gardens","Oxford","West Yorkshire","HU1 1AA","AD00623"
9542516959,721,"Porter Valley","Lyttelton Road","Ipswich","Berkshire","CH1 3AA","AD00624"
5309632751,1040,"Church Wharf","Highbury Fields","Birmingham","Northumberland","BN1 2AA","AD00625"
8860110505,1454,"Xscape MK","Marylebone High Street","Kingston upon Hull","City of London","PL1 1AA","AD00626"
4487382351,261,"Princesshay","Randolph Crescent","Manchester","Dorset","MK1 2AA","AD00627"
3614783405,890,"The Drapery","Church Street","Carlisle","Lincolnshire","WV1 2AA","AD00628"
7535667783,939,"Rochdale Exchange","Gillespie Road","Bolton","Suffolk","NN1 1AA","AD00629"
8524797169,1490,"The Sands","Addison Road","Bournemouth","Leicestershire","OX1 3AA","AD00630"
1899486089,700,"Christchurch Park Ipswich","Wimbledon Park Road","Exeter","Somerset","ST1 1AA","AD00631"
1588614727,782,"The Elements","Addison Road","Salisbury","East Riding of Yorkshire","NE1 2AA","AD00632"
1478334436,995,"Frenchgate Shopping Centre","Highbury Fields","Middlesbrough","Cheshire","TS1 3AA","AD00633"
458772518,367,"The Avenue","Wimbledon Park Road","Derby","Suffolk","NN1 3AA","AD00634"
7443817797,510,"The Bridges","Bramerton Street","Rochdale","Kent","MK1 2AA","AD00635"
3240637707,78,"Transporter Bridge Apartments","Parsons Green Lane","Brighton","South Yorkshire","SO1 2AA","AD00636"
8491523553,829,"Southgate Street","Chipping Norton Street","Gloucester","Cambridgeshire","FY1 2AA","AD00637"
6409604262,607,"Minster Court","Wimbledon Park Road","Gloucester","Oxfordshire","CR1 3AA","AD00638"
7727364622,989,"The Park","Weltjie Road","Oxford","Rutland","WV1 2AA","AD00639"
9871362900,904,"The Broadway","Randolph Crescent","Dudley","Kent","FY1 2AA","AD00640"
5290861939,1240,"Kelham Island","Parsons Green Lane","Liverpool","Hampshire","NN1 1AA","AD00641"
9961714849,452,"Trinity Leeds","Barons Court Road","Stoke-on-Trent","South Yorkshire","CA1 2AA","AD00642"
1856356841,38,"The Park","Church Street","Northampton","Wiltshire","ST1 2AA","AD00643"
9733336378,366,"The Promenade Apartments","Parsons Green Lane","Luton","Leicestershire","GL1 2AA","AD00644"
6550616069,1440,"Porter Valley","The Crescent","Bournemouth","West Sussex","IP1 2AA","AD00645"
6295104126,595,"Hadrian's Court","Highbury Fields","Newcastle upon Tyne","Nottinghamshire","WF1 2AA","AD00646"
7971086555,367,"Friar Street","Wimbledon Park Road","Rochdale","Rutland","BH1 1AA","AD00647"
3569146650,74,"The Broadway","Elgin Avenue","Southampton","Durham","CR1 3AA","AD00648"
225666499,821,"The Broadway","Thornhill Road","Gloucester","Leicestershire","BH1 2AA","AD00649"
4329768593,980,"Frenchgate Shopping Centre","Canonbury Grove","Sheffield","North Yorkshire","BS1 3AA","AD00650"
3577059060,893,"City Walls","Weltjie Road","Birmingham","Isle of Wight","WF1 1AA","AD00651"
8880477196,708,"The Lanes Apartments","The Boltons","Middlesbrough","Worcestershire","PL1 1AA","AD00652"
9709646273,642,"Tombland","Chipping Norton Street","Northampton","Lincolnshire","SR1 1AA","AD00653"
3157516973,1099,"Christchurch Park Ipswich","Addison Road","Carlisle","Buckinghamshire","ST1 2AA","AD00654"
3542247146,934,"The Ruskin","Wimbledon Park Road","Swindon","Northamptonshire","BL1 3AA","AD00655"
6381027894,428,"The Unity Building","Parsons Green Lane","Derby","Leicestershire","M1 2AA","AD00656"
4701035580,1407,"Mayfield","Notting Hill Gate","Ipswich","Isle of Wight","SN1 2AA","AD00657"
4375123206,797,"Minster Court","Chipping Norton Street","Bradford","Dorset","LN1 1AA","AD00658"
2026944288,1210,"Hampton","Highbury Fields","Liverpool","Norfolk","PE1 2AA","AD00659"
3821611375,457,"The Custard Factory","Gillespie Road","York","Herefordshire","CV1 1AA","AD00660"
2614378216,891,"Pride Park","Alverstone Street","Oxford","Lancashire","MK1 3AA","AD00661"
1055649492,1300,"The Norwich Lanes","Randolph Crescent","Manchester","Devon","B1 1AA","AD00662"
7025614130,1060,"The Lansdowne","Gillespie Road","Chester","Herefordshire","BN1 2AA","AD00663"
120053144,201,"The BH1 Apartments","The Crescent","Blackpool","East Riding of Yorkshire","LS1 1AA","AD00664"
8480784156,1393,"Tombland","Margravine Road","Oxford","Tyne and Wear","RG1 3AA","AD00665"
3632486859,466,"The Bridges","Wimbledon Park Road","Newcastle upon Tyne","Berkshire","SR1 3AA","AD00666"
1999426568,876,"The Potteries Shopping Centre","The Boltons","Sheffield","Wiltshire","WD1 1AA","AD00667"
8938975827,264,"Highcross Leicester","Kensington Palace Gardens","Wakefield","Gloucestershire","DE1 2AA","AD00668"
593428706,93,"The Brewery Wharf","Askew Road","Bolton","Oxfordshire","CB1 2AA","AD00669"
7137345921,1021,"The Sands","Gillespie Road","Doncaster","Somerset","BH1 1AA","AD00670"
7460423963,1318,"Spinningfields Tower","Margravine Road","Doncaster","Greater London","CH1 2AA","AD00671"
8816562250,71,"The Custard Factory","Sutherland Avenue","Lincoln","Oxfordshire","SP1 3AA","AD00672"
7496654035,1400,"Fisherton Street","Fitzroy Square","Manchester","North Yorkshire","MK1 1AA","AD00673"
2765636621,28,"Kirkgate","Kensington Palace Gardens","Southampton","Lancashire","WF1 3AA","AD00674"
4198642966,929,"The Exchange","Elgin Avenue","Stoke-on-Trent","Herefordshire","BD1 1AA","AD00675"
303896752,212,"Lace Market Wohnungen","Notting Hill Gate","Bradford","Cumbria","SO1 2AA","AD00676"
1861095112,302,"Kelham Island","Alverstone Street","Ipswich","Durham","FY1 1AA","AD00677"
783542895,821,"The Norwich Lanes","Wilton Road","Peterborough","Greater Manchester","LU1 3AA","AD00678"
154137898,298,"Blackburn Mall","Kensington Palace Gardens","Brighton","Merseyside","CR1 3AA","AD00679"
5894880750,215,"Crusader Court","Church Street","Doncaster","East Riding of Yorkshire","GL1 3AA","AD00680"
6713912788,1473,"The Brewery Wharf","Fitzroy Square","Leeds","Suffolk","BS1 3AA","AD00681"
4151407936,768,"The Sands","Askew Road","Bournemouth","East Sussex","BH1 2AA","AD00682"
8446488116,757,"XYZ Apartments","Barons Court Road","Oxford","Leicestershire","BN1 1AA","AD00683"
4406636471,749,"Edgbaston Park","Highbury Fields","Liverpool","Norfolk","CV1 2AA","AD00684"
8039698499,1435,"The Residence","Addison Road","Doncaster","Lincolnshire","CB1 1AA","AD00685"
5877549677,337,"Ropewalks","Parsons Green Lane","Liverpool","Gloucestershire","BS1 1AA","AD00686"
938029789,885,"Tombland","Kensington Palace Gardens","Liverpool","Gloucestershire","BD1 1AA","AD00687"
700371672,896,"The Park","Randolph Crescent","Sunderland","Bristol","WD1 1AA","AD00688"
3012693211,1034,"The Buttermarket","Chipping Norton Street","Crawley","Rutland","OX1 2AA","AD00689"
4882591847,1002,"The Lace House","Addison Road","Chester","Herefordshire","CV1 2AA","AD00690"
3310361985,919,"Quayside Quays","Gillespie Road","York","Hampshire","BS1 1AA","AD00691"
9179563120,1277,"Victoria Street","Thornhill Road","York","Worcestershire","CA1 3AA","AD00692"
5941436157,684,"Blackburn Mall","Barnsbury Road","Middlesbrough","Staffordshire","NN1 2AA","AD00693"
8038664205,239,"Gunwharf Quays","Wimbledon Park Road","Ipswich","Cumbria","WD1 1AA","AD00694"
8112123187,202,"The Strand","Wilton Road","Rochdale","Hampshire","OL1 2AA","AD00695"
6818955193,165,"Cathedral Quarter","The Boltons","Crawley","West Sussex","LN1 1AA","AD00696"
1925522903,1364,"XYZ Apartments","Sutherland Avenue","Ipswich","Berkshire","NE1 2AA","AD00697"
2216140244,1175,"The Sands","Lauderdale Road","Crawley","East Riding of Yorkshire","B1 2AA","AD00698"
5212791359,158,"Lace Market Wohnungen","Randolph Crescent","Exeter","Warwickshire","WF1 1AA","AD00699"
1685808158,416,"Princesshay","Highbury Fields","Swindon","Gloucestershire","NG1 2AA","AD00700"
9424801114,1437,"The Promenade Apartments","Lyttelton Road","Middlesbrough","Norfolk","BN1 2AA","AD00701"
2548163334,13,"XYZ Apartments","Wilton Road","Plymouth","Cumbria","MK1 2AA","AD00702"
4242066910,1441,"Pride Park","Highbury Fields","Doncaster","Shropshire","LU1 2AA","AD00703"
287379906,743,"St. Annes Way","Alverstone Street","Norwich","East Riding of Yorkshire","DY1 1AA","AD00704"
1802463488,1305,"Market Square","Askew Road","Oxford","Dorset","MK1 1AA","AD00705"
7262401106,469,"Rochdale Exchange","Fitzroy Square","Exeter","Hertfordshire","S1 3AA","AD00706"
1662182716,1439,"Transporter Bridge Apartments","Barons Court Road","Blackburn","Isle of Wight","DY1 3AA","AD00707"
9768491574,219,"The Deep","Notting Hill Gate","Oxford","Rutland","S1 3AA","AD00708"
11296798,501,"Manchester One","Park Avenue Road","Sheffield","Berkshire","LE1 2AA","AD00709"
8613595812,1454,"The Oracle Centre","Weltjie Road","Ipswich","Durham","LN1 2AA","AD00710"
1599542846,82,"The Triangle","Addison Road","Wolverhampton","Leicestershire","CA1 1AA","AD00711"
4710710058,752,"Chapelfield Road","Askew Road","Chester","City of London","PL1 2AA","AD00712"
5402691924,276,"Cathedral Green","Lauderdale Road","Milton Keynes","Lancashire","BN1 1AA","AD00713"
5254577711,1385,"Kings Walk","Wimbledon Park Road","Birmingham","Bristol","BS1 2AA","AD00714"
5755719683,622,"Bournville Wharf","Wilton Road","Newcastle upon Tyne","Berkshire","SO1 3AA","AD00715"
6553694346,106,"Abington Street","Sutherland Avenue","Cambridge","Bedfordshire","OL1 1AA","AD00716"
9068742434,686,"The Close","Weltjie Road","Nottingham","Isle of Wight","NG1 3AA","AD00717"
4093609667,1369,"Grand Arcade","Addison Road","Sunderland","Nottinghamshire","PE1 1AA","AD00718"
9792358935,162,"The Harlequin","Barnsbury Road","Swindon","Lancashire","CB1 1AA","AD00719"
3638541363,684,"Kemp Town","Barnsbury Road","Milton Keynes","Warwickshire","CV1 3AA","AD00720"
3939402214,1431,"St. Annes Way","Elgin Avenue","Middlesbrough","West Midlands","NE1 2AA","AD00721"
9154669391,1107,"Brayford Pool","Sutherland Avenue","Leeds","Durham","MK1 1AA","AD00722"
177010223,81,"Friar Street","Elgin Avenue","Crawley","City of London","OL1 3AA","AD00723"
1897301472,347,"Rivergate","Notting Hill Gate","Leicester","North Yorkshire","BD1 1AA","AD00724"
9143075037,254,"City Walls","Thornhill Road","Bradford","West Midlands","CH1 3AA","AD00725"
9857227562,862,"The Grafton","Church Street","Birmingham","Leicestershire","BD1 3AA","AD00726"
3442571243,645,"Tombland","Bramerton Street","Leeds","Lancashire","SN1 2AA","AD00727"
8985425404,204,"Leopold Square","Marylebone High Street","Gloucester","Somerset","S1 1AA","AD00728"
4507079209,340,"Moda Living","Lyttelton Road","Carlisle","Cumbria","M1 1AA","AD00729"
2259703283,244,"Edgbaston Park","Lauderdale Road","Stoke-on-Trent","West Midlands","ST1 1AA","AD00730"
7324306438,904,"The Wave","Thornhill Road","Stoke-on-Trent","Buckinghamshire","BD1 1AA","AD00731"
6829648157,800,"The Waterfront","Askew Road","Luton","Bedfordshire","BS1 3AA","AD00732"
4682722018,829,"Frenchgate Shopping Centre","Sutherland Avenue","Stoke-on-Trent","Norfolk","DY1 2AA","AD00733"
8683427013,642,"The Landmark","Lauderdale Road","Sheffield","Cheshire","BD1 3AA","AD00734"
7400326511,541,"Brindleyplace","Barons Court Road","Kingston upon Hull","Buckinghamshire","SN1 2AA","AD00735"
7256952937,1272,"Waterdale","Bloomsbury Square","Crawley","Bristol","WF1 2AA","AD00736"
4271630284,758,"The Broadway","Alverstone Street","Blackpool","Gloucestershire","LS1 1AA","AD00737"
4296412272,842,"The Silk Mill","Barnsbury Road","York","West Midlands","SP1 3AA","AD00738"
636120732,751,"St. Annes Way","Barons Court Road","Norwich","East Riding of Yorkshire","BD1 3AA","AD00739"
5087316786,501,"The Custard Factory","Thornhill Road","Derby","Gloucestershire","WV1 3AA","AD00740"
1583557857,562,"The Silk Mill","Elgin Avenue","Leicester","Merseyside","NN1 3AA","AD00741"
9322937386,849,"Leopold Square","Wimbledon Park Road","Chester","Greater Manchester","SN1 2AA","AD00742"
9722869752,243,"The Lansdowne","Gillespie Road","Oxford","Lancashire","EX1 1AA","AD00743"
1524700991,79,"The BH1 Apartments","Fitzroy Square","Wolverhampton","Northamptonshire","DY1 3AA","AD00744"
391396188,1052,"Fossgate","Elgin Avenue","Kingston upon Hull","Tyne and Wear","LN1 2AA","AD00745"
604779615,909,"Hampton","Barons Court Road","Wolverhampton","Durham","NE1 1AA","AD00746"
7370061108,871,"Etruria Works","Alverstone Street","Leicester","Cornwall","SR1 1AA","AD00747"
1467404039,847,"Rochdale Exchange","Askew Road","Leicester","Oxfordshire","S1 2AA","AD00748"
9018909777,643,"The Wave","Fitzroy Square","Northampton","Lincolnshire","MK1 3AA","AD00749"
9142421322,464,"Velocity Apartments","Fitzroy Square","Blackburn","Bristol","LS1 2AA","AD00750"
8978938299,1132,"The Randolph","Wimbledon Park Road","Dudley","Derbyshire","CR1 2AA","AD00751"
1780459041,793,"Cathedral Quarter","Addison Road","Dudley","Kent","FY1 2AA","AD00752"
6521387413,906,"The Lansdowne","Barnsbury Road","Cambridge","Shropshire","CV1 3AA","AD00753"
5572274178,483,"The Broadway","Marylebone High Street","Milton Keynes","Northumberland","RG1 1AA","AD00754"
7454965423,635,"The Residence","Highbury Fields","Luton","Northamptonshire","S1 3AA","AD00755"
7448656317,374,"Fossgate","Barons Court Road","Nottingham","Greater London","NG1 1AA","AD00756"
8754468655,84,"Moda Living","Randolph Crescent","Wolverhampton","Gloucestershire","LU1 1AA","AD00757"
7898504968,767,"Smithfield","Bloomsbury Square","Milton Keynes","Cheshire","RG1 2AA","AD00758"
2261961766,149,"Market Square","Chipping Norton Street","Sunderland","East Riding of Yorkshire","DN1 3AA","AD00759"
683208306,711,"Milkstone Road","Marylebone High Street","Oxford","Greater Manchester","NG1 3AA","AD00760"
6403243977,721,"The Sands","Addison Road","Watford","City of London","CB1 3AA","AD00761"
6484058423,535,"The Rows","The Crescent","Coventry","Shropshire","CA1 3AA","AD00762"
4030705766,753,"The Bottle Yard Studios","Wimbledon Park Road","Wakefield","Wiltshire","SP1 1AA","AD00763"
4118670194,968,"Crusader Court","Fitzroy Square","Exeter","City of London","CH1 1AA","AD00764"
247038547,663,"The Assissi Apartments","Sutherland Avenue","Brighton","West Midlands","NR1 3AA","AD00765"
3533287289,1470,"The Brewery Wharf","Chipping Norton Street","Newcastle upon Tyne","Nottinghamshire","OL1 1AA","AD00766"
1762058014,1406,"Crusader Court","Marylebone High Street","Swindon","Essex","WV1 3AA","AD00767"
5637175357,934,"The Light","Randolph Crescent","Derby","Rutland","SO1 2AA","AD00768"
5676121513,1189,"The BH1 Apartments","Bramerton Street","Sunderland","Merseyside","GL1 2AA","AD00769"
9163281449,207,"Sutton Harbour","Parsons Green Lane","Ipswich","Lincolnshire","M1 3AA","AD00770"
7246004521,1412,"Brindleyplace","Sutherland Avenue","Newcastle upon Tyne","Isle of Wight","S1 2AA","AD00771"
3150124832,740,"The Quadrant","Highbury Fields","Crawley","Dorset","SP1 2AA","AD00772"
4254614063,650,"Smithfield","Randolph Crescent","Coventry","Cumbria","PE1 3AA","AD00773"
5704364586,1478,"The Triangle","Canonbury Grove","Blackburn","Wiltshire","M1 2AA","AD00774"
1087988195,217,"Bradshawgate","Highbury Fields","Bradford","Durham","NN1 3AA","AD00775"
689880359,923,"The Rufus Centre","Park Avenue Road","Wakefield","Rutland","PL1 1AA","AD00776"
7921245706,1239,"Cathedral Green","Canonbury Grove","Milton Keynes","Herefordshire","OL1 2AA","AD00777"
9075744161,1162,"Kampus","Askew Road","Plymouth","Merseyside","LU1 2AA","AD00778"
8453075670,266,"The Beacon","The Boltons","Bolton","Gloucestershire","FY1 3AA","AD00779"
3158626160,200,"Humber Street","Addison Road","Blackburn","Staffordshire","HU1 2AA","AD00780"
4861121140,699,"The Headrow","Margravine Road","Portsmouth","Lincolnshire","M1 1AA","AD00781"
5628987204,244,"Quayside Quays","Marylebone High Street","Oxford","Hertfordshire","IP1 2AA","AD00782"
1355532701,1452,"The Close","Wilton Road","York","Derbyshire","BS1 1AA","AD00783"
1469274760,924,"Moda Living","Lauderdale Road","Chester","Lancashire","LE1 3AA","AD00784"
9178603218,554,"Bradshawgate","Randolph Crescent","Crawley","Shropshire","SR1 1AA","AD00785"
3013209038,130,"The Elements","Barnsbury Road","Lincoln","Durham","BD1 3AA","AD00786"
9177513630,858,"The Waterfront","Elgin Avenue","Plymouth","Durham","CA1 3AA","AD00787"
8676644667,885,"Porter Valley","Sutherland Avenue","Stoke-on-Trent","Norfolk","EX1 2AA","AD00788"
5522788089,1274,"The Park","Thornhill Road","Stoke-on-Trent","North Yorkshire","WD1 1AA","AD00789"
5272915917,82,"Rochdale Exchange","Thornhill Road","Salisbury","Lincolnshire","BH1 1AA","AD00790"
7653236065,1211,"Cathedral Quarter","Margravine Road","Southampton","Devon","S1 2AA","AD00791"
5698269017,994,"The Triangle","Randolph Crescent","Northampton","Suffolk","TS1 2AA","AD00792"
4950938053,623,"Friargate","The Boltons","Bolton","Lincolnshire","MK1 2AA","AD00793"
5646899745,936,"Bede House","Parsons Green Lane","Sheffield","Wiltshire","CR1 1AA","AD00794"
130807796,1460,"The Cube","The Crescent","Swindon","Norfolk","SN1 3AA","AD00795"
5284003330,1149,"Finzels Reach","Fitzroy Square","Blackburn","Hampshire","WV1 1AA","AD00796"
6305383553,1460,"The General Hospital Quarter","Margravine Road","Dudley","Merseyside","BS1 2AA","AD00797"
6248800626,1104,"Abington Street","Wimbledon Park Road","Newcastle upon Tyne","Hertfordshire","WV1 3AA","AD00798"
1317880412,680,"The Buttermarket","Wimbledon Park Road","Nottingham","Merseyside","M1 2AA","AD00799"
6742021845,174,"The BH1 Apartments","The Crescent","Exeter","City of London","PL1 3AA","AD00800"
5616582476,1410,"The Hive","Thornhill Road","Manchester","Greater London","CR1 2AA","AD00801"
6748005167,402,"County Oak","Notting Hill Gate","Wakefield","Berkshire","FY1 1AA","AD00802"
7771232442,165,"The Quays","Highbury Fields","Nottingham","Staffordshire","OL1 1AA","AD00803"
3614527778,1407,"The Market Place","Park Avenue Road","Coventry","West Yorkshire","DN1 2AA","AD00804"
6686925454,1325,"Cassiobury Park","Church Street","Doncaster","South Yorkshire","PL1 1AA","AD00805"
8905732798,1371,"Rochdale Exchange","Askew Road","Birmingham","South Yorkshire","PE1 2AA","AD00806"
7121986280,252,"Humber Street","Fitzroy Square","Swindon","Devon","WF1 2AA","AD00807"
8422770571,555,"The Lexington","Thornhill Road","Milton Keynes","Greater Manchester","B1 1AA","AD00808"
8108855187,909,"The Promenade Apartments","Addison Road","Leicester","Isle of Wight","WV1 1AA","AD00809"
7313126344,175,"The Drapery","Kensington Palace Gardens","Peterborough","Bedfordshire","DE1 2AA","AD00810"
1516063880,496,"Kemp Town","Wilton Road","Bournemouth","Cheshire","HU1 2AA","AD00811"
185502601,1284,"The Forbury","Askew Road","Peterborough","Worcestershire","S1 2AA","AD00812"
874916925,645,"The Forbury","Notting Hill Gate","Bolton","Lincolnshire","HU1 2AA","AD00813"
4497400948,983,"The Leverton","Sutherland Avenue","Liverpool","Dorset","YO1 1AA","AD00814"
137898363,447,"Friargate","Notting Hill Gate","Leicester","Kent","WV1 1AA","AD00815"
4870732661,474,"Sutton Harbour","Park Avenue Road","Doncaster","Northumberland","SN1 3AA","AD00816"
7058344108,94,"Tombland","Addison Road","Coventry","Cambridgeshire","NG1 1AA","AD00817"
5707773,145,"The Rows","Lyttelton Road","Brighton","Kent","SR1 3AA","AD00818"
3446451781,61,"The Pumphouse","Barnsbury Road","Rochdale","Gloucestershire","CH1 2AA","AD00819"
6318499563,979,"The Park","Gillespie Road","Luton","Staffordshire","WF1 3AA","AD00820"
5130433041,297,"Tombland","Weltjie Road","Birmingham","Surrey","CB1 3AA","AD00821"
3253982955,694,"City Park","Bloomsbury Square","Gloucester","Derbyshire","BL1 3AA","AD00822"
55756727,910,"The Drapery","Margravine Road","Luton","South Yorkshire","WF1 2AA","AD00823"
281155496,150,"The Centre MK","Church Street","Exeter","South Yorkshire","CV1 3AA","AD00824"
8209211862,1218,"Cassiobury Park","Askew Road","Norwich","Staffordshire","BS1 2AA","AD00825"
2263475,283,"County Oak","Chipping Norton Street","Luton","Leicestershire","M1 1AA","AD00826"
5500504754,614,"The Big One Apartments","Marylebone High Street","Blackburn","East Riding of Yorkshire","BS1 2AA","AD00827"
2146978635,1006,"City Park","Barons Court Road","Wakefield","Lancashire","SO1 2AA","AD00828"
1743433115,29,"The Exchange","Sutherland Avenue","Stoke-on-Trent","West Yorkshire","BN1 3AA","AD00829"
5206507822,1099,"Milkstone Road","Canonbury Grove","Peterborough","Buckinghamshire","DN1 3AA","AD00830"
5640697571,489,"The Workstation","Church Street","Blackburn","North Yorkshire","SO1 3AA","AD00831"
8191097230,83,"The Potteries Shopping Centre","Wimbledon Park Road","Middlesbrough","Berkshire","PL1 2AA","AD00832"
3392150886,1089,"The Pumphouse","Wimbledon Park Road","York","Gloucestershire","CH1 1AA","AD00833"
2956339559,518,"Friar Street","Weltjie Road","Exeter","Worcestershire","M1 1AA","AD00834"
6116292186,633,"Sovereign Square","Notting Hill Gate","Wakefield","Buckinghamshire","FY1 2AA","AD00835"
2431136809,400,"Cathedral Square","The Crescent","Bolton","Lincolnshire","LN1 3AA","AD00836"
5921794120,510,"The Deep","Marylebone High Street","Leicester","Berkshire","WV1 3AA","AD00837"
2781082988,725,"Lakeside Village","Barons Court Road","Plymouth","Greater Manchester","CA1 1AA","AD00838"
1687340919,1312,"Gunwharf Quays","Notting Hill Gate","Norwich","Cornwall","NN1 2AA","AD00839"
6778728353,1393,"Southgate","Parsons Green Lane","Newcastle upon Tyne","Northumberland","M1 3AA","AD00840"
8237918673,226,"The Lumen","Notting Hill Gate","Cambridge","Nottinghamshire","LN1 1AA","AD00841"
1721108882,756,"The Strait","Highbury Fields","Manchester","Buckinghamshire","IP1 2AA","AD00842"
9899947016,1244,"Church Wharf","Addison Road","Nottingham","Oxfordshire","BS1 3AA","AD00843"
5190435679,406,"Bradshawgate","Randolph Crescent","Southampton","City of London","FY1 3AA","AD00844"
3240361507,1491,"Waterfront","The Boltons","Kingston upon Hull","Cambridgeshire","PE1 1AA","AD00845"
9455746700,1418,"Cathedral Quarter","The Crescent","Coventry","Herefordshire","M1 1AA","AD00846"
9949030218,468,"The Malago Estate","Lyttelton Road","Manchester","East Riding of Yorkshire","WD1 1AA","AD00847"
6441733250,268,"Bradshawgate","Fitzroy Square","Blackpool","Bedfordshire","CA1 2AA","AD00848"
43715540,240,"Sutton Harbour","Kensington Palace Gardens","Milton Keynes","Buckinghamshire","NG1 1AA","AD00849"
6154182996,791,"The Headrow","Sutherland Avenue","Watford","Herefordshire","NG1 3AA","AD00850"
2036285236,393,"The Headrow","Canonbury Grove","Swindon","Oxfordshire","FY1 2AA","AD00851"
3328868402,702,"The Exchange","Alverstone Street","Stoke-on-Trent","South Yorkshire","GL1 2AA","AD00852"
9190410300,451,"The Hive","Barnsbury Road","Portsmouth","West Midlands","BL1 2AA","AD00853"
6267170756,68,"One Park Lane","Highbury Fields","Blackpool","Northumberland","B1 3AA","AD00854"
9715929583,694,"The Promenade Apartments","Randolph Crescent","Blackburn","Cheshire","SR1 2AA","AD00855"
3893812490,36,"Waterdale","Parsons Green Lane","Sheffield","Nottinghamshire","B1 1AA","AD00856"
5999597722,194,"The Randolph","Randolph Crescent","Blackpool","Essex","BN1 2AA","AD00857"
1944334378,324,"The Grafton","Highbury Fields","Birmingham","Rutland","NE1 2AA","AD00858"
2225877599,1278,"The Curve","Bramerton Street","Luton","North Yorkshire","LN1 2AA","AD00859"
6363742099,1157,"The Triangle","The Boltons","Salisbury","West Yorkshire","S1 1AA","AD00860"
932646247,497,"The Pumphouse","Bramerton Street","Gloucester","Gloucestershire","YO1 3AA","AD00861"
3143606231,462,"Wapping Wharf","Wilton Road","Stoke-on-Trent","Essex","MK1 3AA","AD00862"
7845401722,586,"The Promenade Apartments","Elgin Avenue","Nottingham","East Sussex","TS1 3AA","AD00863"
1504838939,1294,"Middlehaven","Barnsbury Road","Leeds","Berkshire","ST1 3AA","AD00864"
5282402645,1005,"The Promenade Apartments","Highbury Fields","Brighton","Herefordshire","CH1 1AA","AD00865"
1673061737,860,"The Workstation","Weltjie Road","Birmingham","Cornwall","CV1 2AA","AD00866"
1227191111,191,"The Beacon","Church Street","Coventry","Derbyshire","IP1 2AA","AD00867"
1962003167,966,"The General Hospital Quarter","Sutherland Avenue","Milton Keynes","Buckinghamshire","BH1 3AA","AD00868"
8952602749,362,"The Ruskin","Gillespie Road","Peterborough","West Yorkshire","HU1 3AA","AD00869"
4464866700,702,"The Brewery Wharf","Wimbledon Park Road","Leeds","Bedfordshire","LU1 3AA","AD00870"
4791698398,931,"Bede House","Lyttelton Road","Newcastle upon Tyne","Cheshire","YO1 1AA","AD00871"
198404883,772,"The Light","Margravine Road","Stoke-on-Trent","Rutland","BL1 2AA","AD00872"
437656322,1240,"Gunwharf Quays","Lyttelton Road","Rochdale","Suffolk","WV1 1AA","AD00873"
6435720681,1049,"High Street","Weltjie Road","Gloucester","Hampshire","BN1 2AA","AD00874"
142317438,749,"Highcross Leicester","Wimbledon Park Road","Southampton","Shropshire","LU1 2AA","AD00875"
461156067,540,"The Unity Building","Sutherland Avenue","Plymouth","Northumberland","S1 3AA","AD00876"
6346868403,512,"The Custard Factory","Alverstone Street","Stoke-on-Trent","Cheshire","LN1 2AA","AD00877"
7382564983,496,"The Interchange","Lauderdale Road","Blackburn","Bedfordshire","BN1 1AA","AD00878"
2282902033,647,"The Point","Barnsbury Road","Lincoln","Cheshire","YO1 3AA","AD00879"
3706369737,274,"Leopold Square","Wimbledon Park Road","Southampton","Derbyshire","EX1 3AA","AD00880"
7150879683,242,"Kemp Town","The Crescent","Watford","Kent","EX1 2AA","AD00881"
6993231239,976,"Church Wharf","Canonbury Grove","Coventry","Lincolnshire","OX1 3AA","AD00882"
9215320474,725,"The Holbeck","Church Street","Lincoln","Norfolk","NE1 3AA","AD00883"
9696025629,742,"The Quays","Chipping Norton Street","Blackburn","Gloucestershire","DN1 1AA","AD00884"
4689206104,233,"The Broadway","The Crescent","Middlesbrough","Leicestershire","M1 3AA","AD00885"
2563721997,788,"Crusader Court","Sutherland Avenue","Sunderland","Isle of Wight","DE1 1AA","AD00886"
3237004200,401,"The Liver Building","Marylebone High Street","Gloucester","Norfolk","LN1 3AA","AD00887"
7898581989,1363,"The Hoe Apartment Hotel","Wilton Road","Cambridge","Warwickshire","RG1 1AA","AD00888"
1635510430,769,"The Quadrant","Barons Court Road","Lincoln","Greater London","WF1 3AA","AD00889"
4086633965,1042,"Brayford Pool","The Crescent","Stoke-on-Trent","Northamptonshire","BS1 1AA","AD00890"
2607533902,588,"The Mailbox","Alverstone Street","Wolverhampton","West Midlands","OL1 3AA","AD00891"
2680449444,824,"The Moor","Park Avenue Road","Oxford","Bedfordshire","NN1 1AA","AD00892"
5686984336,651,"The Exchange","Wimbledon Park Road","Manchester","Somerset","MK1 1AA","AD00893"
3202921118,420,"The Lansdowne","Parsons Green Lane","Leeds","Gloucestershire","OL1 1AA","AD00894"
1162177136,1198,"Tombland","Notting Hill Gate","Chester","Merseyside","NG1 3AA","AD00895"
9835152829,810,"Porter Valley","Parsons Green Lane","Salisbury","Berkshire","LU1 1AA","AD00896"
1719359016,137,"Bede House","Addison Road","Sheffield","West Sussex","EX1 2AA","AD00897"
8808163040,655,"The Lexington","Lyttelton Road","York","Berkshire","DY1 1AA","AD00898"
2640900544,479,"Sutton Harbour","The Crescent","Sunderland","Durham","RG1 2AA","AD00899"
582913691,190,"St. Annes Way","Alverstone Street","Oxford","Somerset","BL1 2AA","AD00900"
1867809079,17,"The General Hospital Quarter","Kensington Palace Gardens","Luton","Dorset","ST1 1AA","AD00901"
9181914202,1480,"Edgbaston Park","Barons Court Road","Peterborough","Bristol","BH1 2AA","AD00902"
646725,804,"Kampus","Highbury Fields","Manchester","South Yorkshire","B1 3AA","AD00903"
594609321,886,"Rochdale Exchange","Elgin Avenue","Gloucester","Greater Manchester","PE1 3AA","AD00904"
1776479718,836,"The Norwich Lanes","Barons Court Road","Milton Keynes","Durham","NG1 2AA","AD00905"
5909118722,261,"The Ascent","Randolph Crescent","Bristol","Durham","GL1 1AA","AD00906"
9149868527,387,"Bathurst Buildings","Barnsbury Road","Reading","Berkshire","LN1 2AA","AD00907"
4136554117,1156,"City Park","Askew Road","Salisbury","Northamptonshire","DN1 3AA","AD00908"
772106983,845,"Brayford Pool","Alverstone Street","Plymouth","Norfolk","PL1 3AA","AD00909"
7953792583,215,"Jericho Road","Addison Road","Coventry","Durham","OL1 2AA","AD00910"
5018903015,655,"The Headrow","Fitzroy Square","Gloucester","Staffordshire","IP1 3AA","AD00911"
2753344116,1498,"The Malago Estate","Barnsbury Road","Northampton","Buckinghamshire","HU1 2AA","AD00912"
8185971382,263,"Bathurst Buildings","The Boltons","Watford","Norfolk","BL1 1AA","AD00913"
5149635839,31,"The Distillery","Gillespie Road","Bradford","Norfolk","DN1 3AA","AD00914"
5725711366,513,"Sovereign Square","Bloomsbury Square","Portsmouth","Kent","SP1 2AA","AD00915"
139471871,870,"Transporter Bridge Apartments","The Crescent","Plymouth","West Sussex","SP1 3AA","AD00916"
9820420768,1140,"Tombland","Wimbledon Park Road","Norwich","Greater London","CA1 3AA","AD00917"
8935197564,854,"Fossgate","The Crescent","Birmingham","South Yorkshire","BS1 3AA","AD00918"
390737267,137,"Southgate","Addison Road","Salisbury","Kent","BS1 1AA","AD00919"
3085923357,580,"The Ascent","Chipping Norton Street","Cambridge","North Yorkshire","SP1 3AA","AD00920"
3422491988,834,"The Elements","Parsons Green Lane","Middlesbrough","Cheshire","BL1 1AA","AD00921"
4613988640,1030,"The Sands","Church Street","Ipswich","Rutland","PL1 2AA","AD00922"
9364685350,1291,"Friar Street","Kensington Palace Gardens","Kingston upon Hull","Kent","DE1 3AA","AD00923"
1967109532,375,"The Avenue","Addison Road","Derby","Buckinghamshire","CB1 2AA","AD00924"
9275150125,455,"Fisherton Street","Alverstone Street","Crawley","Cornwall","YO1 3AA","AD00925"
6271199747,291,"Cathedral Square","Barnsbury Road","Chester","Merseyside","YO1 3AA","AD00926"
567040011,859,"The Strait","Wimbledon Park Road","Bournemouth","Leicestershire","BS1 1AA","AD00927"
3882639954,537,"One Park Lane","Church Street","Swindon","Wiltshire","NR1 3AA","AD00928"
6968749165,1345,"Northern Spire","Lauderdale Road","Carlisle","East Riding of Yorkshire","IP1 1AA","AD00929"
1471371751,1290,"The Malago Estate","Notting Hill Gate","Kingston upon Hull","Gloucestershire","DE1 2AA","AD00930"
9623219598,699,"The Rufus Centre","Church Street","Blackburn","Hertfordshire","S1 1AA","AD00931"
847683591,588,"The Pumphouse","Wilton Road","Bournemouth","Kent","CH1 3AA","AD00932"
4145227425,147,"The Bottle Yard Studios","Parsons Green Lane","York","Shropshire","BN1 2AA","AD00933"
7925297603,443,"Minster Court","Thornhill Road","Doncaster","Warwickshire","GL1 1AA","AD00934"
5861032920,1422,"Gunwharf Quays","Alverstone Street","Plymouth","Greater Manchester","SP1 1AA","AD00935"
4588641549,317,"The Strand","Barons Court Road","Northampton","Bristol","NR1 2AA","AD00936"
6972845386,1353,"The Silk Mill","Bloomsbury Square","Southampton","Hampshire","B1 3AA","AD00937"
9269008126,1346,"Brayford Pool","Canonbury Grove","Salisbury","Suffolk","B1 2AA","AD00938"
727867733,362,"The Big One Apartments","Parsons Green Lane","Derby","Greater London","S1 2AA","AD00939"
2800653086,557,"The Elements","Marylebone High Street","Bolton","City of London","NN1 1AA","AD00940"
3992427870,1304,"Kampus","Bramerton Street","Reading","North Yorkshire","TS1 2AA","AD00941"
74389491,1263,"The Sands","Church Street","Dudley","Wiltshire","MK1 1AA","AD00942"
3036334610,29,"The Deep","Thornhill Road","Southampton","Dorset","DN1 1AA","AD00943"
7605319843,207,"Cathedral Square","Marylebone High Street","Luton","Lancashire","SP1 3AA","AD00944"
3778364464,457,"Wapping Wharf","Park Avenue Road","Watford","Lancashire","DN1 3AA","AD00945"
2995279596,1104,"Middlehaven","Highbury Fields","Watford","Cambridgeshire","ST1 3AA","AD00946"
8769764018,165,"The Ascent","Weltjie Road","Gloucester","West Yorkshire","B1 1AA","AD00947"
2968474790,1218,"Finzels Reach","Elgin Avenue","Crawley","Staffordshire","OL1 3AA","AD00948"
9346952466,615,"The Deep","Margravine Road","Bolton","Derbyshire","LN1 3AA","AD00949"
3356025554,1292,"The Elements","Wilton Road","Blackburn","North Yorkshire","NE1 3AA","AD00950"
9365607833,1486,"Arena Central","Canonbury Grove","Cambridge","Surrey","WD1 3AA","AD00951"
8806780743,1388,"Princes Dock","Margravine Road","Salisbury","North Yorkshire","BS1 2AA","AD00952"
1233816462,568,"Victoria Street","Bramerton Street","Northampton","Essex","BS1 3AA","AD00953"
1481077503,486,"The Exchange","The Boltons","Brighton","Greater London","RG1 2AA","AD00954"
8891554421,1170,"Milkstone Road","Thornhill Road","Ipswich","Cornwall","TS1 1AA","AD00955"
6158478741,67,"The Randolph","Addison Road","Lincoln","Lancashire","CB1 3AA","AD00956"
8348509445,905,"The Potteries Shopping Centre","Canonbury Grove","Portsmouth","Shropshire","SP1 1AA","AD00957"
65287630,984,"Linthorpe Road","Lyttelton Road","Wolverhampton","West Midlands","CH1 2AA","AD00958"
1427713243,1309,"The Quays","Barons Court Road","Crawley","Buckinghamshire","CA1 3AA","AD00959"
5866382369,147,"Minster Court","Highbury Fields","Blackpool","Durham","LU1 1AA","AD00960"
4036726102,1396,"Gunwharf Quays","Parsons Green Lane","Bolton","Cumbria","IP1 1AA","AD00961"
4289143660,982,"Bede House","Alverstone Street","Brighton","Devon","PL1 2AA","AD00962"
4934410317,749,"The iQ Wolverhampton","Elgin Avenue","Manchester","Rutland","BN1 2AA","AD00963"
7075557254,764,"The Strand","Kensington Palace Gardens","Nottingham","Suffolk","NG1 2AA","AD00964"
3360367472,1164,"Wapping Wharf","Park Avenue Road","Salisbury","Northamptonshire","WF1 2AA","AD00965"
3332886517,368,"Cathedral Square","Addison Road","Carlisle","Merseyside","PL1 2AA","AD00966"
6901898878,794,"Leopold Square","Marylebone High Street","Chester","Tyne and Wear","LN1 2AA","AD00967"
2837614262,12,"The iQ Wolverhampton","Bloomsbury Square","Blackburn","Rutland","TS1 1AA","AD00968"
5870616018,836,"The Lace House","Addison Road","Bradford","Lincolnshire","B1 1AA","AD00969"
5942825793,1350,"Xscape MK","Fitzroy Square","Plymouth","Kent","SN1 3AA","AD00970"
8917596134,1358,"The Deep","Fitzroy Square","Rochdale","Lincolnshire","TS1 2AA","AD00971"
8158844987,432,"Edgbaston Park","Margravine Road","Newcastle upon Tyne","Rutland","PL1 2AA","AD00972"
1099873584,511,"Edgbaston Park","Notting Hill Gate","Bradford","Surrey","BN1 3AA","AD00973"
6521639323,734,"The Bridges","Church Street","Cambridge","Cheshire","WD1 3AA","AD00974"
5614425314,1215,"The Sands","Addison Road","Leeds","Somerset","LU1 3AA","AD00975"
6702589727,347,"Bradshawgate","Thornhill Road","Luton","Oxfordshire","OX1 3AA","AD00976"
386284482,1035,"Kampus","Canonbury Grove","Southampton","Dorset","BS1 3AA","AD00977"
4691018484,812,"Linthorpe Road","Notting Hill Gate","Dudley","West Yorkshire","CA1 2AA","AD00978"
9184883677,1353,"City Walls","Elgin Avenue","Bournemouth","Greater Manchester","BH1 3AA","AD00979"
8816871660,201,"The Point","Wimbledon Park Road","Nottingham","Suffolk","HU1 3AA","AD00980"
8081163174,972,"Castlefield Wharf","Wilton Road","Southampton","West Sussex","ST1 1AA","AD00981"
8409203502,385,"Cathedral Square","Randolph Crescent","Sunderland","Cumbria","EX1 1AA","AD00982"
2136264044,837,"Linthorpe Road","Thornhill Road","Southampton","Dorset","LS1 1AA","AD00983"
764410032,176,"The Interchange","Wilton Road","Wakefield","Greater London","TS1 3AA","AD00984"
7076809257,1399,"Humber Street","Chipping Norton Street","Chester","Tyne and Wear","BN1 3AA","AD00985"
54982561,419,"Midsummer Boulevard","The Crescent","Ipswich","Herefordshire","SR1 3AA","AD00986"
6239145920,136,"Waterfront West","Barons Court Road","Kingston upon Hull","Oxfordshire","PL1 2AA","AD00987"
4612881524,329,"The Interchange","Lauderdale Road","Lincoln","Leicestershire","B1 3AA","AD00988"
645082392,435,"The Potteries Shopping Centre","Wilton Road","Rochdale","Kent","BL1 1AA","AD00989"
9221939294,947,"Minster Court","Weltjie Road","Norwich","Cumbria","WF1 3AA","AD00990"
4127667486,645,"Bournville Wharf","Marylebone High Street","Southampton","Staffordshire","NE1 3AA","AD00991"
9008200104,679,"Steep Hill","Margravine Road","Gloucester","Cheshire","PL1 2AA","AD00992"
4188613548,1451,"Kings Walk","Barons Court Road","Oxford","Bristol","BD1 1AA","AD00993"
9796216949,561,"The Beacon","Elgin Avenue","Blackpool","West Yorkshire","DE1 2AA","AD00994"
9333635424,599,"Manchester One","Alverstone Street","Sunderland","South Yorkshire","TS1 2AA","AD00995"
7135423313,529,"St Paul's Place","Bloomsbury Square","Coventry","Devon","NN1 3AA","AD00996"
7155974064,1158,"The Broadway","Askew Road","Plymouth","Essex","NE1 1AA","AD00997"
2244927288,313,"Waterfront","The Boltons","Exeter","Tyne and Wear","M1 2AA","AD00998"
9291285358,570,"Cassiobury Park","Parsons Green Lane","Peterborough","Northumberland","WF1 1AA","AD00999"
316732257,197,"The Quays","Wimbledon Park Road","York","North Yorkshire","DN1 1AA","AD01000"
6544263885,171,"The Elements","Fitzroy Square","Exeter","South Yorkshire","CA1 1AA","AD00001"
1464102031,700,"Christchurch Park Ipswich","Wimbledon Park Road","Exeter","Somerset","ST1 1AA","AD00002"
6590069980,400,"St Paul's Place","Bloomsbury Square","Bristol","Hertfordshire","BL1 3AA","AD00003"
8080898804,1256,"Trinity Walk","Addison Road","Crawley","Bedfordshire","NE1 3AA","AD00004"
9065369813,842,"The Broadway","Chipping Norton Street","Crawley","Bristol","FY1 2AA","AD00005"
7362173172,823,"The Buttermarket","Bloomsbury Square","Exeter","West Sussex","HU1 3AA","AD00006"
2953601880,1345,"Abington Street","Gillespie Road","Exeter","Shropshire","LN1 1AA","AD00007"
1997061171,431,"The Custard Factory","Askew Road","Leeds","Essex","CB1 1AA","AD00008"
265017912,822,"Blackburn Mall","Marylebone High Street","Newcastle upon Tyne","Suffolk","DY1 2AA","AD00009"
4747428704,837,"Linthorpe Road","Thornhill Road","Southampton","Dorset","LS1 1AA","AD00010"
7625363082,1316,"Edgbaston Park","Lyttelton Road","Northampton","Nottinghamshire","OL1 2AA","AD00011"
690509146,292,"The Buttermarket","Sutherland Avenue","York","South Yorkshire","CA1 2AA","AD00012"
4571167148,377,"Moda Living","Randolph Crescent","Luton","Cheshire","CA1 3AA","AD00013"
8858082133,1034,"The Buttermarket","Chipping Norton Street","Crawley","Rutland","OX1 2AA","AD00014"
2682380557,1407,"Mayfield","Notting Hill Gate","Ipswich","Isle of Wight","SN1 2AA","AD00015"
3008065392,699,"Kirkgate","Addison Road","Rochdale","Gloucestershire","IP1 1AA","AD00016"
365713767,615,"Waterfront","Highbury Fields","Luton","Surrey","FY1 1AA","AD00017"
6118607494,347,"Bradshawgate","Thornhill Road","Luton","Oxfordshire","OX1 3AA","AD00018"
4328235230,496,"Hampton","The Crescent","Blackburn","Isle of Wight","DY1 2AA","AD00019"
7843428607,661,"Regent Street","Thornhill Road","Bournemouth","Warwickshire","SR1 2AA","AD00020"
1830808907,950,"The Drapery","Gillespie Road","Chester","Derbyshire","B1 3AA","AD00021"
5916191723,1234,"Velocity Apartments","Gillespie Road","Norwich","Worcestershire","BS1 1AA","AD00022"
6642066561,1075,"City Walls","Marylebone High Street","Doncaster","Wiltshire","NG1 2AA","AD00023"
6458468679,540,"The Unity Building","Sutherland Avenue","Plymouth","Northumberland","S1 3AA","AD00024"
5266260572,127,"Linthorpe Road","Church Street","Portsmouth","Kent","PL1 1AA","AD00025"
6076879548,683,"Trinity Walk","Canonbury Grove","Salisbury","Wiltshire","B1 3AA","AD00026"
8550167215,1350,"Rivergate","Gillespie Road","Derby","Kent","WD1 1AA","AD00027"
5408341801,367,"Friar Street","Wimbledon Park Road","Rochdale","Rutland","BH1 1AA","AD00028"
3926858273,564,"Frenchgate Shopping Centre","Thornhill Road","Crawley","Lancashire","S1 3AA","AD00029"
253723965,127,"Castlefield Wharf","Wimbledon Park Road","Bournemouth","Northamptonshire","DN1 3AA","AD00030"
6432963656,1163,"The Pumphouse","Margravine Road","Luton","Lincolnshire","BD1 2AA","AD00031"
1657825868,823,"Midsummer Boulevard","Church Street","Bristol","East Sussex","FY1 2AA","AD00032"
6650908940,680,"Etruria Works","Gillespie Road","Wakefield","Essex","WD1 2AA","AD00033"
5259750527,570,"Cassiobury Park","Parsons Green Lane","Peterborough","Northumberland","WF1 1AA","AD00034"
6477531755,1007,"The Workstation","Thornhill Road","Oxford","West Sussex","WV1 2AA","AD00035"
4970190046,10,"The Strand","Addison Road","Coventry","Warwickshire","LN1 1AA","AD00036"
7132549766,496,"The Interchange","Lauderdale Road","Blackburn","Bedfordshire","BN1 1AA","AD00037"
6803925013,1327,"The Lace House","Church Street","Blackpool","Worcestershire","NE1 3AA","AD00038"
2069833984,529,"St Paul's Place","Bloomsbury Square","Coventry","Devon","NN1 3AA","AD00039"
8092596204,890,"The Drapery","Church Street","Carlisle","Lincolnshire","WV1 2AA","AD00040"
8281533390,729,"Cathedral Green","Chipping Norton Street","Kingston upon Hull","Bristol","LS1 1AA","AD00041"
2443656276,1179,"The Potteries Shopping Centre","The Boltons","Middlesbrough","East Sussex","ST1 3AA","AD00042"
3279168732,1439,"Transporter Bridge Apartments","Barons Court Road","Blackburn","Isle of Wight","DY1 3AA","AD00043"
2815775611,633,"Sovereign Square","Notting Hill Gate","Wakefield","Buckinghamshire","FY1 2AA","AD00044"
5298271111,1335,"Frenchgate Shopping Centre","Highbury Fields","Blackburn","Worcestershire","TS1 1AA","AD00045"
5307772904,1353,"The Silk Mill","Bloomsbury Square","Southampton","Hampshire","B1 3AA","AD00046"
2546994468,198,"The iQ Wolverhampton","Notting Hill Gate","Rochdale","West Sussex","OL1 2AA","AD00047"
9074609589,263,"Bathurst Buildings","The Boltons","Watford","Norfolk","BL1 1AA","AD00048"
4160671926,1052,"Fossgate","Elgin Avenue","Kingston upon Hull","Tyne and Wear","LN1 2AA","AD00049"
2051089531,1183,"Jericho Road","Lyttelton Road","Blackpool","Lincolnshire","WV1 2AA","AD00050"
1294122231,1140,"Castlegate","The Boltons","Salisbury","Merseyside","EX1 2AA","AD00051"
5397094137,1039,"The Brewery Wharf","Gillespie Road","Rochdale","West Midlands","OX1 3AA","AD00052"
6733297957,261,"Princesshay","Randolph Crescent","Manchester","Dorset","MK1 2AA","AD00053"
2835138269,1437,"The Promenade Apartments","Lyttelton Road","Middlesbrough","Norfolk","BN1 2AA","AD00054"
4161236344,259,"The Forbury","Elgin Avenue","Nottingham","Bristol","PE1 1AA","AD00055"
2388338018,492,"The Market Place","Weltjie Road","Ipswich","North Yorkshire","LU1 2AA","AD00056"
4847222970,1008,"Arena Central","Lyttelton Road","Norwich","Norfolk","BH1 2AA","AD00057"
1774912449,1294,"Middlehaven","Barnsbury Road","Leeds","Berkshire","ST1 3AA","AD00058"
7573076207,2,"The Beacon","Gillespie Road","Lincoln","West Yorkshire","LE1 1AA","AD00059"
8990483581,812,"Linthorpe Road","Notting Hill Gate","Dudley","West Yorkshire","CA1 2AA","AD00060"
7630136404,292,"Milkstone Road","Barons Court Road","Leicester","Wiltshire","FY1 1AA","AD00061"
8963712141,684,"Blackburn Mall","Barnsbury Road","Middlesbrough","Staffordshire","NN1 2AA","AD00062"
2749684978,848,"The Quadrant","Wilton Road","Crawley","Leicestershire","HU1 3AA","AD00063"
333988744,845,"Brayford Pool","Alverstone Street","Plymouth","Norfolk","PL1 3AA","AD00064"
6154626959,1082,"The Curve","Canonbury Grove","Reading","Greater London","TS1 2AA","AD00065"
3031105850,12,"The iQ Wolverhampton","Bloomsbury Square","Blackburn","Rutland","TS1 1AA","AD00066"
2738032168,849,"Leopold Square","Wimbledon Park Road","Chester","Greater Manchester","SN1 2AA","AD00067"
3137040515,1099,"Christchurch Park Ipswich","Addison Road","Carlisle","Buckinghamshire","ST1 2AA","AD00068"
6318137017,563,"Kelham Island","Parsons Green Lane","Brighton","Herefordshire","LE1 1AA","AD00069"
9104083458,780,"Moda Living","Chipping Norton Street","Coventry","Nottinghamshire","BH1 3AA","AD00070"
1171261543,82,"Rochdale Exchange","Church Street","Swindon","Merseyside","CA1 2AA","AD00071"
8441238464,1280,"Smithfield","Park Avenue Road","Bolton","Dorset","IP1 2AA","AD00072"
507955641,1407,"Mayfield","Notting Hill Gate","Ipswich","Isle of Wight","SN1 2AA","AD00073"
377055085,302,"The Leverton","Highbury Fields","Wakefield","Gloucestershire","PE1 3AA","AD00074"
9687133783,1355,"The Mailbox","Gillespie Road","Cambridge","Cornwall","DY1 3AA","AD00075"
4600789261,1407,"The Market Place","Park Avenue Road","Coventry","West Yorkshire","DN1 2AA","AD00076"
1348636521,936,"Bede House","Parsons Green Lane","Sheffield","Wiltshire","CR1 1AA","AD00077"
5500360906,1005,"The Beacon","Margravine Road","Derby","Shropshire","BD1 1AA","AD00078"
6801029983,1201,"Northern Spire","The Crescent","Manchester","Merseyside","WF1 1AA","AD00079"
1718589611,1422,"Gunwharf Quays","Alverstone Street","Plymouth","Greater Manchester","SP1 1AA","AD00080"
4498436237,931,"Bede House","Lyttelton Road","Newcastle upon Tyne","Cheshire","YO1 1AA","AD00081"
5257869705,548,"The Waterfront","Weltjie Road","Cambridge","Rutland","LU1 3AA","AD00082"
7746897282,1410,"Southgate Street","Highbury Fields","Coventry","Cambridgeshire","BS1 2AA","AD00083"
2889764648,849,"Leopold Square","Wimbledon Park Road","Chester","Greater Manchester","SN1 2AA","AD00084"
8167843629,601,"The Malago Estate","Lauderdale Road","Doncaster","Cheshire","BD1 2AA","AD00085"
6056863689,887,"The Residence","Lauderdale Road","York","Hertfordshire","MK1 1AA","AD00086"
2145873546,479,"Sutton Harbour","The Crescent","Sunderland","Durham","RG1 2AA","AD00087"
7116557792,200,"Southgate Street","Wilton Road","Portsmouth","Somerset","LU1 1AA","AD00088"
6268159195,1041,"Hampton","Parsons Green Lane","Sheffield","Greater London","LS1 3AA","AD00089"
893779792,82,"Rochdale Exchange","Thornhill Road","Salisbury","Lincolnshire","BH1 1AA","AD00090"
3626331628,275,"Transporter Bridge Apartments","Margravine Road","Liverpool","Merseyside","OX1 2AA","AD00091"
6684130357,581,"Sovereign Square","Askew Road","Liverpool","Hampshire","BD1 1AA","AD00092"
3300418038,367,"The Avenue","Wimbledon Park Road","Derby","Suffolk","NN1 3AA","AD00093"
5404416629,931,"St Paul's Place","Askew Road","Stoke-on-Trent","Oxfordshire","WV1 3AA","AD00094"
6586917107,1188,"The Quays","Park Avenue Road","Gloucester","Greater Manchester","BL1 1AA","AD00095"
5338366185,1011,"Sutton Harbour","Bloomsbury Square","Plymouth","East Sussex","PE1 2AA","AD00096"
584250657,233,"The Cube","Elgin Avenue","Southampton","Cambridgeshire","LN1 3AA","AD00097"
1252251327,1035,"Kampus","Canonbury Grove","Southampton","Dorset","BS1 3AA","AD00098"
1013842170,1114,"County Oak","Elgin Avenue","Ipswich","Berkshire","WD1 2AA","AD00099"
7846380672,764,"The Strand","Kensington Palace Gardens","Nottingham","Suffolk","NG1 2AA","AD00100"
1608877892,1309,"The Quays","Barons Court Road","Crawley","Buckinghamshire","CA1 3AA","AD00101"
7797725136,1139,"Rochdale Exchange","Fitzroy Square","Manchester","Isle of Wight","CH1 2AA","AD00102"
6661517190,1298,"Deansgate Quays","Parsons Green Lane","Leeds","East Sussex","YO1 3AA","AD00103"
2133426183,1140,"The Quadrant","Lyttelton Road","Leeds","Durham","OX1 3AA","AD00104"
6463901741,788,"Crusader Court","Sutherland Avenue","Sunderland","Isle of Wight","DE1 1AA","AD00105"
7409408928,655,"The Lexington","Lyttelton Road","York","Berkshire","DY1 1AA","AD00106"
8099196368,1419,"Rivergate","Parsons Green Lane","Dudley","Greater Manchester","NN1 2AA","AD00107"
3378775963,1400,"Fisherton Street","Fitzroy Square","Manchester","North Yorkshire","MK1 1AA","AD00108"
8476327897,1218,"Cassiobury Park","Askew Road","Norwich","Staffordshire","BS1 2AA","AD00109"
4102897526,1399,"Humber Street","Chipping Norton Street","Chester","Tyne and Wear","BN1 3AA","AD00110"
6399473276,285,"The Cube","Barnsbury Road","Salisbury","Isle of Wight","BD1 3AA","AD00111"
2282257669,52,"Castlegate","Elgin Avenue","Sheffield","Merseyside","NR1 3AA","AD00112"
9297773036,1383,"Fisherton Street","Chipping Norton Street","Gloucester","Isle of Wight","NE1 2AA","AD00113"
3471963782,497,"The General Hospital Quarter","Church Street","Carlisle","Surrey","MK1 2AA","AD00114"
9180371132,896,"The Park","Randolph Crescent","Sunderland","Bristol","WD1 1AA","AD00115"
131527800,1082,"The Curve","Canonbury Grove","Reading","Greater London","TS1 2AA","AD00116"
1646031261,680,"The Buttermarket","Wimbledon Park Road","Nottingham","Merseyside","M1 2AA","AD00117"
8382514138,982,"Bede House","Alverstone Street","Brighton","Devon","PL1 2AA","AD00118"
8993607680,616,"Manchester One","Elgin Avenue","Norwich","Hertfordshire","HU1 3AA","AD00119"
9794734004,399,"The Cube","Marylebone High Street","Dudley","East Sussex","GL1 1AA","AD00120"
47567759,643,"The Wave","Fitzroy Square","Northampton","Lincolnshire","MK1 3AA","AD00121"
9145916063,1466,"Linthorpe Road","Parsons Green Lane","Northampton","Cumbria","GL1 2AA","AD00122"
5855038920,457,"The Custard Factory","Gillespie Road","York","Herefordshire","CV1 1AA","AD00123"
8788715353,1350,"Rivergate","Gillespie Road","Derby","Kent","WD1 1AA","AD00124"
4270640871,1156,"City Park","Askew Road","Salisbury","Northamptonshire","DN1 3AA","AD00125"
1457684055,347,"Rivergate","Notting Hill Gate","Leicester","North Yorkshire","BD1 1AA","AD00126"
5083019507,1463,"The Broadway","Addison Road","Luton","Durham","LE1 3AA","AD00127"
6589377545,711,"Jericho Road","Bloomsbury Square","Luton","Norfolk","PE1 1AA","AD00128"
1798777665,624,"Gunwharf Quays","Church Street","Gloucester","Hertfordshire","WD1 1AA","AD00129"
5162634735,332,"The Brunel Centre","Addison Road","Middlesbrough","East Sussex","CA1 2AA","AD00130"
3031537092,1353,"City Walls","Elgin Avenue","Bournemouth","Greater Manchester","BH1 3AA","AD00131"
1033063460,914,"Xscape MK","Askew Road","Sunderland","East Sussex","MK1 3AA","AD00132"
3620283931,847,"Rochdale Exchange","Askew Road","Leicester","Oxfordshire","S1 2AA","AD00133"
5836194823,767,"Smithfield","Bloomsbury Square","Milton Keynes","Cheshire","RG1 2AA","AD00134"
7463304434,406,"Bathurst Buildings","Park Avenue Road","Rochdale","Devon","HU1 2AA","AD00135"
1510654763,417,"Edgbaston Park","Parsons Green Lane","Chester","West Sussex","GL1 3AA","AD00136"
5839161837,645,"The Forbury","Notting Hill Gate","Bolton","Lincolnshire","HU1 2AA","AD00137"
7107101188,149,"Market Square","Chipping Norton Street","Sunderland","East Riding of Yorkshire","DN1 3AA","AD00138"
7077252256,1048,"City Walls","Weltjie Road","Derby","Tyne and Wear","BD1 1AA","AD00139"
4722520100,1172,"The Cube","Wilton Road","Brighton","Oxfordshire","DN1 2AA","AD00140"
3124132467,1369,"The Park","Weltjie Road","Doncaster","Lancashire","SP1 3AA","AD00141"
3392770922,357,"Mayfield","Chipping Norton Street","Lincoln","Greater Manchester","LN1 3AA","AD00142"
9146255893,848,"The Quadrant","Wilton Road","Crawley","Leicestershire","HU1 3AA","AD00143"
568178351,1274,"Cathedral Square","Margravine Road","Luton","West Midlands","LN1 3AA","AD00144"
1398029653,1327,"The Lace House","Church Street","Blackpool","Worcestershire","NE1 3AA","AD00145"
3961611092,1401,"Guildhall Square","Kensington Palace Gardens","Stoke-on-Trent","Berkshire","DE1 1AA","AD00146"
811685195,751,"St. Annes Way","Barons Court Road","Norwich","East Riding of Yorkshire","BD1 3AA","AD00147"
2485299706,1486,"Arena Central","Canonbury Grove","Cambridge","Surrey","WD1 3AA","AD00148"
6552930984,837,"Linthorpe Road","Thornhill Road","Southampton","Dorset","LS1 1AA","AD00149"
1598038427,644,"Bede House","Alverstone Street","Chester","Oxfordshire","WV1 3AA","AD00150"
5680811235,1082,"The Curve","Canonbury Grove","Reading","Greater London","TS1 2AA","AD00151"
1710499087,456,"The iQ Wolverhampton","Addison Road","Chester","Devon","WD1 1AA","AD00152"
669397814,567,"Bede House","Fitzroy Square","Cambridge","Greater Manchester","SP1 1AA","AD00153"
9553594603,451,"The Hive","Barnsbury Road","Portsmouth","West Midlands","BL1 2AA","AD00154"
7059545212,260,"Linthorpe Road","Thornhill Road","Swindon","Hertfordshire","BS1 3AA","AD00155"
7730306603,1350,"Rivergate","Gillespie Road","Derby","Kent","WD1 1AA","AD00156"
7489947162,436,"The Deep","The Crescent","Exeter","East Riding of Yorkshire","SP1 1AA","AD00157"
4599038598,1231,"Lakeside Village","Parsons Green Lane","Milton Keynes","Rutland","SN1 1AA","AD00158"
8397601740,980,"Frenchgate Shopping Centre","Canonbury Grove","Sheffield","North Yorkshire","BS1 3AA","AD00159"
5254431415,885,"Tombland","Kensington Palace Gardens","Liverpool","Gloucestershire","BD1 1AA","AD00160"
1940114950,55,"Blackburn Mall","Parsons Green Lane","Norwich","Northumberland","LN1 3AA","AD00161"
3235316701,234,"The Hive","Chipping Norton Street","Leicester","Greater Manchester","MK1 3AA","AD00162"
4327876836,515,"Church Wharf","Gillespie Road","Luton","Cornwall","SO1 3AA","AD00163"
1474506615,686,"The Close","Weltjie Road","Nottingham","Isle of Wight","NG1 3AA","AD00164"
5730407726,339,"The Barbican","The Boltons","Lincoln","Cornwall","CR1 2AA","AD00165"
1936506793,432,"Edgbaston Park","Margravine Road","Newcastle upon Tyne","Rutland","PL1 2AA","AD00166"
3469846820,999,"The Quays","Bramerton Street","Rochdale","East Riding of Yorkshire","LS1 2AA","AD00167"
3886120708,344,"XYZ Apartments","Barnsbury Road","Manchester","West Sussex","OL1 2AA","AD00168"
9546088706,749,"Edgbaston Park","Highbury Fields","Liverpool","Norfolk","CV1 2AA","AD00169"
2857700733,406,"Bathurst Buildings","Park Avenue Road","Rochdale","Devon","HU1 2AA","AD00170"
2281915859,948,"Castlegate","Fitzroy Square","Sunderland","Essex","CV1 2AA","AD00171"
5465303891,127,"Castlefield Wharf","Wimbledon Park Road","Bournemouth","Northamptonshire","DN1 3AA","AD00172"
59185384,472,"Brindleyplace","Wilton Road","Leeds","Buckinghamshire","LS1 3AA","AD00173"
6394424005,1460,"The General Hospital Quarter","Margravine Road","Dudley","Merseyside","BS1 2AA","AD00174"
650297555,387,"Bathurst Buildings","Barnsbury Road","Reading","Berkshire","LN1 2AA","AD00175"
5584374792,1298,"Deansgate Quays","Parsons Green Lane","Leeds","East Sussex","YO1 3AA","AD00176"
1588961818,529,"Highcross Leicester","The Boltons","Luton","City of London","MK1 3AA","AD00177"
4537785667,1474,"The Custard Factory","Gillespie Road","Bradford","South Yorkshire","FY1 1AA","AD00178"
8762843095,1346,"Brayford Pool","Canonbury Grove","Salisbury","Suffolk","B1 2AA","AD00179"
9117102316,797,"Minster Court","Chipping Norton Street","Bradford","Dorset","LN1 1AA","AD00180"
7905409791,1158,"The Broadway","Askew Road","Plymouth","Essex","NE1 1AA","AD00181"
1032582626,842,"The Interchange","Kensington Palace Gardens","Liverpool","Worcestershire","CR1 1AA","AD00182"
6329642370,672,"The Curve","Kensington Palace Gardens","Lincoln","East Riding of Yorkshire","OL1 1AA","AD00183"
7416589878,635,"Cathedral Green","Elgin Avenue","Ipswich","Cambridgeshire","TS1 3AA","AD00184"
9136687995,417,"Edgbaston Park","Parsons Green Lane","Chester","West Sussex","GL1 3AA","AD00185"
9233596761,806,"Midsummer Boulevard","Askew Road","Norwich","Northumberland","BH1 2AA","AD00186"
5150535230,910,"The Bridges","Wilton Road","Peterborough","Worcestershire","LS1 3AA","AD00187"
5103118963,81,"Friar Street","Elgin Avenue","Crawley","City of London","OL1 3AA","AD00188"
9725089383,219,"The Deep","Notting Hill Gate","Oxford","Rutland","S1 3AA","AD00189"
4187811702,1022,"The Docks","Notting Hill Gate","Leeds","Bristol","DN1 2AA","AD00190"
4601559146,1060,"The Wave","Bramerton Street","Sheffield","Bedfordshire","OL1 2AA","AD00191"
6232987233,94,"Tombland","Addison Road","Coventry","Cambridgeshire","NG1 1AA","AD00192"
7139287600,201,"The Point","Wimbledon Park Road","Nottingham","Suffolk","HU1 3AA","AD00193"
9084298179,1400,"Fisherton Street","Fitzroy Square","Manchester","North Yorkshire","MK1 1AA","AD00194"
7271711953,483,"The Broadway","Marylebone High Street","Milton Keynes","Northumberland","RG1 1AA","AD00195"
1493263358,1100,"The Elements","Weltjie Road","Peterborough","West Yorkshire","EX1 2AA","AD00196"
45410119,1435,"Moda Living","Canonbury Grove","Kingston upon Hull","Derbyshire","MK1 2AA","AD00197"
2507671858,1318,"Spinningfields Tower","Margravine Road","Doncaster","Greater London","CH1 2AA","AD00198"
9787728533,57,"Chapelfield Road","Chipping Norton Street","Ipswich","Norfolk","YO1 1AA","AD00199"
8949756587,650,"Smithfield","Randolph Crescent","Coventry","Cumbria","PE1 3AA","AD00200"
1934777552,435,"The Potteries Shopping Centre","Wilton Road","Rochdale","Kent","BL1 1AA","AD00201"
1433394456,797,"The Landmark","The Boltons","Gloucester","Isle of Wight","NN1 3AA","AD00202"
4416457529,864,"Lakeside Village","Wimbledon Park Road","Birmingham","Worcestershire","NR1 1AA","AD00203"
6458646860,1498,"The Malago Estate","Barnsbury Road","Northampton","Buckinghamshire","HU1 2AA","AD00204"
3326670486,1252,"The Outlet Swindon","Elgin Avenue","Southampton","Essex","BD1 1AA","AD00205"
1010289918,679,"Steep Hill","Margravine Road","Gloucester","Cheshire","PL1 2AA","AD00206"
1659463440,340,"Sovereign Square","Gillespie Road","Bolton","Oxfordshire","EX1 2AA","AD00207"
548556415,1490,"The Sands","Addison Road","Bournemouth","Leicestershire","OX1 3AA","AD00208"
692092323,320,"The Barbican","Sutherland Avenue","Bristol","Lancashire","CA1 3AA","AD00209"
867002042,754,"The Grafton","Askew Road","Manchester","East Riding of Yorkshire","NG1 1AA","AD00210"
2179093179,1419,"The Light","Park Avenue Road","Blackburn","Surrey","WV1 2AA","AD00211"
6684464700,1021,"Porter Valley","Fitzroy Square","Carlisle","Bedfordshire","DE1 1AA","AD00212"
5627638974,347,"Bradshawgate","Thornhill Road","Luton","Oxfordshire","OX1 3AA","AD00213"
1272640884,46,"Cathedral Quarter","Alverstone Street","Newcastle upon Tyne","South Yorkshire","HU1 1AA","AD00214"
6150849791,1007,"The Workstation","Thornhill Road","Oxford","West Sussex","WV1 2AA","AD00215"
3930214474,1435,"Moda Living","Canonbury Grove","Kingston upon Hull","Derbyshire","MK1 2AA","AD00216"
1498521231,909,"Hampton","Barons Court Road","Wolverhampton","Durham","NE1 1AA","AD00217"
641314833,732,"The Avenue","Askew Road","Plymouth","Suffolk","ST1 2AA","AD00218"
1637385218,29,"The Exchange","Sutherland Avenue","Stoke-on-Trent","West Yorkshire","BN1 3AA","AD00219"
6421922074,1122,"Spinningfields Tower","Lauderdale Road","Dudley","Rutland","GL1 1AA","AD00220"
6502397832,298,"Blackburn Mall","Kensington Palace Gardens","Brighton","Merseyside","CR1 3AA","AD00221"
4597443177,1082,"The Curve","Canonbury Grove","Reading","Greater London","TS1 2AA","AD00222"
1141176564,684,"Blackburn Mall","Barnsbury Road","Middlesbrough","Staffordshire","NN1 2AA","AD00223"
8926883477,464,"Velocity Apartments","Fitzroy Square","Blackburn","Bristol","LS1 2AA","AD00224"
5314664992,541,"Brindleyplace","Barons Court Road","Kingston upon Hull","Buckinghamshire","SN1 2AA","AD00225"
1763316602,1463,"The Broadway","Addison Road","Luton","Durham","LE1 3AA","AD00226"
3254319265,329,"The Interchange","Lauderdale Road","Lincoln","Leicestershire","B1 3AA","AD00227"
8534372454,1132,"The Randolph","Wimbledon Park Road","Dudley","Derbyshire","CR1 2AA","AD00228"
62808036,1431,"St. Annes Way","Elgin Avenue","Middlesbrough","West Midlands","NE1 2AA","AD00229"
1294946676,162,"The Harlequin","Barnsbury Road","Swindon","Lancashire","CB1 1AA","AD00230"
2050372469,1498,"The Interchange","Margravine Road","Lincoln","Norfolk","B1 1AA","AD00231"
628613547,222,"Bournville Wharf","Barons Court Road","Doncaster","Gloucestershire","WV1 2AA","AD00232"
7585597606,834,"Waterfront","Addison Road","Milton Keynes","Gloucestershire","PE1 1AA","AD00233"
5140180286,1244,"Church Wharf","Addison Road","Nottingham","Oxfordshire","BS1 3AA","AD00234"
3496740256,151,"Brayford Pool","Chipping Norton Street","Ipswich","Northumberland","OL1 1AA","AD00235"
3177964092,746,"The Brunel Centre","Fitzroy Square","Northampton","West Midlands","NG1 1AA","AD00236"
2526514576,376,"The Buttermarket","Fitzroy Square","Bristol","West Midlands","CH1 3AA","AD00237"
7147438787,1452,"The Close","Wilton Road","York","Derbyshire","BS1 1AA","AD00238"
3981290763,311,"Trinity Leeds","Gillespie Road","Plymouth","Norfolk","DE1 1AA","AD00239"
3633802320,1152,"Hampton","Gillespie Road","Watford","Hampshire","CB1 2AA","AD00240"
796195439,960,"Bathurst Buildings","Chipping Norton Street","Bradford","Leicestershire","LE1 3AA","AD00241"
5962296877,56,"Minster Court","Chipping Norton Street","Cambridge","Buckinghamshire","DY1 2AA","AD00242"
3814965264,483,"The Waterfront","Highbury Fields","Manchester","Northamptonshire","SN1 2AA","AD00243"
8997672355,642,"The Landmark","Lauderdale Road","Sheffield","Cheshire","BD1 3AA","AD00244"
3264756463,1085,"St Paul's Place","Lyttelton Road","Sheffield","Oxfordshire","BN1 1AA","AD00245"
1884421784,673,"One Park Lane","Wilton Road","Carlisle","Berkshire","HU1 2AA","AD00246"
9014703465,304,"Lace Market Wohnungen","Notting Hill Gate","Sheffield","Surrey","TS1 3AA","AD00247"
2479434346,646,"Castlegate","Barons Court Road","Manchester","Greater Manchester","HU1 3AA","AD00248"
3858834238,1028,"The Brewery Wharf","Chipping Norton Street","Birmingham","Lincolnshire","NR1 1AA","AD00249"
2150640937,1312,"Gunwharf Quays","Notting Hill Gate","Norwich","Cornwall","NN1 2AA","AD00250"
3674380250,1104,"Abington Street","Wimbledon Park Road","Newcastle upon Tyne","Hertfordshire","WV1 3AA","AD00251"
226444643,243,"The Lansdowne","Gillespie Road","Oxford","Lancashire","EX1 1AA","AD00252"
5210806944,1231,"The Grafton","Canonbury Grove","Coventry","Somerset","BD1 2AA","AD00253"
2039209700,568,"Cassiobury Park","Canonbury Grove","Nottingham","West Midlands","BD1 3AA","AD00254"
1085473767,1183,"Jericho Road","Lyttelton Road","Blackpool","Lincolnshire","WV1 2AA","AD00255"
9041757058,453,"Highcross Leicester","Barons Court Road","Manchester","Warwickshire","DN1 2AA","AD00256"
27284670,651,"The Exchange","Wimbledon Park Road","Manchester","Somerset","MK1 1AA","AD00257"
3170373269,1210,"Hampton","Highbury Fields","Liverpool","Norfolk","PE1 2AA","AD00258"
3884887947,1211,"Cathedral Quarter","Margravine Road","Southampton","Devon","S1 2AA","AD00259"
812350065,662,"The Sands","Church Street","Manchester","Norfolk","BN1 2AA","AD00260"
8442405488,494,"The Wave","Highbury Fields","York","South Yorkshire","FY1 2AA","AD00261"
5833675111,1276,"The Lace House","Wilton Road","Salisbury","Herefordshire","CA1 3AA","AD00262"
6258415822,435,"The Potteries Shopping Centre","Wilton Road","Rochdale","Kent","BL1 1AA","AD00263"
2551491991,661,"The Residence","Addison Road","Watford","Norfolk","CA1 2AA","AD00264"
6541376581,1175,"The Sands","Lauderdale Road","Crawley","East Riding of Yorkshire","B1 2AA","AD00265"
6890883772,772,"The Light","Margravine Road","Stoke-on-Trent","Rutland","BL1 2AA","AD00266"
3587266441,663,"The Assissi Apartments","Sutherland Avenue","Brighton","West Midlands","NR1 3AA","AD00267"
2668635047,739,"The Exchange","Parsons Green Lane","Birmingham","Lancashire","WD1 3AA","AD00268"
9277289686,1440,"Porter Valley","The Crescent","Bournemouth","West Sussex","IP1 2AA","AD00269"
9725674618,646,"Market Square","Marylebone High Street","Ipswich","Kent","OX1 2AA","AD00270"
6326905036,50,"Transporter Bridge Apartments","Weltjie Road","Salisbury","Cornwall","WF1 3AA","AD00271"
6667574870,435,"The Potteries Shopping Centre","Wilton Road","Rochdale","Kent","BL1 1AA","AD00272"
6167127360,854,"Fossgate","The Crescent","Birmingham","South Yorkshire","BS1 3AA","AD00273"
4682404725,1293,"Wapping Wharf","Fitzroy Square","Luton","Northumberland","BN1 3AA","AD00274"
2009818350,453,"Highcross Leicester","Barons Court Road","Manchester","Warwickshire","DN1 2AA","AD00275"
70326142,686,"The Close","Weltjie Road","Nottingham","Isle of Wight","NG1 3AA","AD00276"
4069504796,2,"The Beacon","Gillespie Road","Lincoln","West Yorkshire","LE1 1AA","AD00277"
3911241054,876,"The Potteries Shopping Centre","The Boltons","Sheffield","Wiltshire","WD1 1AA","AD00278"
8075908805,757,"XYZ Apartments","Barons Court Road","Oxford","Leicestershire","BN1 1AA","AD00279"
456873686,150,"The Centre MK","Church Street","Exeter","South Yorkshire","CV1 3AA","AD00280"
9944755087,344,"XYZ Apartments","Barnsbury Road","Manchester","West Sussex","OL1 2AA","AD00281"
9736221830,800,"Trinity Walk","Notting Hill Gate","Leicester","Cumbria","SO1 1AA","AD00282"
2127056655,429,"The BH1 Apartments","Marylebone High Street","Peterborough","Lincolnshire","EX1 2AA","AD00283"
2530864608,417,"Edgbaston Park","Parsons Green Lane","Chester","West Sussex","GL1 3AA","AD00284"
349022445,400,"Cathedral Square","The Crescent","Bolton","Lincolnshire","LN1 3AA","AD00285"
198276869,1043,"The Mailbox","Bramerton Street","Rochdale","Merseyside","B1 3AA","AD00286"
3834173932,176,"The Interchange","Wilton Road","Wakefield","Greater London","TS1 3AA","AD00287"
2655289420,201,"The BH1 Apartments","The Crescent","Blackpool","East Riding of Yorkshire","LS1 1AA","AD00288"
5554464769,1337,"Deansgate Quays","Park Avenue Road","Crawley","Hampshire","MK1 3AA","AD00289"
9230946966,1388,"Princes Dock","Margravine Road","Salisbury","North Yorkshire","BS1 2AA","AD00290"
5631403463,635,"Cathedral Green","Elgin Avenue","Ipswich","Cambridgeshire","TS1 3AA","AD00291"
2739910894,1239,"St Paul's Place","Lyttelton Road","Oxford","City of London","YO1 1AA","AD00292"
8594546890,489,"Trinity Walk","Park Avenue Road","Manchester","Cheshire","GL1 1AA","AD00293"
3139361017,1210,"Hampton","Highbury Fields","Liverpool","Norfolk","PE1 2AA","AD00294"
5629220667,842,"The Broadway","Chipping Norton Street","Crawley","Bristol","FY1 2AA","AD00295"
2490467980,1020,"Brindleyplace","The Boltons","Bolton","Merseyside","MK1 1AA","AD00296"
9978168338,1136,"The Drapery","Marylebone High Street","Watford","East Sussex","SR1 1AA","AD00297"
4987318539,886,"Rochdale Exchange","Elgin Avenue","Gloucester","Greater Manchester","PE1 3AA","AD00298"
873497678,29,"The Exchange","Sutherland Avenue","Stoke-on-Trent","West Yorkshire","BN1 3AA","AD00299"
1433915219,789,"Castlegate","Sutherland Avenue","Wolverhampton","Shropshire","CR1 1AA","AD00300"
3100321669,466,"The Bridges","Wimbledon Park Road","Newcastle upon Tyne","Berkshire","SR1 3AA","AD00301"
2950996159,1000,"Velocity Apartments","Alverstone Street","Sheffield","Oxfordshire","CB1 1AA","AD00302"
4301447083,600,"Kings Walk","Church Street","Brighton","East Riding of Yorkshire","LN1 2AA","AD00303"
8806494619,633,"Sovereign Square","Notting Hill Gate","Wakefield","Buckinghamshire","FY1 2AA","AD00304"
7229172381,94,"Tombland","Addison Road","Coventry","Cambridgeshire","NG1 1AA","AD00305"
4650227852,1012,"The Lumen","Weltjie Road","Wakefield","Bedfordshire","SP1 1AA","AD00306"
559255624,537,"Manchester One","Gillespie Road","Blackpool","East Sussex","TS1 1AA","AD00307"
5047305333,263,"Bathurst Buildings","The Boltons","Watford","Norfolk","BL1 1AA","AD00308"
977484246,324,"The iQ Wolverhampton","Addison Road","Oxford","Cornwall","WF1 2AA","AD00309"
4780295270,13,"XYZ Apartments","Wilton Road","Plymouth","Cumbria","MK1 2AA","AD00310"
323593801,1478,"The Triangle","Canonbury Grove","Blackburn","Wiltshire","M1 2AA","AD00311"
5973554597,705,"Middlehaven","Weltjie Road","Brighton","Greater Manchester","BD1 2AA","AD00312"
8258323636,939,"The Quays","Barnsbury Road","Birmingham","Norfolk","TS1 1AA","AD00313"
1345275048,599,"Manchester One","Alverstone Street","Sunderland","South Yorkshire","TS1 2AA","AD00314"
5367602657,315,"The Park","Gillespie Road","Lincoln","Northumberland","SO1 3AA","AD00315"
8901950227,793,"Cathedral Quarter","Addison Road","Dudley","Kent","FY1 2AA","AD00316"
5099158544,975,"Watergate Street","Bloomsbury Square","Lincoln","Devon","WV1 2AA","AD00317"
735397430,324,"The iQ Wolverhampton","Addison Road","Oxford","Cornwall","WF1 2AA","AD00318"
5517529046,164,"Kelham Island","Margravine Road","Northampton","Essex","LS1 2AA","AD00319"
3929219506,298,"Blackburn Mall","Kensington Palace Gardens","Brighton","Merseyside","CR1 3AA","AD00320"
6223558465,1478,"The Triangle","Canonbury Grove","Blackburn","Wiltshire","M1 2AA","AD00321"
5362952072,233,"Middlehaven","Lauderdale Road","Luton","Somerset","BN1 1AA","AD00322"
2247226434,241,"Brayford Pool","Thornhill Road","Bradford","Greater London","NR1 3AA","AD00323"
9288231471,447,"City Park","Parsons Green Lane","Manchester","Bedfordshire","FY1 2AA","AD00324"
7910531095,513,"Sovereign Square","Bloomsbury Square","Portsmouth","Kent","SP1 2AA","AD00325"
8686500579,1006,"City Park","Barons Court Road","Wakefield","Lancashire","SO1 2AA","AD00326"
3704555371,645,"Tombland","Bramerton Street","Leeds","Lancashire","SN1 2AA","AD00327"
5641692816,1407,"The Rufus Centre","Barnsbury Road","Rochdale","Leicestershire","B1 3AA","AD00328"
652955029,831,"Regent Street","Sutherland Avenue","Ipswich","Rutland","BS1 1AA","AD00329"
2612303014,1357,"Sovereign Square","Wimbledon Park Road","Cambridge","Bedfordshire","BD1 1AA","AD00330"
2904849602,324,"The iQ Wolverhampton","Addison Road","Oxford","Cornwall","WF1 2AA","AD00331"
1374972312,840,"Rochdale Exchange","Park Avenue Road","Blackburn","Bristol","M1 3AA","AD00332"
9589997643,192,"Castlefield Wharf","Wilton Road","Blackburn","North Yorkshire","WV1 1AA","AD00333"
8137747087,343,"The Big One Apartments","Highbury Fields","Blackpool","Gloucestershire","PL1 2AA","AD00334"
8857935213,466,"Bathurst Buildings","Kensington Palace Gardens","Bradford","Surrey","NR1 2AA","AD00335"
9910433796,201,"The Point","Wimbledon Park Road","Nottingham","Suffolk","HU1 3AA","AD00336"
4765634035,858,"The Waterfront","Elgin Avenue","Plymouth","Durham","CA1 3AA","AD00337"
3414097397,554,"Bradshawgate","Randolph Crescent","Crawley","Shropshire","SR1 1AA","AD00338"
556666011,414,"The Rufus Centre","Notting Hill Gate","Leeds","Nottinghamshire","GL1 2AA","AD00339"
75112280,871,"Bathurst Buildings","Sutherland Avenue","Swindon","Cornwall","DY1 2AA","AD00340"
6110278661,379,"Bournville Wharf","The Crescent","Norwich","East Riding of Yorkshire","BS1 1AA","AD00341"
6745668688,247,"Rochdale Exchange","Church Street","Derby","Suffolk","BL1 1AA","AD00342"
9279502409,890,"The Drapery","Church Street","Carlisle","Lincolnshire","WV1 2AA","AD00343"
6804839676,233,"The Broadway","The Crescent","Middlesbrough","Leicestershire","M1 3AA","AD00344"
9760662604,1187,"The Close","Gillespie Road","Gloucester","Derbyshire","IP1 3AA","AD00345"
8744749570,82,"Rochdale Exchange","Thornhill Road","Salisbury","Lincolnshire","BH1 1AA","AD00346"
3695300264,1299,"Trinity Walk","The Crescent","Crawley","Suffolk","MK1 1AA","AD00347"
6855987303,1412,"The Triangle","Kensington Palace Gardens","Bradford","South Yorkshire","SR1 1AA","AD00348"
4598972688,222,"Bournville Wharf","Barons Court Road","Doncaster","Gloucestershire","WV1 2AA","AD00349"
3172173135,655,"The Headrow","Fitzroy Square","Gloucester","Staffordshire","IP1 3AA","AD00350"
3175499708,466,"The Bridges","Wimbledon Park Road","Newcastle upon Tyne","Berkshire","SR1 3AA","AD00351"
1223177998,789,"Castlegate","Sutherland Avenue","Wolverhampton","Shropshire","CR1 1AA","AD00352"
1298550831,624,"Gunwharf Quays","Church Street","Gloucester","Hertfordshire","WD1 1AA","AD00353"
4438759870,1313,"Waterfront","Parsons Green Lane","Liverpool","Hertfordshire","WV1 3AA","AD00354"
7689057985,1422,"Gunwharf Quays","Alverstone Street","Plymouth","Greater Manchester","SP1 1AA","AD00355"
898446899,1145,"Guildhall Square","Barons Court Road","Bolton","Tyne and Wear","EX1 3AA","AD00356"
3856011358,1265,"Grand Arcade","Lauderdale Road","Birmingham","Hertfordshire","CR1 2AA","AD00357"
3716770663,615,"The Deep","Margravine Road","Bolton","Derbyshire","LN1 3AA","AD00358"
4772221425,758,"The Broadway","Alverstone Street","Blackpool","Gloucestershire","LS1 1AA","AD00359"
961503246,1498,"The Interchange","Margravine Road","Lincoln","Norfolk","B1 1AA","AD00360"
2000830382,1389,"St Paul's Place","Park Avenue Road","Oxford","Oxfordshire","SR1 3AA","AD00361"
1765678048,788,"Crusader Court","Sutherland Avenue","Sunderland","Isle of Wight","DE1 1AA","AD00362"
3612276352,1257,"Quayside Quays","Notting Hill Gate","Cambridge","Devon","WV1 1AA","AD00363"
3306591149,1410,"The Hive","Thornhill Road","Manchester","Greater London","CR1 2AA","AD00364"
3351917147,217,"The Quadrant","Gillespie Road","Dudley","Leicestershire","PE1 3AA","AD00365"
4594344372,910,"The Drapery","Margravine Road","Luton","South Yorkshire","WF1 2AA","AD00366"
5474699689,1157,"The Triangle","The Boltons","Salisbury","West Yorkshire","S1 1AA","AD00367"
5310753613,136,"Waterfront West","Barons Court Road","Kingston upon Hull","Oxfordshire","PL1 2AA","AD00368"
2360836781,302,"Kelham Island","Alverstone Street","Ipswich","Durham","FY1 1AA","AD00369"
7531393859,601,"The Malago Estate","Lauderdale Road","Doncaster","Cheshire","BD1 2AA","AD00370"
1865604968,181,"The Quay","The Crescent","Wolverhampton","Greater Manchester","GL1 3AA","AD00371"
9833540333,263,"Bathurst Buildings","The Boltons","Watford","Norfolk","BL1 1AA","AD00372"
9796670232,580,"The Ascent","Chipping Norton Street","Cambridge","North Yorkshire","SP1 3AA","AD00373"
8305108058,1416,"Friar Street","Marylebone High Street","Sunderland","North Yorkshire","BS1 1AA","AD00374"
6274247602,1202,"The BH1 Apartments","Canonbury Grove","Rochdale","Oxfordshire","PL1 3AA","AD00375"
6315101518,1283,"Cathedral Square","Barnsbury Road","Newcastle upon Tyne","Dorset","SR1 3AA","AD00376"
7163983573,1435,"The Cube","Addison Road","Lincoln","Bedfordshire","HU1 1AA","AD00377"
1203462840,918,"The Sands","Lauderdale Road","Middlesbrough","Derbyshire","BH1 3AA","AD00378"
338390448,304,"Lace Market Wohnungen","Notting Hill Gate","Sheffield","Surrey","TS1 3AA","AD00379"
6029871498,661,"The Residence","Addison Road","Watford","Norfolk","CA1 2AA","AD00380"
2256574121,782,"The Elements","Addison Road","Salisbury","East Riding of Yorkshire","NE1 2AA","AD00381"
7826853206,325,"The Pumphouse","Alverstone Street","Bolton","East Sussex","EX1 3AA","AD00382"
9469641582,20,"The Rufus Centre","Lyttelton Road","York","East Riding of Yorkshire","YO1 2AA","AD00383"
7767096548,165,"The Ascent","Weltjie Road","Gloucester","West Yorkshire","B1 1AA","AD00384"
3978257882,893,"City Walls","Weltjie Road","Birmingham","Isle of Wight","WF1 1AA","AD00385"
9695623166,489,"The Workstation","Church Street","Blackburn","North Yorkshire","SO1 3AA","AD00386"
3196720462,1410,"Southgate Street","Highbury Fields","Coventry","Cambridgeshire","BS1 2AA","AD00387"
5065361363,1313,"Waterfront","Parsons Green Lane","Liverpool","Hertfordshire","WV1 3AA","AD00388"
1374819697,373,"Castlegate","Barnsbury Road","Dudley","Greater London","WF1 2AA","AD00389"
6567266015,469,"The Centre MK","The Boltons","Ipswich","Somerset","LU1 1AA","AD00390"
5813766499,1474,"The Custard Factory","Gillespie Road","Bradford","South Yorkshire","FY1 1AA","AD00391"
9701658590,918,"The Sands","Lauderdale Road","Middlesbrough","Derbyshire","BH1 3AA","AD00392"
7042281969,983,"The Promenade Apartments","Marylebone High Street","York","North Yorkshire","SN1 3AA","AD00393"
7649530906,756,"The Strait","Highbury Fields","Manchester","Buckinghamshire","IP1 2AA","AD00394"
9522717428,476,"Brayford Pool","Barnsbury Road","Doncaster","Cornwall","LS1 3AA","AD00395"
1896906702,101,"Rivergate","Kensington Palace Gardens","Gloucester","Shropshire","LN1 1AA","AD00396"
9532608249,432,"The Landmark","Wilton Road","Chester","West Midlands","EX1 3AA","AD00397"
115433449,886,"Rochdale Exchange","Elgin Avenue","Gloucester","Greater Manchester","PE1 3AA","AD00398"
9352363302,890,"The Drapery","Church Street","Carlisle","Lincolnshire","WV1 2AA","AD00399"
1898215065,652,"The Mander Centre","Park Avenue Road","Brighton","Staffordshire","EX1 3AA","AD00400"
3141253668,919,"Quayside Quays","Gillespie Road","York","Hampshire","BS1 1AA","AD00401"
1561563684,934,"The Ruskin","Wimbledon Park Road","Swindon","Northamptonshire","BL1 3AA","AD00402"
1663435766,708,"The Lanes Apartments","The Boltons","Middlesbrough","Worcestershire","PL1 1AA","AD00403"
6351660661,31,"The Distillery","Gillespie Road","Bradford","Norfolk","DN1 3AA","AD00404"
3557889807,829,"Cathedral Quarter","Canonbury Grove","Dudley","Hertfordshire","IP1 1AA","AD00405"
7332609363,911,"The Rufus Centre","Bramerton Street","York","East Sussex","M1 1AA","AD00406"
194046907,204,"The Silk Mill","Fitzroy Square","Stoke-on-Trent","Greater London","CV1 1AA","AD00407"
406670528,1274,"The Park","Thornhill Road","Stoke-on-Trent","North Yorkshire","WD1 1AA","AD00408"
2553636385,233,"The Broadway","The Crescent","Middlesbrough","Leicestershire","M1 3AA","AD00409"
3533800741,1304,"Kampus","Bramerton Street","Reading","North Yorkshire","TS1 2AA","AD00410"
1839280735,1383,"Fisherton Street","Chipping Norton Street","Gloucester","Isle of Wight","NE1 2AA","AD00411"
2468401859,485,"Bournville Wharf","Alverstone Street","Doncaster","Wiltshire","MK1 1AA","AD00412"
9030726938,1271,"The Unity Building","Barnsbury Road","Sunderland","Essex","DN1 3AA","AD00413"
2919098942,246,"Minster Court","Thornhill Road","Oxford","Kent","CA1 1AA","AD00414"
6762153488,711,"Milkstone Road","Marylebone High Street","Oxford","Greater Manchester","NG1 3AA","AD00415"
5460826047,858,"The Waterfront","Elgin Avenue","Plymouth","Durham","CA1 3AA","AD00416"
949753327,684,"Kemp Town","Barnsbury Road","Milton Keynes","Warwickshire","CV1 3AA","AD00417"
144548569,694,"The Promenade Apartments","Randolph Crescent","Blackburn","Cheshire","SR1 2AA","AD00418"
4524100849,705,"Middlehaven","Weltjie Road","Brighton","Greater Manchester","BD1 2AA","AD00419"
5025018382,167,"Victoria Street","Marylebone High Street","Stoke-on-Trent","Worcestershire","DN1 3AA","AD00420"
7881218053,379,"Middlehaven","The Crescent","Plymouth","Wiltshire","WD1 3AA","AD00421"
1994381140,377,"Moda Living","Randolph Crescent","Luton","Cheshire","CA1 3AA","AD00422"
5044507016,180,"The Strand","Lauderdale Road","Luton","Devon","LN1 2AA","AD00423"
7344112647,747,"The Unity Building","Highbury Fields","Sunderland","East Sussex","HU1 3AA","AD00424"
8460765067,432,"The Landmark","Wilton Road","Chester","West Midlands","EX1 3AA","AD00425"
9081897276,1483,"The Norwich Lanes","Addison Road","Carlisle","Derbyshire","CB1 3AA","AD00426"
8580785863,468,"The Malago Estate","Lyttelton Road","Manchester","East Riding of Yorkshire","WD1 1AA","AD00427"
2294187938,234,"The Hive","Chipping Norton Street","Leicester","Greater Manchester","MK1 3AA","AD00428"
1921772751,185,"The Mander Centre","Elgin Avenue","Rochdale","Devon","PL1 1AA","AD00429"
403472962,81,"St. Annes Way","Askew Road","Leicester","Cambridgeshire","OL1 1AA","AD00430"
5145353790,747,"The Unity Building","Highbury Fields","Sunderland","East Sussex","HU1 3AA","AD00431"
9099368518,462,"Wapping Wharf","Wilton Road","Stoke-on-Trent","Essex","MK1 3AA","AD00432"
4783761981,440,"The Big One Apartments","Notting Hill Gate","Kingston upon Hull","Greater Manchester","PL1 2AA","AD00433"
6000616597,331,"The Beacon","Church Street","Blackpool","South Yorkshire","LU1 2AA","AD00434"
5161071419,595,"Hadrian's Court","Highbury Fields","Newcastle upon Tyne","Nottinghamshire","WF1 2AA","AD00435"
3486977016,1315,"The Ascent","Park Avenue Road","Cambridge","Shropshire","CR1 3AA","AD00436"
1446937399,1335,"Frenchgate Shopping Centre","Highbury Fields","Blackburn","Worcestershire","TS1 1AA","AD00437"
3544806444,635,"The Residence","Highbury Fields","Luton","Northamptonshire","S1 3AA","AD00438"
2620969115,533,"Fossgate","Church Street","Wakefield","Nottinghamshire","BL1 1AA","AD00439"
3098320559,679,"The General Hospital Quarter","The Crescent","Watford","Lancashire","MK1 2AA","AD00440"
1278689427,432,"Edgbaston Park","Margravine Road","Newcastle upon Tyne","Rutland","PL1 2AA","AD00441"
4445685410,1006,"Quayside Quays","Thornhill Road","Middlesbrough","Staffordshire","BL1 2AA","AD00442"
1199698504,570,"Cassiobury Park","Parsons Green Lane","Peterborough","Northumberland","WF1 1AA","AD00443"
3687934950,1338,"Kemp Town","Highbury Fields","Exeter","Suffolk","BN1 2AA","AD00444"
5060955192,400,"St Paul's Place","Bloomsbury Square","Bristol","Hertfordshire","BL1 3AA","AD00445"
9931396709,757,"XYZ Apartments","Barons Court Road","Oxford","Leicestershire","BN1 1AA","AD00446"
9036328446,788,"Crusader Court","Sutherland Avenue","Sunderland","Isle of Wight","DE1 1AA","AD00447"
6053947512,645,"Bournville Wharf","Marylebone High Street","Southampton","Staffordshire","NE1 3AA","AD00448"
1769466533,529,"Highcross Leicester","The Boltons","Luton","City of London","MK1 3AA","AD00449"
4035855812,1422,"Gunwharf Quays","Alverstone Street","Plymouth","Greater Manchester","SP1 1AA","AD00450"
7745280311,764,"The Strand","Kensington Palace Gardens","Nottingham","Suffolk","NG1 2AA","AD00451"
9330642845,1440,"Porter Valley","The Crescent","Bournemouth","West Sussex","IP1 2AA","AD00452"
7113876684,1273,"Forster Square Apartments","Alverstone Street","Luton","Warwickshire","LS1 1AA","AD00453"
911490825,238,"City Park","Chipping Norton Street","Bolton","North Yorkshire","LN1 2AA","AD00454"
7424996665,368,"The Leverton","Wilton Road","Sheffield","Dorset","YO1 1AA","AD00455"
8442461302,563,"Kelham Island","Parsons Green Lane","Brighton","Herefordshire","LE1 1AA","AD00456"
3175740448,909,"Hampton","Barons Court Road","Wolverhampton","Durham","NE1 1AA","AD00457"
5914559677,29,"The Deep","Thornhill Road","Southampton","Dorset","DN1 1AA","AD00458"
8785747726,1350,"Rivergate","Gillespie Road","Derby","Kent","WD1 1AA","AD00459"
1038008085,797,"Minster Court","Chipping Norton Street","Bradford","Dorset","LN1 1AA","AD00460"
1872954979,368,"Cathedral Square","Addison Road","Carlisle","Merseyside","PL1 2AA","AD00461"
3362034039,562,"The Silk Mill","Elgin Avenue","Leicester","Merseyside","NN1 3AA","AD00462"
2847706860,298,"Blackburn Mall","Kensington Palace Gardens","Brighton","Merseyside","CR1 3AA","AD00463"
8913970724,357,"Mayfield","Chipping Norton Street","Lincoln","Greater Manchester","LN1 3AA","AD00464"
7897854531,373,"Castlegate","Barnsbury Road","Dudley","Greater London","WF1 2AA","AD00465"
579372952,683,"The Strand","Park Avenue Road","Sheffield","East Riding of Yorkshire","BH1 1AA","AD00466"
1924131226,1019,"Mayfield","Marylebone High Street","Wakefield","Essex","EX1 3AA","AD00467"
5168256120,46,"The Quadrant","Randolph Crescent","Birmingham","Lincolnshire","SO1 2AA","AD00468"
8851286469,1012,"The Lumen","Weltjie Road","Wakefield","Bedfordshire","SP1 1AA","AD00469"
8094192054,758,"The Broadway","Alverstone Street","Blackpool","Gloucestershire","LS1 1AA","AD00470"
4534577087,1345,"Abington Street","Gillespie Road","Exeter","Shropshire","LN1 1AA","AD00471"
2726741312,909,"The Promenade Apartments","Addison Road","Leicester","Isle of Wight","WV1 1AA","AD00472"
5628846562,1353,"City Walls","Elgin Avenue","Bournemouth","Greater Manchester","BH1 3AA","AD00473"
4978092620,1225,"Southgate","Margravine Road","Blackburn","Greater Manchester","CB1 3AA","AD00474"
3518484478,924,"Moda Living","Lauderdale Road","Chester","Lancashire","LE1 3AA","AD00475"
5254837039,1040,"Church Wharf","Highbury Fields","Birmingham","Northumberland","BN1 2AA","AD00476"
2966422491,127,"Linthorpe Road","Church Street","Portsmouth","Kent","PL1 1AA","AD00477"
9424141483,989,"The Park","Weltjie Road","Oxford","Rutland","WV1 2AA","AD00478"
4301609628,207,"Sutton Harbour","Parsons Green Lane","Ipswich","Lincolnshire","M1 3AA","AD00479"
7719227174,436,"The Deep","The Crescent","Exeter","East Riding of Yorkshire","SP1 1AA","AD00480"
8487193714,331,"The Beacon","Church Street","Blackpool","South Yorkshire","LU1 2AA","AD00481"
2606403371,73,"Trinity Leeds","Elgin Avenue","Chester","Warwickshire","SR1 1AA","AD00482"
5371519769,685,"Wapping Wharf","Sutherland Avenue","Sunderland","North Yorkshire","TS1 2AA","AD00483"
6645613547,167,"Trinity Leeds","Alverstone Street","Milton Keynes","Merseyside","BL1 3AA","AD00484"
6996389887,968,"Forster Square Apartments","Alverstone Street","Wolverhampton","East Sussex","BH1 1AA","AD00485"
7035108750,496,"Blackburn Mall","Kensington Palace Gardens","Birmingham","Wiltshire","IP1 2AA","AD00486"
2203135638,858,"The Waterfront","Elgin Avenue","Plymouth","Durham","CA1 3AA","AD00487"
8573649976,842,"The Broadway","Chipping Norton Street","Crawley","Bristol","FY1 2AA","AD00488"
7311050448,1422,"Gunwharf Quays","Alverstone Street","Plymouth","Greater Manchester","SP1 1AA","AD00489"
4185201176,679,"The General Hospital Quarter","The Crescent","Watford","Lancashire","MK1 2AA","AD00490"
3507439204,812,"Linthorpe Road","Notting Hill Gate","Dudley","West Yorkshire","CA1 2AA","AD00491"
3085192050,31,"The Distillery","Gillespie Road","Bradford","Norfolk","DN1 3AA","AD00492"
6700868017,716,"The Brunel Centre","Askew Road","York","Greater Manchester","NR1 3AA","AD00493"
6050806268,1066,"The Randolph","Chipping Norton Street","Exeter","Herefordshire","SR1 2AA","AD00494"
9046644154,555,"The Lexington","Thornhill Road","Milton Keynes","Greater Manchester","B1 1AA","AD00495"
1875927840,1179,"The Potteries Shopping Centre","The Boltons","Middlesbrough","East Sussex","ST1 3AA","AD00496"
8363247596,1450,"Wapping Wharf","Randolph Crescent","Sunderland","Durham","SR1 2AA","AD00497"
4482646253,55,"Blackburn Mall","Parsons Green Lane","Norwich","Northumberland","LN1 3AA","AD00498"
673681491,980,"Frenchgate Shopping Centre","Canonbury Grove","Sheffield","North Yorkshire","BS1 3AA","AD00499"
9916394938,905,"The Potteries Shopping Centre","Canonbury Grove","Portsmouth","Shropshire","SP1 1AA","AD00500"
6254286750,292,"The Buttermarket","Sutherland Avenue","York","South Yorkshire","CA1 2AA","AD00501"
4533801463,883,"Tombland","Kensington Palace Gardens","Gloucester","East Sussex","LU1 1AA","AD00502"
3829417675,950,"The Market Place","Margravine Road","Wakefield","Leicestershire","LS1 2AA","AD00503"
9974916097,804,"Kampus","Highbury Fields","Manchester","South Yorkshire","B1 3AA","AD00504"
309116953,399,"The Cube","Marylebone High Street","Dudley","East Sussex","GL1 1AA","AD00505"
9035809335,876,"The Potteries Shopping Centre","The Boltons","Sheffield","Wiltshire","WD1 1AA","AD00506"
2207339807,324,"The Grafton","Highbury Fields","Birmingham","Rutland","NE1 2AA","AD00507"
7587805699,543,"Hampton","Parsons Green Lane","Northampton","Isle of Wight","NN1 1AA","AD00508"
8573676140,894,"Waterfront","The Crescent","Wakefield","Greater Manchester","CR1 3AA","AD00509"
5925378598,272,"The Ascent","Wilton Road","Peterborough","East Sussex","NR1 1AA","AD00510"
7096058079,234,"The Hive","Chipping Norton Street","Leicester","Greater Manchester","MK1 3AA","AD00511"
3850827488,825,"Southgate","Kensington Palace Gardens","Leeds","North Yorkshire","LS1 2AA","AD00512"
2938079699,1422,"Gunwharf Quays","Alverstone Street","Plymouth","Greater Manchester","SP1 1AA","AD00513"
933427808,1369,"Grand Arcade","Addison Road","Sunderland","Nottinghamshire","PE1 1AA","AD00514"
1001138236,325,"The Pumphouse","Alverstone Street","Bolton","East Sussex","EX1 3AA","AD00515"
7246046194,1319,"The Grafton","Wimbledon Park Road","Peterborough","Cumbria","LS1 1AA","AD00516"
3729986295,178,"The Broadway","The Crescent","Carlisle","Staffordshire","LU1 2AA","AD00517"
4410017446,101,"Rivergate","Kensington Palace Gardens","Gloucester","Shropshire","LN1 1AA","AD00518"
3063859397,443,"Minster Court","Thornhill Road","Doncaster","Warwickshire","GL1 1AA","AD00519"
6612926589,1136,"The Drapery","Marylebone High Street","Watford","East Sussex","SR1 1AA","AD00520"
9114643111,1435,"The Cube","Addison Road","Lincoln","Bedfordshire","HU1 1AA","AD00521"
9018114618,716,"The Brunel Centre","Askew Road","York","Greater Manchester","NR1 3AA","AD00522"
1845306333,266,"The Beacon","The Boltons","Bolton","Gloucestershire","FY1 3AA","AD00523"
9634702953,939,"The Quays","Barnsbury Road","Birmingham","Norfolk","TS1 1AA","AD00524"
497769719,1486,"Victoria Gate","Fitzroy Square","Nottingham","Somerset","BH1 2AA","AD00525"
756021707,1132,"Waterdale","Elgin Avenue","Birmingham","Nottinghamshire","YO1 2AA","AD00526"
4751642928,387,"Bathurst Buildings","Barnsbury Road","Reading","Berkshire","LN1 2AA","AD00527"
4392523187,1431,"St. Annes Way","Elgin Avenue","Middlesbrough","West Midlands","NE1 2AA","AD00528"
6148746875,29,"The Exchange","Sutherland Avenue","Stoke-on-Trent","West Yorkshire","BN1 3AA","AD00529"
2661278001,207,"Cathedral Square","Marylebone High Street","Luton","Lancashire","SP1 3AA","AD00530"
3228163024,1363,"The Hoe Apartment Hotel","Wilton Road","Cambridge","Warwickshire","RG1 1AA","AD00531"
542367262,1328,"The Curve","Park Avenue Road","Stoke-on-Trent","Bristol","WD1 1AA","AD00532"
9390013739,1488,"Cathedral Square","Notting Hill Gate","Wolverhampton","Nottinghamshire","EX1 2AA","AD00533"
4012819747,1143,"County Oak","Marylebone High Street","Leeds","West Midlands","B1 3AA","AD00534"
5704228089,754,"The Bottle Yard Studios","Bramerton Street","Coventry","Greater Manchester","ST1 2AA","AD00535"
5266072717,677,"The Liver Building","Lyttelton Road","Lincoln","Nottinghamshire","EX1 2AA","AD00536"
4090568668,588,"The Mailbox","Alverstone Street","Wolverhampton","West Midlands","OL1 3AA","AD00537"
6313082869,910,"The Drapery","Margravine Road","Luton","South Yorkshire","WF1 2AA","AD00538"
847907716,1438,"Deansgate Quays","Elgin Avenue","Bournemouth","Leicestershire","GL1 2AA","AD00539"
1846376343,431,"The Custard Factory","Askew Road","Leeds","Essex","CB1 1AA","AD00540"
9482151232,466,"Bathurst Buildings","Kensington Palace Gardens","Bradford","Surrey","NR1 2AA","AD00541"
4640475586,167,"Trinity Leeds","Alverstone Street","Milton Keynes","Merseyside","BL1 3AA","AD00542"
1992019053,210,"The Sands","Wimbledon Park Road","Bolton","Devon","B1 1AA","AD00543"
7495428708,131,"The Rows","Askew Road","Sunderland","Dorset","CR1 1AA","AD00544"
2310715433,200,"The Waterfront","The Crescent","Coventry","Worcestershire","CH1 1AA","AD00545"
861652525,925,"Bathurst Buildings","Chipping Norton Street","Sunderland","Durham","SO1 1AA","AD00546"
8695807142,57,"Chapelfield Road","Chipping Norton Street","Ipswich","Norfolk","YO1 1AA","AD00547"
6034676541,489,"Trinity Walk","Park Avenue Road","Manchester","Cheshire","GL1 1AA","AD00548"
7160060431,1146,"The Rufus Centre","Askew Road","Doncaster","Buckinghamshire","DY1 3AA","AD00549"
2345614706,650,"Smithfield","Randolph Crescent","Coventry","Cumbria","PE1 3AA","AD00550"
4323784295,1179,"The Potteries Shopping Centre","The Boltons","Middlesbrough","East Sussex","ST1 3AA","AD00551"
7618702624,983,"The Lumen","Wimbledon Park Road","Bristol","Cheshire","BN1 3AA","AD00552"
2345194316,595,"Hadrian's Court","Highbury Fields","Newcastle upon Tyne","Nottinghamshire","WF1 2AA","AD00553"
589658123,82,"Rochdale Exchange","Church Street","Swindon","Merseyside","CA1 2AA","AD00554"
277161185,1006,"City Park","Barons Court Road","Wakefield","Lancashire","SO1 2AA","AD00555"
8358991916,854,"Fossgate","The Crescent","Birmingham","South Yorkshire","BS1 3AA","AD00556"
3183690306,1412,"The Triangle","Kensington Palace Gardens","Bradford","South Yorkshire","SR1 1AA","AD00557"
233333428,162,"The Harlequin","Barnsbury Road","Swindon","Lancashire","CB1 1AA","AD00558"
5587496082,331,"The Beacon","Church Street","Blackpool","South Yorkshire","LU1 2AA","AD00559"
1040233074,1311,"Edgbaston Park","Gillespie Road","Sunderland","Warwickshire","NN1 2AA","AD00560"
3829128185,645,"Bournville Wharf","Marylebone High Street","Southampton","Staffordshire","NE1 3AA","AD00561"
1180155777,415,"The Rufus Centre","Wimbledon Park Road","Newcastle upon Tyne","Somerset","BS1 1AA","AD00562"
7097111518,1316,"Edgbaston Park","Lyttelton Road","Northampton","Nottinghamshire","OL1 2AA","AD00563"
4610115492,1486,"Victoria Gate","Fitzroy Square","Nottingham","Somerset","BH1 2AA","AD00564"
3926947705,57,"Chapelfield Road","Chipping Norton Street","Ipswich","Norfolk","YO1 1AA","AD00565"
3279604060,212,"Lace Market Wohnungen","Notting Hill Gate","Bradford","Cumbria","SO1 2AA","AD00566"
616577532,905,"The Potteries Shopping Centre","Canonbury Grove","Portsmouth","Shropshire","SP1 1AA","AD00567"
258686863,906,"The Triangle","Elgin Avenue","Dudley","Bedfordshire","CR1 2AA","AD00568"
8110711707,1258,"Waterfront","Alverstone Street","Carlisle","City of London","FY1 3AA","AD00569"
6941237643,204,"The Silk Mill","Fitzroy Square","Stoke-on-Trent","Greater London","CV1 1AA","AD00570"
7401831600,729,"Cathedral Green","Chipping Norton Street","Kingston upon Hull","Bristol","LS1 1AA","AD00571"
3879983682,316,"Victoria Street","Alverstone Street","Coventry","South Yorkshire","HU1 3AA","AD00572"
5823871163,239,"Gunwharf Quays","Wimbledon Park Road","Ipswich","Cumbria","WD1 1AA","AD00573"
2241227897,1235,"The Norwich Lanes","The Boltons","Exeter","Bristol","BH1 3AA","AD00574"
131102613,302,"Kelham Island","Alverstone Street","Ipswich","Durham","FY1 1AA","AD00575"
5588928741,1218,"Cassiobury Park","Askew Road","Norwich","Staffordshire","BS1 2AA","AD00576"
6544935549,1473,"The Brewery Wharf","Fitzroy Square","Leeds","Suffolk","BS1 3AA","AD00577"
9473150822,29,"The Exchange","Sutherland Avenue","Stoke-on-Trent","West Yorkshire","BN1 3AA","AD00578"
9453401668,562,"The Silk Mill","Elgin Avenue","Leicester","Merseyside","NN1 3AA","AD00579"
4094544658,1140,"Bournville Wharf","Randolph Crescent","Bournemouth","Wiltshire","LE1 3AA","AD00580"
7379579827,666,"Minster Court","Park Avenue Road","Wakefield","Herefordshire","WF1 3AA","AD00581"
7001536504,751,"The Elements","Barnsbury Road","Lincoln","Essex","NN1 2AA","AD00582"
6244942396,1233,"The Drapery","Elgin Avenue","Sunderland","East Sussex","LU1 1AA","AD00583"
5682413598,81,"St. Annes Way","Askew Road","Leicester","Cambridgeshire","OL1 1AA","AD00584"
1746912782,1235,"The Norwich Lanes","The Boltons","Exeter","Bristol","BH1 3AA","AD00585"
2448505594,447,"City Park","Parsons Green Lane","Manchester","Bedfordshire","FY1 2AA","AD00586"
4891156139,1490,"The Sands","Addison Road","Bournemouth","Leicestershire","OX1 3AA","AD00587"
3146725029,749,"Highcross Leicester","Wimbledon Park Road","Southampton","Shropshire","LU1 2AA","AD00588"
3010144008,642,"The Landmark","Lauderdale Road","Sheffield","Cheshire","BD1 3AA","AD00589"
9354383238,367,"The Avenue","Wimbledon Park Road","Derby","Suffolk","NN1 3AA","AD00590"
5833946123,679,"Steep Hill","Margravine Road","Gloucester","Cheshire","PL1 2AA","AD00591"
6823971592,568,"Victoria Street","Bramerton Street","Northampton","Essex","BS1 3AA","AD00592"
9999453287,454,"The Silk Mill","Wilton Road","Lincoln","Cornwall","LE1 3AA","AD00593"
3262425834,137,"Bede House","Addison Road","Sheffield","West Sussex","EX1 2AA","AD00594"
292825676,1345,"Abington Street","Gillespie Road","Exeter","Shropshire","LN1 1AA","AD00595"
5501356686,1158,"The Broadway","Askew Road","Plymouth","Essex","NE1 1AA","AD00596"
5709606154,982,"Bede House","Alverstone Street","Brighton","Devon","PL1 2AA","AD00597"
7642314132,910,"The Bridges","Wilton Road","Peterborough","Worcestershire","LS1 3AA","AD00598"
2856846114,1299,"Trinity Walk","The Crescent","Crawley","Suffolk","MK1 1AA","AD00599"
3592312472,1021,"Porter Valley","Fitzroy Square","Carlisle","Bedfordshire","DE1 1AA","AD00600"
9913203589,374,"Fossgate","Barons Court Road","Nottingham","Greater London","NG1 1AA","AD00601"
9588802768,890,"The Drapery","Church Street","Carlisle","Lincolnshire","WV1 2AA","AD00602"
2553249721,1158,"Gunwharf Quays","Gillespie Road","Birmingham","Shropshire","RG1 2AA","AD00603"
1272043363,1112,"Watergate Street","Alverstone Street","Birmingham","Isle of Wight","YO1 2AA","AD00604"
6644428746,17,"Cathedral Quarter","Weltjie Road","Carlisle","Greater London","M1 2AA","AD00605"
2628033127,271,"Victoria Gate","Chipping Norton Street","Blackburn","Durham","LE1 3AA","AD00606"
2358618837,274,"Leopold Square","Wimbledon Park Road","Southampton","Derbyshire","EX1 3AA","AD00607"
7474143534,603,"The Vines","Thornhill Road","Cambridge","Devon","EX1 1AA","AD00608"
3285079568,751,"St. Annes Way","Barons Court Road","Norwich","East Riding of Yorkshire","BD1 3AA","AD00609"
7988632590,204,"The Silk Mill","Fitzroy Square","Stoke-on-Trent","Greater London","CV1 1AA","AD00610"
9917640541,50,"Transporter Bridge Apartments","Weltjie Road","Salisbury","Cornwall","WF1 3AA","AD00611"
8130820625,1407,"The Market Place","Park Avenue Road","Coventry","West Yorkshire","DN1 2AA","AD00612"
7132344811,147,"The Exchange","Marylebone High Street","Middlesbrough","Greater Manchester","TS1 2AA","AD00613"
7668607137,630,"Porter Valley","Parsons Green Lane","Leeds","Lancashire","FY1 1AA","AD00614"
4209294144,1064,"The Big One Apartments","The Boltons","Bradford","Cheshire","SP1 3AA","AD00615"
1704824788,510,"The Deep","Marylebone High Street","Leicester","Berkshire","WV1 3AA","AD00616"
1798259400,1494,"The Distillery","Barons Court Road","Sunderland","Greater Manchester","SP1 3AA","AD00617"
249250063,623,"Friargate","The Boltons","Bolton","Lincolnshire","MK1 2AA","AD00618"
5756828575,682,"Victoria Gate","Elgin Avenue","Newcastle upon Tyne","Nottinghamshire","RG1 1AA","AD00619"
8217636613,790,"Gunwharf Quays","Alverstone Street","Chester","Bedfordshire","SR1 2AA","AD00620"
3905101394,1363,"The Hoe Apartment Hotel","Wilton Road","Cambridge","Warwickshire","RG1 1AA","AD00621"
1692190792,392,"The Lexington","Marylebone High Street","Exeter","Cumbria","B1 1AA","AD00622"
865982554,1358,"The Deep","Fitzroy Square","Rochdale","Lincolnshire","TS1 2AA","AD00623"
9542516959,651,"The Exchange","Wimbledon Park Road","Manchester","Somerset","MK1 1AA","AD00624"
5309632751,793,"Cathedral Quarter","Addison Road","Dudley","Kent","FY1 2AA","AD00625"
8860110505,773,"The Pumphouse","Church Street","Luton","North Yorkshire","B1 1AA","AD00626"
4487382351,244,"Quayside Quays","Marylebone High Street","Oxford","Hertfordshire","IP1 2AA","AD00627"
3614783405,298,"The Bottle Yard Studios","Fitzroy Square","Northampton","Hampshire","PL1 2AA","AD00628"
7535667783,131,"The Rows","Askew Road","Sunderland","Dorset","CR1 1AA","AD00629"
8524797169,1034,"The Buttermarket","Chipping Norton Street","Crawley","Rutland","OX1 2AA","AD00630"
1899486089,82,"Rochdale Exchange","Thornhill Road","Salisbury","Lincolnshire","BH1 1AA","AD00631"
1588614727,1060,"The Cube","Barons Court Road","Nottingham","Derbyshire","DN1 3AA","AD00632"
1478334436,1333,"The Hive","Thornhill Road","Wakefield","Lancashire","FY1 2AA","AD00633"
458772518,506,"The Park","Marylebone High Street","Doncaster","Surrey","SO1 3AA","AD00634"
7443817797,595,"Hadrian's Court","Highbury Fields","Newcastle upon Tyne","Nottinghamshire","WF1 2AA","AD00635"
3240637707,968,"Forster Square Apartments","Alverstone Street","Wolverhampton","East Sussex","BH1 1AA","AD00636"
8491523553,1108,"Sovereign Square","Elgin Avenue","Dudley","Worcestershire","NN1 1AA","AD00637"
6409604262,1378,"Kings Walk","Canonbury Grove","Manchester","Cumbria","WV1 2AA","AD00638"
7727364622,1152,"Hampton","Gillespie Road","Watford","Hampshire","CB1 2AA","AD00639"
9871362900,340,"Sovereign Square","Gillespie Road","Bolton","Oxfordshire","EX1 2AA","AD00640"
5290861939,923,"The Triangle","Weltjie Road","Luton","South Yorkshire","BS1 1AA","AD00641"
9961714849,764,"The Waterfront","Gillespie Road","Oxford","Cumbria","YO1 1AA","AD00642"
1856356841,887,"The Residence","Lauderdale Road","York","Hertfordshire","MK1 1AA","AD00643"
9733336378,234,"The Hive","Chipping Norton Street","Leicester","Greater Manchester","MK1 3AA","AD00644"
6550616069,809,"Fisherton Street","Randolph Crescent","Chester","West Sussex","NN1 1AA","AD00645"
6295104126,367,"Friar Street","Wimbledon Park Road","Rochdale","Rutland","BH1 1AA","AD00646"
7971086555,829,"The Maltings","Canonbury Grove","Wolverhampton","Nottinghamshire","BH1 2AA","AD00647"
3569146650,754,"Castlefield Wharf","The Boltons","Oxford","Greater Manchester","PE1 2AA","AD00648"
225666499,663,"The Assissi Apartments","Sutherland Avenue","Brighton","West Midlands","NR1 3AA","AD00649"
4329768593,684,"Blackburn Mall","Barnsbury Road","Middlesbrough","Staffordshire","NN1 2AA","AD00650"
3577059060,586,"The Promenade Apartments","Elgin Avenue","Nottingham","East Sussex","TS1 3AA","AD00651"
8880477196,702,"The Exchange","Alverstone Street","Stoke-on-Trent","South Yorkshire","GL1 2AA","AD00652"
9709646273,50,"St. Annes Way","Lauderdale Road","Newcastle upon Tyne","Northumberland","BN1 3AA","AD00653"
3157516973,910,"The Bridges","Wilton Road","Peterborough","Worcestershire","LS1 3AA","AD00654"
3542247146,1021,"The Sands","Gillespie Road","Doncaster","Somerset","BH1 1AA","AD00655"
6381027894,481,"The BH1 Apartments","Askew Road","Birmingham","Leicestershire","M1 3AA","AD00656"
4701035580,837,"Linthorpe Road","Thornhill Road","Southampton","Dorset","LS1 1AA","AD00657"
4375123206,466,"The Bridges","Wimbledon Park Road","Newcastle upon Tyne","Berkshire","SR1 3AA","AD00658"
2026944288,5,"Crusader Court","Elgin Avenue","Cambridge","Gloucestershire","YO1 3AA","AD00659"
3821611375,1233,"The Drapery","Elgin Avenue","Sunderland","East Sussex","LU1 1AA","AD00660"
2614378216,824,"The Moor","Park Avenue Road","Oxford","Bedfordshire","NN1 1AA","AD00661"
1055649492,215,"Crusader Court","Church Street","Doncaster","East Riding of Yorkshire","GL1 3AA","AD00662"
7025614130,1393,"Southgate","Parsons Green Lane","Newcastle upon Tyne","Northumberland","M1 3AA","AD00663"
120053144,265,"High Street","Barnsbury Road","Leeds","Northamptonshire","S1 3AA","AD00664"
8480784156,1218,"Cassiobury Park","Askew Road","Norwich","Staffordshire","BS1 2AA","AD00665"
3632486859,1235,"Rochdale Exchange","Randolph Crescent","Bournemouth","Hertfordshire","ST1 2AA","AD00666"
1999426568,694,"The Promenade Apartments","Randolph Crescent","Blackburn","Cheshire","SR1 2AA","AD00667"
8938975827,164,"Kelham Island","Margravine Road","Northampton","Essex","LS1 2AA","AD00668"
593428706,1144,"Ropewalks","Church Street","Stoke-on-Trent","Devon","OX1 2AA","AD00669"
7137345921,1358,"The Deep","Fitzroy Square","Rochdale","Lincolnshire","TS1 2AA","AD00670"
7460423963,1028,"Victoria Street","Kensington Palace Gardens","Bradford","Nottinghamshire","LU1 3AA","AD00671"
8816562250,564,"Frenchgate Shopping Centre","Thornhill Road","Crawley","Lancashire","S1 3AA","AD00672"
7496654035,57,"Chapelfield Road","Chipping Norton Street","Ipswich","Norfolk","YO1 1AA","AD00673"
2765636621,1140,"Bournville Wharf","Randolph Crescent","Bournemouth","Wiltshire","LE1 3AA","AD00674"
4198642966,496,"Hampton","The Crescent","Blackburn","Isle of Wight","DY1 2AA","AD00675"
303896752,929,"The Exchange","Elgin Avenue","Stoke-on-Trent","Herefordshire","BD1 1AA","AD00676"
1861095112,185,"The Mander Centre","Elgin Avenue","Rochdale","Devon","PL1 1AA","AD00677"
783542895,483,"The Waterfront","Highbury Fields","Manchester","Northamptonshire","SN1 2AA","AD00678"
154137898,677,"The Liver Building","Lyttelton Road","Lincoln","Nottinghamshire","EX1 2AA","AD00679"
5894880750,1385,"Kings Walk","Wimbledon Park Road","Birmingham","Bristol","BS1 2AA","AD00680"
6713912788,1484,"Hadrian's Court","Bloomsbury Square","Nottingham","Essex","M1 2AA","AD00681"
4151407936,562,"The Silk Mill","Elgin Avenue","Leicester","Merseyside","NN1 3AA","AD00682"
8446488116,1060,"The Lansdowne","Gillespie Road","Chester","Herefordshire","BN1 2AA","AD00683"
4406636471,939,"The Quays","Barnsbury Road","Birmingham","Norfolk","TS1 1AA","AD00684"
8039698499,544,"Fisherton Street","Church Street","Reading","Lancashire","BN1 1AA","AD00685"
5877549677,212,"Lace Market Wohnungen","Notting Hill Gate","Bradford","Cumbria","SO1 2AA","AD00686"
938029789,752,"Chapelfield Road","Askew Road","Chester","City of London","PL1 2AA","AD00687"
700371672,702,"The Exchange","Alverstone Street","Stoke-on-Trent","South Yorkshire","GL1 2AA","AD00688"
3012693211,921,"Frenchgate Shopping Centre","Askew Road","Cambridge","Staffordshire","PE1 2AA","AD00689"
4882591847,792,"Southgate","Lauderdale Road","Nottingham","Bristol","PL1 1AA","AD00690"
3310361985,246,"Minster Court","Thornhill Road","Oxford","Kent","CA1 1AA","AD00691"
9179563120,1108,"Sovereign Square","Elgin Avenue","Dudley","Worcestershire","NN1 1AA","AD00692"
5941436157,322,"Moda Living","Randolph Crescent","Leicester","Bedfordshire","SO1 2AA","AD00693"
8038664205,1293,"Wapping Wharf","Fitzroy Square","Luton","Northumberland","BN1 3AA","AD00694"
8112123187,776,"The Marina","Fitzroy Square","Liverpool","Merseyside","CB1 1AA","AD00695"
6818955193,1066,"The Randolph","Chipping Norton Street","Exeter","Herefordshire","SR1 2AA","AD00696"
1925522903,1476,"The Drapery","Chipping Norton Street","Leeds","West Sussex","BH1 1AA","AD00697"
2216140244,661,"The Residence","Addison Road","Watford","Norfolk","CA1 2AA","AD00698"
5212791359,595,"Highcross Leicester","Bramerton Street","Rochdale","Hertfordshire","NE1 2AA","AD00699"
1685808158,1305,"Market Square","Askew Road","Oxford","Dorset","MK1 1AA","AD00700"
9424801114,564,"Frenchgate Shopping Centre","Thornhill Road","Crawley","Lancashire","S1 3AA","AD00701"
2548163334,247,"Castle Quay Apartments","Alverstone Street","Brighton","Cornwall","NG1 2AA","AD00702"
4242066910,1486,"Victoria Gate","Fitzroy Square","Nottingham","Somerset","BH1 2AA","AD00703"
287379906,837,"Linthorpe Road","Thornhill Road","Southampton","Dorset","LS1 1AA","AD00704"
1802463488,271,"Victoria Gate","Chipping Norton Street","Blackburn","Durham","LE1 3AA","AD00705"
7262401106,1476,"The Drapery","Chipping Norton Street","Leeds","West Sussex","BH1 1AA","AD00706"
1662182716,645,"The Forbury","Notting Hill Gate","Bolton","Lincolnshire","HU1 2AA","AD00707"
9768491574,131,"The Quays","Thornhill Road","Doncaster","Suffolk","NE1 3AA","AD00708"
11296798,821,"The Broadway","Thornhill Road","Gloucester","Leicestershire","BH1 2AA","AD00709"
8613595812,244,"Quayside Quays","Marylebone High Street","Oxford","Hertfordshire","IP1 2AA","AD00710"
1599542846,1035,"Kampus","Canonbury Grove","Southampton","Dorset","BS1 3AA","AD00711"
4710710058,368,"The Leverton","Wilton Road","Sheffield","Dorset","YO1 1AA","AD00712"
5402691924,853,"The Bridges","Canonbury Grove","Kingston upon Hull","Hertfordshire","WV1 3AA","AD00713"
5254577711,202,"The Strand","Wilton Road","Rochdale","Hampshire","OL1 2AA","AD00714"
5755719683,513,"Sovereign Square","Bloomsbury Square","Portsmouth","Kent","SP1 2AA","AD00715"
6553694346,936,"Bede House","Parsons Green Lane","Sheffield","Wiltshire","CR1 1AA","AD00716"
9068742434,1038,"The Rufus Centre","Bramerton Street","Nottingham","Hampshire","SP1 2AA","AD00717"
4093609667,241,"Brayford Pool","Thornhill Road","Bradford","Greater London","NR1 3AA","AD00718"
9792358935,1495,"The Sands","Marylebone High Street","Blackpool","East Sussex","NG1 2AA","AD00719"
3638541363,642,"The Landmark","Lauderdale Road","Sheffield","Cheshire","BD1 3AA","AD00720"
3939402214,764,"The Strand","Kensington Palace Gardens","Nottingham","Suffolk","NG1 2AA","AD00721"
9154669391,267,"The Big One Apartments","Chipping Norton Street","Swindon","Wiltshire","SR1 3AA","AD00722"
177010223,82,"The Triangle","Addison Road","Wolverhampton","Leicestershire","CA1 1AA","AD00723"
1897301472,263,"The Silk Mill","Lauderdale Road","Manchester","Greater London","CB1 1AA","AD00724"
9143075037,1438,"Deansgate Quays","Elgin Avenue","Bournemouth","Leicestershire","GL1 2AA","AD00725"
9857227562,449,"Bede House","Thornhill Road","Northampton","Merseyside","SN1 3AA","AD00726"
3442571243,1036,"Cathedral Green","Lyttelton Road","Luton","Warwickshire","BD1 1AA","AD00727"
8985425404,298,"The Bottle Yard Studios","Fitzroy Square","Northampton","Hampshire","PL1 2AA","AD00728"
4507079209,511,"Edgbaston Park","Notting Hill Gate","Bradford","Surrey","BN1 3AA","AD00729"
2259703283,1304,"Kampus","Bramerton Street","Reading","North Yorkshire","TS1 2AA","AD00730"
7324306438,751,"The Elements","Barnsbury Road","Lincoln","Essex","NN1 2AA","AD00731"
6829648157,272,"The Ascent","Wilton Road","Peterborough","East Sussex","NR1 1AA","AD00732"
4682722018,1198,"Tombland","Notting Hill Gate","Chester","Merseyside","NG1 3AA","AD00733"
8683427013,635,"The Residence","Highbury Fields","Luton","Northamptonshire","S1 3AA","AD00734"
7400326511,2,"The Beacon","Gillespie Road","Lincoln","West Yorkshire","LE1 1AA","AD00735"
7256952937,1438,"Wapping Wharf","Lauderdale Road","Oxford","Surrey","B1 1AA","AD00736"
4271630284,1474,"The Custard Factory","Gillespie Road","Bradford","South Yorkshire","FY1 1AA","AD00737"
4296412272,489,"The Workstation","Church Street","Blackburn","North Yorkshire","SO1 3AA","AD00738"
636120732,339,"The Barbican","The Boltons","Lincoln","Cornwall","CR1 2AA","AD00739"
5087316786,677,"The Liver Building","Lyttelton Road","Lincoln","Nottinghamshire","EX1 2AA","AD00740"
1583557857,1238,"The Harlequin","Notting Hill Gate","Exeter","Durham","BN1 3AA","AD00741"
9322937386,1043,"The Mailbox","Bramerton Street","Rochdale","Merseyside","B1 3AA","AD00742"
9722869752,702,"The Brewery Wharf","Wimbledon Park Road","Leeds","Bedfordshire","LU1 3AA","AD00743"
1524700991,1252,"The Outlet Swindon","Elgin Avenue","Southampton","Essex","BD1 1AA","AD00744"
391396188,849,"Leopold Square","Wimbledon Park Road","Chester","Greater Manchester","SN1 2AA","AD00745"
604779615,124,"The Cube","Lyttelton Road","Norwich","Oxfordshire","OL1 2AA","AD00746"
7370061108,489,"The Workstation","Church Street","Blackburn","North Yorkshire","SO1 3AA","AD00747"
1467404039,836,"The Norwich Lanes","Barons Court Road","Milton Keynes","Durham","NG1 2AA","AD00748"
9018909777,939,"The Quays","Barnsbury Road","Birmingham","Norfolk","TS1 1AA","AD00749"
9142421322,243,"The Lansdowne","Gillespie Road","Oxford","Lancashire","EX1 1AA","AD00750"
8978938299,1038,"The Rufus Centre","Bramerton Street","Nottingham","Hampshire","SP1 2AA","AD00751"
1780459041,1164,"Church Wharf","Alverstone Street","Exeter","Derbyshire","NN1 2AA","AD00752"
6521387413,782,"The Elements","Addison Road","Salisbury","East Riding of Yorkshire","NE1 2AA","AD00753"
5572274178,215,"Crusader Court","Church Street","Doncaster","East Riding of Yorkshire","GL1 3AA","AD00754"
7454965423,1346,"Brayford Pool","Canonbury Grove","Salisbury","Suffolk","B1 2AA","AD00755"
7448656317,806,"Midsummer Boulevard","Askew Road","Norwich","Northumberland","BH1 2AA","AD00756"
8754468655,800,"Trinity Walk","Notting Hill Gate","Leicester","Cumbria","SO1 1AA","AD00757"
7898504968,640,"The Landmark","Thornhill Road","Salisbury","East Sussex","IP1 1AA","AD00758"
2261961766,136,"The Hive","Weltjie Road","Bolton","East Riding of Yorkshire","LE1 1AA","AD00759"
683208306,806,"Abington Street","Wimbledon Park Road","Leeds","Cumbria","HU1 2AA","AD00760"
6403243977,918,"The Oracle Centre","Wilton Road","Bristol","Essex","CV1 1AA","AD00761"
6484058423,651,"High Street","Bramerton Street","Plymouth","West Sussex","LU1 1AA","AD00762"
4030705766,1445,"Waterfront","Addison Road","Northampton","Lancashire","TS1 3AA","AD00763"
4118670194,635,"Cathedral Green","Elgin Avenue","Ipswich","Cambridgeshire","TS1 3AA","AD00764"
247038547,732,"The Avenue","Askew Road","Plymouth","Suffolk","ST1 2AA","AD00765"
3533287289,292,"Milkstone Road","Barons Court Road","Leicester","Wiltshire","FY1 1AA","AD00766"
1762058014,131,"The Rows","Askew Road","Sunderland","Dorset","CR1 1AA","AD00767"
5637175357,983,"The Leverton","Sutherland Avenue","Liverpool","Dorset","YO1 1AA","AD00768"
5676121513,871,"Bathurst Buildings","Sutherland Avenue","Swindon","Cornwall","DY1 2AA","AD00769"
9163281449,1288,"Velocity Apartments","Parsons Green Lane","Rochdale","West Sussex","DN1 3AA","AD00770"
7246004521,222,"Bournville Wharf","Barons Court Road","Doncaster","Gloucestershire","WV1 2AA","AD00771"
3150124832,1437,"Deansgate Quays","Randolph Crescent","Gloucester","Hertfordshire","OX1 1AA","AD00772"
4254614063,1437,"The Promenade Apartments","Lyttelton Road","Middlesbrough","Norfolk","BN1 2AA","AD00773"
5704364586,834,"Waterfront","Addison Road","Milton Keynes","Gloucestershire","PE1 1AA","AD00774"
1087988195,1198,"Tombland","Notting Hill Gate","Chester","Merseyside","NG1 3AA","AD00775"
689880359,1394,"The Curve","Alverstone Street","Milton Keynes","Buckinghamshire","WD1 1AA","AD00776"
7921245706,682,"Victoria Gate","Elgin Avenue","Newcastle upon Tyne","Nottinghamshire","RG1 1AA","AD00777"
9075744161,1268,"Kampus","Gillespie Road","Norwich","Staffordshire","PL1 2AA","AD00778"
8453075670,1104,"Abington Street","Wimbledon Park Road","Newcastle upon Tyne","Hertfordshire","WV1 3AA","AD00779"
3158626160,1014,"Cathedral Quarter","Barons Court Road","Plymouth","Staffordshire","PL1 1AA","AD00780"
4861121140,537,"Manchester One","Gillespie Road","Blackpool","East Sussex","TS1 1AA","AD00781"
5628987204,420,"The Lansdowne","Parsons Green Lane","Leeds","Gloucestershire","OL1 1AA","AD00782"
1355532701,1393,"Brindleyplace","Church Street","Bradford","Tyne and Wear","SP1 2AA","AD00783"
1469274760,1020,"Brindleyplace","The Boltons","Bolton","Merseyside","MK1 1AA","AD00784"
9178603218,185,"St. Annes Way","Canonbury Grove","Southampton","Cumbria","SO1 2AA","AD00785"
3013209038,919,"Quayside Quays","Gillespie Road","York","Hampshire","BS1 1AA","AD00786"
9177513630,1425,"The Centre MK","Notting Hill Gate","Nottingham","Essex","EX1 1AA","AD00787"
8676644667,315,"The Park","Gillespie Road","Lincoln","Northumberland","SO1 3AA","AD00788"
5522788089,304,"Lace Market Wohnungen","Notting Hill Gate","Sheffield","Surrey","TS1 3AA","AD00789"
5272915917,924,"Moda Living","Lauderdale Road","Chester","Lancashire","LE1 3AA","AD00790"
7653236065,858,"The Waterfront","Elgin Avenue","Plymouth","Durham","CA1 3AA","AD00791"
5698269017,804,"Kampus","Highbury Fields","Manchester","South Yorkshire","B1 3AA","AD00792"
4950938053,1082,"The Curve","Canonbury Grove","Reading","Greater London","TS1 2AA","AD00793"
5646899745,1452,"The Close","Wilton Road","York","Derbyshire","BS1 1AA","AD00794"
130807796,1334,"The Brunel Centre","Askew Road","Reading","Somerset","B1 2AA","AD00795"
5284003330,1359,"The Curve","Chipping Norton Street","Liverpool","Cambridgeshire","NN1 1AA","AD00796"
6305383553,1399,"Humber Street","Chipping Norton Street","Chester","Tyne and Wear","BN1 3AA","AD00797"
6248800626,562,"The Silk Mill","Elgin Avenue","Leicester","Merseyside","NN1 3AA","AD00798"
1317880412,1191,"The Quadrant","Margravine Road","Rochdale","Isle of Wight","MK1 1AA","AD00799"
6742021845,13,"XYZ Apartments","Wilton Road","Plymouth","Cumbria","MK1 2AA","AD00800"
5616582476,1183,"Jericho Road","Lyttelton Road","Blackpool","Lincolnshire","WV1 2AA","AD00801"
6748005167,595,"Hadrian's Court","Highbury Fields","Newcastle upon Tyne","Nottinghamshire","WF1 2AA","AD00802"
7771232442,390,"The Bridges","Bramerton Street","Cambridge","City of London","YO1 2AA","AD00803"
3614527778,1085,"The Potteries Shopping Centre","Weltjie Road","Manchester","Cambridgeshire","NR1 1AA","AD00804"
6686925454,435,"The Potteries Shopping Centre","Wilton Road","Rochdale","Kent","BL1 1AA","AD00805"
8905732798,904,"The Wave","Thornhill Road","Stoke-on-Trent","Buckinghamshire","BD1 1AA","AD00806"
7121986280,194,"The Randolph","Randolph Crescent","Blackpool","Essex","BN1 2AA","AD00807"
8422770571,871,"Etruria Works","Alverstone Street","Leicester","Cornwall","SR1 1AA","AD00808"
8108855187,1110,"The Point","Kensington Palace Gardens","Plymouth","Devon","WF1 2AA","AD00809"
7313126344,1265,"Grand Arcade","Lauderdale Road","Birmingham","Hertfordshire","CR1 2AA","AD00810"
1516063880,1273,"The Maltings","Fitzroy Square","Salisbury","Berkshire","LN1 1AA","AD00811"
185502601,1239,"Cathedral Green","Canonbury Grove","Milton Keynes","Herefordshire","OL1 2AA","AD00812"
874916925,109,"Manchester One","Fitzroy Square","Doncaster","Gloucestershire","SO1 2AA","AD00813"
4497400948,909,"The Promenade Apartments","Addison Road","Leicester","Isle of Wight","WV1 1AA","AD00814"
137898363,447,"The Oracle Centre","Gillespie Road","Southampton","Dorset","LS1 3AA","AD00815"
4870732661,645,"The Forbury","Notting Hill Gate","Bolton","Lincolnshire","HU1 2AA","AD00816"
7058344108,529,"St Paul's Place","Bloomsbury Square","Coventry","Devon","NN1 3AA","AD00817"
5707773,1021,"Porter Valley","Fitzroy Square","Carlisle","Bedfordshire","DE1 1AA","AD00818"
3446451781,1335,"Frenchgate Shopping Centre","Highbury Fields","Blackburn","Worcestershire","TS1 1AA","AD00819"
6318499563,749,"Highcross Leicester","Wimbledon Park Road","Southampton","Shropshire","LU1 2AA","AD00820"
5130433041,1218,"The Custard Factory","Marylebone High Street","Liverpool","Norfolk","CR1 3AA","AD00821"
3253982955,130,"The Elements","Barnsbury Road","Lincoln","Durham","BD1 3AA","AD00822"
55756727,92,"The Custard Factory","Canonbury Grove","Birmingham","Greater London","MK1 2AA","AD00823"
281155496,829,"The Maltings","Canonbury Grove","Wolverhampton","Nottinghamshire","BH1 2AA","AD00824"
8209211862,171,"Linthorpe Road","Canonbury Grove","Kingston upon Hull","Devon","S1 3AA","AD00825"
2263475,1028,"Victoria Street","Kensington Palace Gardens","Bradford","Nottinghamshire","LU1 3AA","AD00826"
5500504754,150,"The Centre MK","Church Street","Exeter","South Yorkshire","CV1 3AA","AD00827"
2146978635,686,"The Close","Weltjie Road","Nottingham","Isle of Wight","NG1 3AA","AD00828"
1743433115,1078,"Highcross Leicester","The Boltons","Carlisle","Hampshire","YO1 2AA","AD00829"
5206507822,166,"The Sands","Barnsbury Road","Milton Keynes","Derbyshire","BN1 3AA","AD00830"
5640697571,1257,"Quayside Quays","Notting Hill Gate","Cambridge","Devon","WV1 1AA","AD00831"
8191097230,862,"The Grafton","Church Street","Birmingham","Leicestershire","BD1 3AA","AD00832"
3392150886,56,"Minster Court","Chipping Norton Street","Cambridge","Buckinghamshire","DY1 2AA","AD00833"
2956339559,27,"The Bridges","Parsons Green Lane","Chester","Berkshire","CH1 2AA","AD00834"
6116292186,934,"The Light","Randolph Crescent","Derby","Rutland","SO1 2AA","AD00835"
2431136809,918,"The Sands","Lauderdale Road","Middlesbrough","Derbyshire","BH1 3AA","AD00836"
5921794120,266,"The Beacon","The Boltons","Bolton","Gloucestershire","FY1 3AA","AD00837"
2781082988,797,"The Landmark","The Boltons","Gloucester","Isle of Wight","NN1 3AA","AD00838"
1687340919,541,"Brindleyplace","Barons Court Road","Kingston upon Hull","Buckinghamshire","SN1 2AA","AD00839"
6778728353,702,"The Lanes Apartments","The Crescent","Norwich","Cumbria","NN1 2AA","AD00840"
8237918673,883,"Tombland","Kensington Palace Gardens","Gloucester","East Sussex","LU1 1AA","AD00841"
1721108882,998,"Ropewalks","Margravine Road","Exeter","Hampshire","ST1 1AA","AD00842"
9899947016,780,"Moda Living","Chipping Norton Street","Coventry","Nottinghamshire","BH1 3AA","AD00843"
5190435679,1273,"Forster Square Apartments","Alverstone Street","Luton","Warwickshire","LS1 1AA","AD00844"
3240361507,544,"Fisherton Street","Church Street","Reading","Lancashire","BN1 1AA","AD00845"
9455746700,241,"Brayford Pool","Thornhill Road","Bradford","Greater London","NR1 3AA","AD00846"
9949030218,17,"The General Hospital Quarter","Kensington Palace Gardens","Luton","Dorset","ST1 1AA","AD00847"
6441733250,601,"The Malago Estate","Lauderdale Road","Doncaster","Cheshire","BD1 2AA","AD00848"
43715540,1011,"The Barbican","Sutherland Avenue","Reading","Greater London","TS1 3AA","AD00849"
6154182996,821,"The Broadway","Thornhill Road","Gloucester","Leicestershire","BH1 2AA","AD00850"
2036285236,14,"The Bottle Yard Studios","Canonbury Grove","Sheffield","South Yorkshire","BN1 1AA","AD00851"
3328868402,1085,"The Potteries Shopping Centre","Weltjie Road","Manchester","Cambridgeshire","NR1 1AA","AD00852"
9190410300,599,"Manchester One","Alverstone Street","Sunderland","South Yorkshire","TS1 2AA","AD00853"
6267170756,791,"The Headrow","Sutherland Avenue","Watford","Herefordshire","NG1 3AA","AD00854"
9715929583,447,"City Park","Parsons Green Lane","Manchester","Bedfordshire","FY1 2AA","AD00855"
3893812490,1039,"The Brewery Wharf","Gillespie Road","Rochdale","West Midlands","OX1 3AA","AD00856"
5999597722,800,"The Waterfront","Askew Road","Luton","Bedfordshire","BS1 3AA","AD00857"
1944334378,711,"Milkstone Road","Marylebone High Street","Oxford","Greater Manchester","NG1 3AA","AD00858"
2225877599,1313,"Waterfront","Parsons Green Lane","Liverpool","Hertfordshire","WV1 3AA","AD00859"
6363742099,1035,"Kampus","Canonbury Grove","Southampton","Dorset","BS1 3AA","AD00860"
932646247,1265,"Grand Arcade","Lauderdale Road","Birmingham","Hertfordshire","CR1 2AA","AD00861"
3143606231,14,"Minster Court","Lauderdale Road","Southampton","Cornwall","B1 3AA","AD00862"
7845401722,207,"Cathedral Square","Marylebone High Street","Luton","Lancashire","SP1 3AA","AD00863"
1504838939,283,"County Oak","Chipping Norton Street","Luton","Leicestershire","M1 1AA","AD00864"
5282402645,385,"Cathedral Square","Randolph Crescent","Sunderland","Cumbria","EX1 1AA","AD00865"
1673061737,645,"The Forbury","Notting Hill Gate","Bolton","Lincolnshire","HU1 2AA","AD00866"
1227191111,758,"St Paul's Place","Parsons Green Lane","Birmingham","Gloucestershire","IP1 2AA","AD00867"
1962003167,176,"The Interchange","Wilton Road","Wakefield","Greater London","TS1 3AA","AD00868"
8952602749,630,"Porter Valley","Parsons Green Lane","Leeds","Lancashire","FY1 1AA","AD00869"
4464866700,831,"The Drapery","Gillespie Road","Doncaster","Cumbria","BN1 2AA","AD00870"
4791698398,263,"Bathurst Buildings","The Boltons","Watford","Norfolk","BL1 1AA","AD00871"
198404883,366,"The Promenade Apartments","Parsons Green Lane","Luton","Leicestershire","GL1 2AA","AD00872"
437656322,1251,"Bede House","Fitzroy Square","Middlesbrough","Suffolk","EX1 1AA","AD00873"
6435720681,201,"The Point","Wimbledon Park Road","Nottingham","Suffolk","HU1 3AA","AD00874"
142317438,1363,"The Hoe Apartment Hotel","Wilton Road","Cambridge","Warwickshire","RG1 1AA","AD00875"
461156067,711,"Jericho Road","Bloomsbury Square","Luton","Norfolk","PE1 1AA","AD00876"
6346868403,1265,"Grand Arcade","Lauderdale Road","Birmingham","Hertfordshire","CR1 2AA","AD00877"
7382564983,751,"The Elements","Barnsbury Road","Lincoln","Essex","NN1 2AA","AD00878"
2282902033,840,"Rochdale Exchange","Park Avenue Road","Blackburn","Bristol","M1 3AA","AD00879"
3706369737,12,"The iQ Wolverhampton","Bloomsbury Square","Blackburn","Rutland","TS1 1AA","AD00880"
7150879683,1158,"The Broadway","Askew Road","Plymouth","Essex","NE1 1AA","AD00881"
6993231239,1334,"The Brunel Centre","Askew Road","Reading","Somerset","B1 2AA","AD00882"
9215320474,246,"Minster Court","Thornhill Road","Oxford","Kent","CA1 1AA","AD00883"
9696025629,890,"The Drapery","Church Street","Carlisle","Lincolnshire","WV1 2AA","AD00884"
4689206104,438,"Etruria Works","Weltjie Road","Watford","Oxfordshire","SN1 3AA","AD00885"
2563721997,792,"Southgate","Lauderdale Road","Nottingham","Bristol","PL1 1AA","AD00886"
3237004200,30,"The Maltings","Barnsbury Road","Norwich","West Sussex","BS1 2AA","AD00887"
7898581989,944,"Cathedral Quarter","Margravine Road","Gloucester","Hampshire","GL1 3AA","AD00888"
1635510430,535,"The Rows","The Crescent","Coventry","Shropshire","CA1 3AA","AD00889"
4086633965,78,"Transporter Bridge Apartments","Parsons Green Lane","Brighton","South Yorkshire","SO1 2AA","AD00890"
2607533902,876,"The Potteries Shopping Centre","The Boltons","Sheffield","Wiltshire","WD1 1AA","AD00891"
2680449444,843,"Bathurst Buildings","Canonbury Grove","Gloucester","Greater Manchester","DN1 1AA","AD00892"
5686984336,972,"St Paul's Place","Highbury Fields","Reading","Herefordshire","WV1 1AA","AD00893"
3202921118,1438,"Deansgate Quays","Elgin Avenue","Bournemouth","Leicestershire","GL1 2AA","AD00894"
1162177136,694,"City Park","Bloomsbury Square","Gloucester","Derbyshire","BL1 3AA","AD00895"
9835152829,233,"Middlehaven","Lauderdale Road","Luton","Somerset","BN1 1AA","AD00896"
1719359016,1490,"The Sands","Addison Road","Bournemouth","Leicestershire","OX1 3AA","AD00897"
8808163040,200,"Southgate Street","Wilton Road","Portsmouth","Somerset","LU1 1AA","AD00898"
2640900544,276,"Cathedral Green","Lauderdale Road","Milton Keynes","Lancashire","BN1 1AA","AD00899"
582913691,716,"The Brunel Centre","Askew Road","York","Greater Manchester","NR1 3AA","AD00900"
1867809079,1012,"The Lumen","Weltjie Road","Wakefield","Bedfordshire","SP1 1AA","AD00901"
9181914202,1419,"Rivergate","Parsons Green Lane","Dudley","Greater Manchester","NN1 2AA","AD00902"
646725,1039,"The Brewery Wharf","Gillespie Road","Rochdale","West Midlands","OX1 3AA","AD00903"
594609321,1419,"The Light","Park Avenue Road","Blackburn","Surrey","WV1 2AA","AD00904"
1776479718,886,"Rochdale Exchange","Elgin Avenue","Gloucester","Greater Manchester","PE1 3AA","AD00905"
5909118722,1293,"Wapping Wharf","Fitzroy Square","Luton","Northumberland","BN1 3AA","AD00906"
9149868527,1220,"The Deep","Kensington Palace Gardens","Oxford","West Yorkshire","HU1 1AA","AD00907"
4136554117,819,"Victoria Street","The Crescent","Lincoln","Rutland","WF1 1AA","AD00908"
772106983,362,"The Big One Apartments","Parsons Green Lane","Derby","Greater London","S1 2AA","AD00909"
7953792583,1345,"Northern Spire","Lauderdale Road","Carlisle","East Riding of Yorkshire","IP1 1AA","AD00910"
5018903015,605,"The Rows","Highbury Fields","Nottingham","Hertfordshire","LU1 1AA","AD00911"
2753344116,1238,"The Harlequin","Notting Hill Gate","Exeter","Durham","BN1 3AA","AD00912"
8185971382,36,"Waterdale","Parsons Green Lane","Sheffield","Nottinghamshire","B1 1AA","AD00913"
5149635839,1469,"Southgate","Fitzroy Square","Peterborough","Cumbria","BD1 2AA","AD00914"
5725711366,1064,"The Big One Apartments","The Boltons","Bradford","Cheshire","SP1 3AA","AD00915"
139471871,1425,"The Centre MK","Notting Hill Gate","Nottingham","Essex","EX1 1AA","AD00916"
9820420768,174,"The BH1 Apartments","The Crescent","Exeter","City of London","PL1 3AA","AD00917"
8935197564,164,"Kelham Island","Margravine Road","Northampton","Essex","LS1 2AA","AD00918"
390737267,1107,"Brayford Pool","Sutherland Avenue","Leeds","Durham","MK1 1AA","AD00919"
3085923357,429,"The BH1 Apartments","Marylebone High Street","Peterborough","Lincolnshire","EX1 2AA","AD00920"
3422491988,1034,"The Buttermarket","Chipping Norton Street","Crawley","Rutland","OX1 2AA","AD00921"
4613988640,1440,"Porter Valley","The Crescent","Bournemouth","West Sussex","IP1 2AA","AD00922"
9364685350,1469,"Southgate","Fitzroy Square","Peterborough","Cumbria","BD1 2AA","AD00923"
1967109532,383,"Lakeside Village","Kensington Palace Gardens","Kingston upon Hull","Dorset","TS1 3AA","AD00924"
9275150125,895,"Crusader Court","Barnsbury Road","Crawley","South Yorkshire","CV1 1AA","AD00925"
6271199747,329,"The Interchange","Lauderdale Road","Lincoln","Leicestershire","B1 3AA","AD00926"
567040011,1083,"Deansgate Quays","Notting Hill Gate","Swindon","East Sussex","LN1 1AA","AD00927"
3882639954,1114,"Xscape MK","Kensington Palace Gardens","Bradford","Cambridgeshire","FY1 1AA","AD00928"
6968749165,1350,"Xscape MK","Fitzroy Square","Plymouth","Kent","SN1 3AA","AD00929"
1471371751,1210,"The Workstation","Addison Road","Doncaster","Northamptonshire","SO1 1AA","AD00930"
9623219598,73,"Trinity Leeds","Elgin Avenue","Chester","Warwickshire","SR1 1AA","AD00931"
847683591,854,"Fossgate","The Crescent","Birmingham","South Yorkshire","BS1 3AA","AD00932"
4145227425,773,"The Pumphouse","Church Street","Luton","North Yorkshire","B1 1AA","AD00933"
7925297603,1441,"Pride Park","Highbury Fields","Doncaster","Shropshire","LU1 2AA","AD00934"
5861032920,464,"Velocity Apartments","Fitzroy Square","Blackburn","Bristol","LS1 2AA","AD00935"
4588641549,92,"The Custard Factory","Canonbury Grove","Birmingham","Greater London","MK1 2AA","AD00936"
6972845386,614,"The Big One Apartments","Marylebone High Street","Blackburn","East Riding of Yorkshire","BS1 2AA","AD00937"
9269008126,537,"One Park Lane","Church Street","Swindon","Wiltshire","NR1 3AA","AD00938"
727867733,980,"Frenchgate Shopping Centre","Canonbury Grove","Sheffield","North Yorkshire","BS1 3AA","AD00939"
2800653086,721,"The Sands","Addison Road","Watford","City of London","CB1 3AA","AD00940"
3992427870,1273,"Forster Square Apartments","Alverstone Street","Luton","Warwickshire","LS1 1AA","AD00941"
74389491,1278,"The Curve","Bramerton Street","Luton","North Yorkshire","LN1 2AA","AD00942"
3036334610,821,"The Broadway","Thornhill Road","Gloucester","Leicestershire","BH1 2AA","AD00943"
7605319843,970,"Leopold Square","Barnsbury Road","Rochdale","North Yorkshire","DE1 2AA","AD00944"
3778364464,1495,"The Randolph","Kensington Palace Gardens","Southampton","Lancashire","IP1 1AA","AD00945"
2995279596,743,"St. Annes Way","Alverstone Street","Norwich","East Riding of Yorkshire","DY1 1AA","AD00946"
8769764018,233,"The Cube","Elgin Avenue","Southampton","Cambridgeshire","LN1 3AA","AD00947"
2968474790,921,"Frenchgate Shopping Centre","Askew Road","Cambridge","Staffordshire","PE1 2AA","AD00948"
9346952466,234,"The Sands","Canonbury Grove","Kingston upon Hull","Buckinghamshire","DE1 3AA","AD00949"
3356025554,599,"Manchester One","Alverstone Street","Sunderland","South Yorkshire","TS1 2AA","AD00950"
9365607833,758,"The Broadway","Alverstone Street","Blackpool","Gloucestershire","LS1 1AA","AD00951"
8806780743,233,"Middlehaven","Lauderdale Road","Luton","Somerset","BN1 1AA","AD00952"
1233816462,931,"Bede House","Lyttelton Road","Newcastle upon Tyne","Cheshire","YO1 1AA","AD00953"
1481077503,1188,"The Quays","Park Avenue Road","Gloucester","Greater Manchester","BL1 1AA","AD00954"
8891554421,219,"Middlehaven","Marylebone High Street","Exeter","Herefordshire","NR1 3AA","AD00955"
6158478741,1452,"The Close","Wilton Road","York","Derbyshire","BS1 1AA","AD00956"
8348509445,521,"The Lansdowne","Chipping Norton Street","Lincoln","Cornwall","NG1 1AA","AD00957"
65287630,245,"City Walls","Gillespie Road","Rochdale","Cumbria","BN1 2AA","AD00958"
1427713243,510,"The Bridges","Bramerton Street","Rochdale","Kent","MK1 2AA","AD00959"
5866382369,1219,"Highcross Leicester","Barnsbury Road","Salisbury","Cornwall","FY1 2AA","AD00960"
4036726102,586,"The Promenade Apartments","Elgin Avenue","Nottingham","East Sussex","TS1 3AA","AD00961"
4289143660,662,"The Sands","Church Street","Manchester","Norfolk","BN1 2AA","AD00962"
4934410317,339,"The Waterfront","Randolph Crescent","Sheffield","Tyne and Wear","BH1 1AA","AD00963"
7075557254,1060,"The Cube","Barons Court Road","Nottingham","Derbyshire","DN1 3AA","AD00964"
3360367472,368,"The Leverton","Wilton Road","Sheffield","Dorset","YO1 1AA","AD00965"
3332886517,887,"The Ruskin","Alverstone Street","Newcastle upon Tyne","Tyne and Wear","LE1 1AA","AD00966"
6901898878,842,"The Interchange","Kensington Palace Gardens","Liverpool","Worcestershire","CR1 1AA","AD00967"
2837614262,1407,"The Market Place","Park Avenue Road","Coventry","West Yorkshire","DN1 2AA","AD00968"
5870616018,489,"Trinity Walk","Park Avenue Road","Manchester","Cheshire","GL1 1AA","AD00969"
5942825793,1030,"Sutton Harbour","Margravine Road","Derby","Northamptonshire","BS1 3AA","AD00970"
8917596134,1440,"Porter Valley","The Crescent","Bournemouth","West Sussex","IP1 2AA","AD00971"
8158844987,432,"The Landmark","Wilton Road","Chester","West Midlands","EX1 3AA","AD00972"
1099873584,1338,"Kemp Town","Highbury Fields","Exeter","Suffolk","BN1 2AA","AD00973"
6521639323,631,"Mayfield","Wimbledon Park Road","Lincoln","Cheshire","FY1 3AA","AD00974"
5614425314,1425,"The Centre MK","Notting Hill Gate","Nottingham","Essex","EX1 1AA","AD00975"
6702589727,800,"Trinity Walk","Notting Hill Gate","Leicester","Cumbria","SO1 1AA","AD00976"
386284482,906,"The Lansdowne","Barnsbury Road","Cambridge","Shropshire","CV1 3AA","AD00977"
4691018484,732,"The Silk Mill","Barnsbury Road","Plymouth","Cornwall","WF1 1AA","AD00978"
9184883677,233,"The Broadway","The Crescent","Middlesbrough","Leicestershire","M1 3AA","AD00979"
8816871660,1346,"The Point","Barons Court Road","Coventry","Wiltshire","LS1 2AA","AD00980"
8081163174,383,"Lakeside Village","Kensington Palace Gardens","Kingston upon Hull","Dorset","TS1 3AA","AD00981"
8409203502,221,"The Lexington","Canonbury Grove","Watford","Hampshire","CH1 1AA","AD00982"
2136264044,468,"The Custard Factory","Barons Court Road","Blackpool","West Yorkshire","TS1 1AA","AD00983"
764410032,983,"The Leverton","Sutherland Avenue","Liverpool","Dorset","YO1 1AA","AD00984"
7076809257,615,"Waterfront","Highbury Fields","Luton","Surrey","FY1 1AA","AD00985"
54982561,1144,"Lace Market Wohnungen","Askew Road","Sheffield","Cambridgeshire","IP1 1AA","AD00986"
6239145920,679,"The General Hospital Quarter","The Crescent","Watford","Lancashire","MK1 2AA","AD00987"
4612881524,848,"Broadgate","Weltjie Road","Wolverhampton","Merseyside","CA1 2AA","AD00988"
645082392,217,"Bradshawgate","Highbury Fields","Bradford","Durham","NN1 3AA","AD00989"
9221939294,1486,"Ocean Village","Kensington Palace Gardens","Blackburn","Cornwall","DN1 3AA","AD00990"
4127667486,1075,"City Walls","Marylebone High Street","Doncaster","Wiltshire","NG1 2AA","AD00991"
9008200104,5,"Crusader Court","Elgin Avenue","Cambridge","Gloucestershire","YO1 3AA","AD00992"
4188613548,302,"The Leverton","Highbury Fields","Wakefield","Gloucestershire","PE1 3AA","AD00993"
9796216949,167,"Victoria Street","Marylebone High Street","Stoke-on-Trent","Worcestershire","DN1 3AA","AD00994"
9333635424,910,"The Drapery","Margravine Road","Luton","South Yorkshire","WF1 2AA","AD00995"
7135423313,1030,"The Sands","Church Street","Ipswich","Rutland","PL1 2AA","AD00996"
7155974064,821,"The Broadway","Thornhill Road","Gloucester","Leicestershire","BH1 2AA","AD00997"
2244927288,202,"The Strand","Wilton Road","Rochdale","Hampshire","OL1 2AA","AD00998"
9291285358,272,"The Ascent","Wilton Road","Peterborough","East Sussex","NR1 1AA","AD00999"
316732257,540,"The Broadway","Parsons Green Lane","Coventry","Warwickshire","RG1 3AA","AD01000"
